{
"type": "FeatureCollection",
"name": "drone_routes",
"crs": { "type": "name", "properties": { "name": "urn:ogc:def:crs:OGC:1.3:CRS84" } },
"features": [
{ "type": "Feature", "properties": { "hub_name": "반포천 공영주차장(파미에)(시)", "target_h3": "8930e1ca3d3ffff", "target_dong": "역삼1동", "terrain_zone": "Yellow", "distance_m": 2540.2, "flight_time_min": 4.23, "hub_elev": 24.275653839111328, "target_elev": 43.893032073974609, "elev_diff": 19.617378234863281, "urgency": 0.63873651464781644 }, "geometry": { "type": "LineString", "coordinates": [ [ 127.007933, 37.504517 ], [ 127.036514452068261, 37.502118406517035 ] ] } },
{ "type": "Feature", "properties": { "hub_name": "반포천 공영주차장(파미에)(시)", "target_h3": "8930e1ca2abffff", "target_dong": "역삼1동", "terrain_zone": "Green", "distance_m": 2186.3, "flight_time_min": 3.64, "hub_elev": 24.275653839111328, "target_elev": 30.363113403320312, "elev_diff": 6.0874595642089844, "urgency": 0.57583281571324507 }, "geometry": { "type": "LineString", "coordinates": [ [ 127.007933, 37.504517 ], [ 127.030858653926785, 37.497120821913072 ] ] } },
{ "type": "Feature", "properties": { "hub_name": "반포천 공영주차장(파미에)(시)", "target_h3": "8930e1ca2a3ffff", "target_dong": "역삼1동", "terrain_zone": "Green", "distance_m": 2109.0, "flight_time_min": 3.52, "hub_elev": 24.275653839111328, "target_elev": 35.882175445556641, "elev_diff": 11.606521606445312, "urgency": 0.55952016038611341 }, "geometry": { "type": "LineString", "coordinates": [ [ 127.007933, 37.504517 ], [ 127.031093183686849, 37.499944823719943 ] ] } },
{ "type": "Feature", "properties": { "hub_name": "반포천 공영주차장(파미에)(시)", "target_h3": "8930e1ca2a7ffff", "target_dong": "역삼1동", "terrain_zone": "Green", "distance_m": 2319.1, "flight_time_min": 3.87, "hub_elev": 24.275653839111328, "target_elev": 35.547504425048828, "elev_diff": 11.2718505859375, "urgency": 0.55927542068380187 }, "geometry": { "type": "LineString", "coordinates": [ [ 127.007933, 37.504517 ], [ 127.033803705670181, 37.501031616916592 ] ] } },
{ "type": "Feature", "properties": { "hub_name": "반포천 공영주차장(파미에)(시)", "target_h3": "8930e1ca2bbffff", "target_dong": "역삼1동", "terrain_zone": "Yellow", "distance_m": 1913.5, "flight_time_min": 3.19, "hub_elev": 24.275653839111328, "target_elev": 26.668876647949219, "elev_diff": 2.3932228088378906, "urgency": 0.54907444607383726 }, "geometry": { "type": "LineString", "coordinates": [ [ 127.007933, 37.504517 ], [ 127.028382886102634, 37.498858026940439 ] ] } },
{ "type": "Feature", "properties": { "hub_name": "영남 공영주차장(시)", "target_h3": "8930e1d9553ffff", "target_dong": "여의동", "terrain_zone": "Green", "distance_m": 1125.7, "flight_time_min": 1.88, "hub_elev": 20.199066162109375, "target_elev": 18.43968391418457, "elev_diff": -1.7593822479248047, "urgency": 0.45575880975171035 }, "geometry": { "type": "LineString", "coordinates": [ [ 126.90260898, 37.51947074 ], [ 126.915074563591673, 37.521560448437704 ] ] } },
{ "type": "Feature", "properties": { "hub_name": "영남 공영주차장(시)", "target_h3": "8930e1d954fffff", "target_dong": "여의동", "terrain_zone": "Yellow", "distance_m": 1546.5, "flight_time_min": 2.58, "hub_elev": 20.199066162109375, "target_elev": 14.094833374023438, "elev_diff": -6.1042327880859375, "urgency": 0.45574810655254716 }, "geometry": { "type": "LineString", "coordinates": [ [ 126.90260898, 37.51947074 ], [ 126.920023366355665, 37.518095043205129 ] ] } },
{ "type": "Feature", "properties": { "hub_name": "영남 공영주차장(시)", "target_h3": "8930e1d940fffff", "target_dong": "영등포동", "terrain_zone": "Green", "distance_m": 290.8, "flight_time_min": 0.48, "hub_elev": 20.199066162109375, "target_elev": 19.86334228515625, "elev_diff": -0.335723876953125, "urgency": 0.33488656645350606 }, "geometry": { "type": "LineString", "coordinates": [ [ 126.90260898, 37.51947074 ], [ 126.904262003568178, 37.517204830680157 ] ] } },
{ "type": "Feature", "properties": { "hub_name": "영남 공영주차장(시)", "target_h3": "8930e1d943bffff", "target_dong": "영등포동", "terrain_zone": "Green", "distance_m": 406.5, "flight_time_min": 0.68, "hub_elev": 20.199066162109375, "target_elev": 21.374828338623047, "elev_diff": 1.1757621765136719, "urgency": 0.28451195959189501 }, "geometry": { "type": "LineString", "coordinates": [ [ 126.90260898, 37.51947074 ], [ 126.906964807352267, 37.518293739747186 ] ] } },
{ "type": "Feature", "properties": { "hub_name": "영남 공영주차장(시)", "target_h3": "8930e1d94a3ffff", "target_dong": "영등포동", "terrain_zone": "Green", "distance_m": 718.0, "flight_time_min": 1.2, "hub_elev": 20.199066162109375, "target_elev": 18.585895538330078, "elev_diff": -1.6131706237792969, "urgency": 0.27609181227242147 }, "geometry": { "type": "LineString", "coordinates": [ [ 126.90260898, 37.51947074 ], [ 126.904948040769327, 37.525668508384079 ] ] } },
{ "type": "Feature", "properties": { "hub_name": "구로디지털단지역 공영주차장(시)", "target_h3": "8930e0364a3ffff", "target_dong": "가산동", "terrain_zone": "Green", "distance_m": 1796.6, "flight_time_min": 2.99, "hub_elev": 21.365133285522461, "target_elev": 17.85931396484375, "elev_diff": -3.5058193206787109, "urgency": 0.34951656126079989 }, "geometry": { "type": "LineString", "coordinates": [ [ 126.90124331, 37.48543179 ], [ 126.882844795731927, 37.478557918365958 ] ] } },
{ "type": "Feature", "properties": { "hub_name": "구로디지털단지역 공영주차장(시)", "target_h3": "8930e036487ffff", "target_dong": "가산동", "terrain_zone": "Green", "distance_m": 2195.6, "flight_time_min": 3.66, "hub_elev": 21.365133285522461, "target_elev": 16.202228546142578, "elev_diff": -5.1629047393798828, "urgency": 0.34912493982769199 }, "geometry": { "type": "LineString", "coordinates": [ [ 126.90124331, 37.48543179 ], [ 126.877673124175544, 37.479201824754497 ] ] } },
{ "type": "Feature", "properties": { "hub_name": "구로디지털단지역 공영주차장(시)", "target_h3": "8930e036467ffff", "target_dong": "가산동", "terrain_zone": "Green", "distance_m": 2431.6, "flight_time_min": 4.05, "hub_elev": 21.365133285522461, "target_elev": 17.889385223388672, "elev_diff": -3.4757480621337891, "urgency": 0.34513941196862891 }, "geometry": { "type": "LineString", "coordinates": [ [ 126.90124331, 37.48543179 ], [ 126.887106019618713, 37.466632804338325 ] ] } },
{ "type": "Feature", "properties": { "hub_name": "구로디지털단지역 공영주차장(시)", "target_h3": "8930e0364a7ffff", "target_dong": "가산동", "terrain_zone": "Yellow", "distance_m": 1529.2, "flight_time_min": 2.55, "hub_elev": 21.365133285522461, "target_elev": 18.478105545043945, "elev_diff": -2.8870277404785156, "urgency": 0.34089182565568898 }, "geometry": { "type": "LineString", "coordinates": [ [ 126.90124331, 37.48543179 ], [ 126.88554459768639, 37.47964598790081 ] ] } },
{ "type": "Feature", "properties": { "hub_name": "구로디지털단지역 공영주차장(시)", "target_h3": "8930e0acb43ffff", "target_dong": "가산동", "terrain_zone": "Yellow", "distance_m": 2044.7, "flight_time_min": 3.41, "hub_elev": 21.365133285522461, "target_elev": 14.502777099609375, "elev_diff": -6.8623561859130859, "urgency": 0.3383005660710674 }, "geometry": { "type": "LineString", "coordinates": [ [ 126.90124331, 37.48543179 ], [ 126.878127707171231, 37.484842050292485 ] ] } },
{ "type": "Feature", "properties": { "hub_name": "장안1동 공영주차장(시)", "target_h3": "8930e1c137bffff", "target_dong": "화양동", "terrain_zone": "Green", "distance_m": 3219.2, "flight_time_min": 5.37, "hub_elev": 23.528659820556641, "target_elev": 22.745330810546875, "elev_diff": -0.78332901000976562, "urgency": 0.26165099738942599 }, "geometry": { "type": "LineString", "coordinates": [ [ 127.066994, 37.56941 ], [ 127.071189183614791, 37.540587191727191 ] ] } },
{ "type": "Feature", "properties": { "hub_name": "장안1동 공영주차장(시)", "target_h3": "8930e1c130fffff", "target_dong": "화양동", "terrain_zone": "Green", "distance_m": 2603.7, "flight_time_min": 4.34, "hub_elev": 23.528659820556641, "target_elev": 25.034866333007812, "elev_diff": 1.5062065124511719, "urgency": 0.23281019725919505 }, "geometry": { "type": "LineString", "coordinates": [ [ 127.066994, 37.56941 ], [ 127.071662364672889, 37.546238195924097 ] ] } },
{ "type": "Feature", "properties": { "hub_name": "장안1동 공영주차장(시)", "target_h3": "8930e1c1303ffff", "target_dong": "화양동", "terrain_zone": "Yellow", "distance_m": 2385.9, "flight_time_min": 3.98, "hub_elev": 23.528659820556641, "target_elev": 17.456928253173828, "elev_diff": -6.0717315673828125, "urgency": 0.23234159683485442 }, "geometry": { "type": "LineString", "coordinates": [ [ 127.066994, 37.56941 ], [ 127.069183968405397, 37.547976075576351 ] ] } },
{ "type": "Feature", "properties": { "hub_name": "장안1동 공영주차장(시)", "target_h3": "8930e1c130bffff", "target_dong": "화양동", "terrain_zone": "Yellow", "distance_m": 2697.0, "flight_time_min": 4.5, "hub_elev": 23.528659820556641, "target_elev": 21.482114791870117, "elev_diff": -2.0465450286865234, "urgency": 0.23203941946785903 }, "geometry": { "type": "LineString", "coordinates": [ [ 127.066994, 37.56941 ], [ 127.068947477610763, 37.545150593181852 ] ] } },
{ "type": "Feature", "properties": { "hub_name": "장안1동 공영주차장(시)", "target_h3": "8930e1c1347ffff", "target_dong": "화양동", "terrain_zone": "Green", "distance_m": 3008.8, "flight_time_min": 5.01, "hub_elev": 23.528659820556641, "target_elev": 23.117437362670898, "elev_diff": -0.41122245788574219, "urgency": 0.23144363394278303 }, "geometry": { "type": "LineString", "coordinates": [ [ 127.066994, 37.56941 ], [ 127.068711008029439, 37.542325149593857 ] ] } },
{ "type": "Feature", "properties": { "hub_name": "천호역 공영주차장(시)", "target_h3": "8930e1cf087ffff", "target_dong": "둔촌1동", "terrain_zone": "Green", "distance_m": 1769.3, "flight_time_min": 2.95, "hub_elev": 22.664630889892578, "target_elev": 25.859922409057617, "elev_diff": 3.1952915191650391, "urgency": 0.37317025266051346 }, "geometry": { "type": "LineString", "coordinates": [ [ 127.12512853, 37.53849749 ], [ 127.138250833976642, 37.526451482940921 ] ] } },
{ "type": "Feature", "properties": { "hub_name": "천호역 공영주차장(시)", "target_h3": "8930e1cf5cfffff", "target_dong": "길동", "terrain_zone": "Green", "distance_m": 1024.0, "flight_time_min": 1.71, "hub_elev": 22.664630889892578, "target_elev": 23.909238815307617, "elev_diff": 1.2446079254150391, "urgency": 0.33829828499188158 }, "geometry": { "type": "LineString", "coordinates": [ [ 127.12512853, 37.53849749 ], [ 127.136490677912093, 37.536672927682829 ] ] } },
{ "type": "Feature", "properties": { "hub_name": "천호역 공영주차장(시)", "target_h3": "8930e1cf51bffff", "target_dong": "길동", "terrain_zone": "Green", "distance_m": 1246.7, "flight_time_min": 2.08, "hub_elev": 22.664630889892578, "target_elev": 20.447483062744141, "elev_diff": -2.2171478271484375, "urgency": 0.30632673271506167 }, "geometry": { "type": "LineString", "coordinates": [ [ 127.12512853, 37.53849749 ], [ 127.139209699853865, 37.537759415046175 ] ] } },
{ "type": "Feature", "properties": { "hub_name": "천호역 공영주차장(시)", "target_h3": "8930e1cf557ffff", "target_dong": "길동", "terrain_zone": "Green", "distance_m": 1285.2, "flight_time_min": 2.14, "hub_elev": 22.664630889892578, "target_elev": 19.099687576293945, "elev_diff": -3.5649433135986328, "urgency": 0.29986599202045816 }, "geometry": { "type": "LineString", "coordinates": [ [ 127.12512853, 37.53849749 ], [ 127.138969951116991, 37.534932373699569 ] ] } },
{ "type": "Feature", "properties": { "hub_name": "천호역 공영주차장(시)", "target_h3": "8930e1cf50fffff", "target_dong": "길동", "terrain_zone": "Green", "distance_m": 1710.3, "flight_time_min": 2.85, "hub_elev": 22.664630889892578, "target_elev": 24.439994812011719, "elev_diff": 1.7753639221191406, "urgency": 0.2980932560417669 }, "geometry": { "type": "LineString", "coordinates": [ [ 127.12512853, 37.53849749 ], [ 127.14440840609231, 37.537105180433997 ] ] } },
{ "type": "Feature", "properties": { "hub_name": "압구정고가1 공영주차장(시)", "target_h3": "8930e1ca39bffff", "target_dong": "역삼1동", "terrain_zone": "Green", "distance_m": 2435.6, "flight_time_min": 4.06, "hub_elev": 25.004312515258789, "target_elev": 40.087787628173828, "elev_diff": 15.083475112915039, "urgency": 0.53675693527092005 }, "geometry": { "type": "LineString", "coordinates": [ [ 127.0284496, 37.52615442 ], [ 127.039460367260588, 37.506029467399486 ] ] } },
{ "type": "Feature", "properties": { "hub_name": "압구정고가1 공영주차장(시)", "target_h3": "8930e1ca06fffff", "target_dong": "역삼1동", "terrain_zone": "Green", "distance_m": 2465.0, "flight_time_min": 4.11, "hub_elev": 25.004312515258789, "target_elev": 48.771209716796875, "elev_diff": 23.766897201538086, "urgency": 0.52924517802611604 }, "geometry": { "type": "LineString", "coordinates": [ [ 127.0284496, 37.52615442 ], [ 127.036749265217182, 37.504942603388024 ] ] } },
{ "type": "Feature", "properties": { "hub_name": "압구정고가1 공영주차장(시)", "target_h3": "8930e1ca383ffff", "target_dong": "역삼1동", "terrain_zone": "Green", "distance_m": 2435.5, "flight_time_min": 4.06, "hub_elev": 25.004312515258789, "target_elev": 39.359287261962891, "elev_diff": 14.354974746704102, "urgency": 0.52755730123224187 }, "geometry": { "type": "LineString", "coordinates": [ [ 127.0284496, 37.52615442 ], [ 127.042171693770086, 37.507116327782661 ] ] } },
{ "type": "Feature", "properties": { "hub_name": "압구정고가1 공영주차장(시)", "target_h3": "8930e1ca063ffff", "target_dong": "역삼1동", "terrain_zone": "Green", "distance_m": 2221.1, "flight_time_min": 3.7, "hub_elev": 25.004312515258789, "target_elev": 39.439849853515625, "elev_diff": 14.435537338256836, "urgency": 0.52351520366374693 }, "geometry": { "type": "LineString", "coordinates": [ [ 127.0284496, 37.52615442 ], [ 127.034273090612416, 37.506679893596306 ] ] } },
{ "type": "Feature", "properties": { "hub_name": "압구정고가1 공영주차장(시)", "target_h3": "8930e1ca067ffff", "target_dong": "역삼1동", "terrain_zone": "Green", "distance_m": 2175.0, "flight_time_min": 3.62, "hub_elev": 25.004312515258789, "target_elev": 38.795566558837891, "elev_diff": 13.791254043579102, "urgency": 0.52164073109286202 }, "geometry": { "type": "LineString", "coordinates": [ [ 127.0284496, 37.52615442 ], [ 127.036984099412862, 37.507766839244219 ] ] } },
{ "type": "Feature", "properties": { "hub_name": "구파발역 공영주차장(시)", "target_h3": "8930e1d1623ffff", "target_dong": "진관동", "terrain_zone": "Yellow", "distance_m": 43.0, "flight_time_min": 0.07, "hub_elev": 35.065631866455078, "target_elev": 45.295574188232422, "elev_diff": 10.229942321777344, "urgency": 0.26445239765470574 }, "geometry": { "type": "LineString", "coordinates": [ [ 126.918987, 37.638209 ], [ 126.919300145488435, 37.637912386694751 ] ] } },
{ "type": "Feature", "properties": { "hub_name": "구파발역 공영주차장(시)", "target_h3": "8930e1d162bffff", "target_dong": "진관동", "terrain_zone": "Yellow", "distance_m": 346.2, "flight_time_min": 0.58, "hub_elev": 35.065631866455078, "target_elev": 41.377620697021484, "elev_diff": 6.3119888305664062, "urgency": 0.24264350511104035 }, "geometry": { "type": "LineString", "coordinates": [ [ 126.918987, 37.638209 ], [ 126.919070382931992, 37.635089460264503 ] ] } },
{ "type": "Feature", "properties": { "hub_name": "구파발역 공영주차장(시)", "target_h3": "8930e1d1667ffff", "target_dong": "진관동", "terrain_zone": "Green", "distance_m": 659.4, "flight_time_min": 1.1, "hub_elev": 35.065631866455078, "target_elev": 52.869705200195312, "elev_diff": 17.804073333740234, "urgency": 0.23762395055198712 }, "geometry": { "type": "LineString", "coordinates": [ [ 126.918987, 37.638209 ], [ 126.918840640989771, 37.632266572184243 ] ] } },
{ "type": "Feature", "properties": { "hub_name": "구파발역 공영주차장(시)", "target_h3": "8930e1d16afffff", "target_dong": "진관동", "terrain_zone": "Green", "distance_m": 502.2, "flight_time_min": 0.84, "hub_elev": 35.065631866455078, "target_elev": 35.089508056640625, "elev_diff": 0.023876190185546875, "urgency": 0.23584818853712608 }, "geometry": { "type": "LineString", "coordinates": [ [ 126.918987, 37.638209 ], [ 126.917050949215295, 37.642466012865 ] ] } },
{ "type": "Feature", "properties": { "hub_name": "구파발역 공영주차장(시)", "target_h3": "8930e1d1287ffff", "target_dong": "진관동", "terrain_zone": "Yellow", "distance_m": 915.7, "flight_time_min": 1.53, "hub_elev": 35.065631866455078, "target_elev": 45.523113250732422, "elev_diff": 10.457481384277344, "urgency": 0.23378487415054039 }, "geometry": { "type": "LineString", "coordinates": [ [ 126.918987, 37.638209 ], [ 126.926736653318954, 37.632719557715696 ] ] } },
{ "type": "Feature", "properties": { "hub_name": "봉천복개3 공영주차장(시)", "target_h3": "8930e036d57ffff", "target_dong": "청룡동", "terrain_zone": "Green", "distance_m": 1805.1, "flight_time_min": 3.01, "hub_elev": 34.721370697021484, "target_elev": 49.829887390136719, "elev_diff": 15.108516693115234, "urgency": 0.28654511618419953 }, "geometry": { "type": "LineString", "coordinates": [ [ 126.93319061, 37.48685341 ], [ 126.950804421881926, 37.478626446036913 ] ] } },
{ "type": "Feature", "properties": { "hub_name": "봉천복개3 공영주차장(시)", "target_h3": "8930e036dcfffff", "target_dong": "청룡동", "terrain_zone": "Green", "distance_m": 1520.1, "flight_time_min": 2.53, "hub_elev": 34.721370697021484, "target_elev": 46.473869323730469, "elev_diff": 11.752498626708984, "urgency": 0.27245249877100336 }, "geometry": { "type": "LineString", "coordinates": [ [ 126.93319061, 37.48685341 ], [ 126.948330903380835, 37.480361010857372 ] ] } },
{ "type": "Feature", "properties": { "hub_name": "봉천복개3 공영주차장(시)", "target_h3": "8930e036d1bffff", "target_dong": "청룡동", "terrain_zone": "Green", "distance_m": 1687.8, "flight_time_min": 2.81, "hub_elev": 34.721370697021484, "target_elev": 47.185234069824219, "elev_diff": 12.463863372802734, "urgency": 0.25734271357751115 }, "geometry": { "type": "LineString", "coordinates": [ [ 126.93319061, 37.48685341 ], [ 126.951035129242683, 37.481448299861356 ] ] } },
{ "type": "Feature", "properties": { "hub_name": "봉천복개3 공영주차장(시)", "target_h3": "8930e036dcbffff", "target_dong": "청룡동", "terrain_zone": "Yellow", "distance_m": 1384.2, "flight_time_min": 2.31, "hub_elev": 34.721370697021484, "target_elev": 42.344310760498047, "elev_diff": 7.6229400634765625, "urgency": 0.2530227777963136 }, "geometry": { "type": "LineString", "coordinates": [ [ 126.93319061, 37.48685341 ], [ 126.945626901528598, 37.479273718656763 ] ] } },
{ "type": "Feature", "properties": { "hub_name": "봉천복개3 공영주차장(시)", "target_h3": "8930e1d9e0bffff", "target_dong": "상도1동", "terrain_zone": "Yellow", "distance_m": 2391.3, "flight_time_min": 3.99, "hub_elev": 34.721370697021484, "target_elev": 70.015357971191406, "elev_diff": 35.293987274169922, "urgency": 0.24176460681962791 }, "geometry": { "type": "LineString", "coordinates": [ [ 126.93319061, 37.48685341 ], [ 126.95512504124703, 37.499467997595126 ] ] } },
{ "type": "Feature", "properties": { "hub_name": "석계역 공영주차장(시)", "target_h3": "8930e1c018bffff", "target_dong": "묵1동", "terrain_zone": "Green", "distance_m": 2253.1, "flight_time_min": 3.76, "hub_elev": 30.061820983886719, "target_elev": 30.14605712890625, "elev_diff": 0.08423614501953125, "urgency": 0.40477062810162301 }, "geometry": { "type": "LineString", "coordinates": [ [ 127.062997, 37.615292 ], [ 127.088221612760051, 37.618420168698357 ] ] } },
{ "type": "Feature", "properties": { "hub_name": "석계역 공영주차장(시)", "target_h3": "8930e1c053bffff", "target_dong": "공릉2동", "terrain_zone": "Green", "distance_m": 2015.7, "flight_time_min": 3.36, "hub_elev": 30.061820983886719, "target_elev": 38.485565185546875, "elev_diff": 8.4237442016601562, "urgency": 0.2402578156197806 }, "geometry": { "type": "LineString", "coordinates": [ [ 127.062997, 37.615292 ], [ 127.081014625979293, 37.626458282582043 ] ] } },
{ "type": "Feature", "properties": { "hub_name": "석계역 공영주차장(시)", "target_h3": "8930e1c050fffff", "target_dong": "공릉2동", "terrain_zone": "Green", "distance_m": 1752.9, "flight_time_min": 2.92, "hub_elev": 30.061820983886719, "target_elev": 33.424484252929688, "elev_diff": 3.3626632690429688, "urgency": 0.22866636765968246 }, "geometry": { "type": "LineString", "coordinates": [ [ 127.062997, 37.615292 ], [ 127.078295824744004, 37.625368503897555 ] ] } },
{ "type": "Feature", "properties": { "hub_name": "석계역 공영주차장(시)", "target_h3": "8930e1c0563ffff", "target_dong": "공릉2동", "terrain_zone": "Yellow", "distance_m": 1664.7, "flight_time_min": 2.77, "hub_elev": 30.061820983886719, "target_elev": 28.442100524902344, "elev_diff": -1.619720458984375, "urgency": 0.22665753938107003 }, "geometry": { "type": "LineString", "coordinates": [ [ 127.062997, 37.615292 ], [ 127.080539990341975, 37.620804959419303 ] ] } },
{ "type": "Feature", "properties": { "hub_name": "석계역 공영주차장(시)", "target_h3": "8930e1c0533ffff", "target_dong": "공릉2동", "terrain_zone": "Green", "distance_m": 2237.3, "flight_time_min": 3.73, "hub_elev": 30.061820983886719, "target_elev": 37.334774017333984, "elev_diff": 7.2729530334472656, "urgency": 0.22148301135604723 }, "geometry": { "type": "LineString", "coordinates": [ [ 127.062997, 37.615292 ], [ 127.081251975774279, 37.629285001816136 ] ] } },
{ "type": "Feature", "properties": { "hub_name": "청계7가 공영주차장(시)", "target_h3": "8930e1c144fffff", "target_dong": "왕십리도선동", "terrain_zone": "Green", "distance_m": 1481.3, "flight_time_min": 2.47, "hub_elev": 30.039514541625977, "target_elev": 31.167457580566406, "elev_diff": 1.1279430389404297, "urgency": 0.2389507683375981 }, "geometry": { "type": "LineString", "coordinates": [ [ 127.02048418, 37.57195823 ], [ 127.03377985776001, 37.563819014240778 ] ] } },
{ "type": "Feature", "properties": { "hub_name": "청계7가 공영주차장(시)", "target_h3": "8930e1c1457ffff", "target_dong": "왕십리도선동", "terrain_zone": "Green", "distance_m": 1053.7, "flight_time_min": 1.76, "hub_elev": 30.039514541625977, "target_elev": 29.428363800048828, "elev_diff": -0.61115074157714844, "urgency": 0.21267272892713709 }, "geometry": { "type": "LineString", "coordinates": [ [ 127.02048418, 37.57195823 ], [ 127.031536330582782, 37.56838001571122 ] ] } },
{ "type": "Feature", "properties": { "hub_name": "청계7가 공영주차장(시)", "target_h3": "8930e1c16abffff", "target_dong": "행당1동", "terrain_zone": "Green", "distance_m": 2189.4, "flight_time_min": 3.65, "hub_elev": 30.039514541625977, "target_elev": 29.352840423583984, "elev_diff": -0.68667411804199219, "urgency": 0.2118950358453183 }, "geometry": { "type": "LineString", "coordinates": [ [ 127.02048418, 37.57195823 ], [ 127.035788196603477, 37.556433033946604 ] ] } },
{ "type": "Feature", "properties": { "hub_name": "청계7가 공영주차장(시)", "target_h3": "8930e1d8d07ffff", "target_dong": "이화동", "terrain_zone": "Green", "distance_m": 1854.3, "flight_time_min": 3.09, "hub_elev": 30.039514541625977, "target_elev": 44.940837860107422, "elev_diff": 14.901323318481445, "urgency": 0.19372434513077638 }, "geometry": { "type": "LineString", "coordinates": [ [ 127.02048418, 37.57195823 ], [ 127.000860094493177, 37.577907176464763 ] ] } },
{ "type": "Feature", "properties": { "hub_name": "청계7가 공영주차장(시)", "target_h3": "8930e1d8db3ffff", "target_dong": "혜화동", "terrain_zone": "Yellow", "distance_m": 2416.1, "flight_time_min": 4.03, "hub_elev": 30.039514541625977, "target_elev": 43.521995544433594, "elev_diff": 13.482481002807617, "urgency": 0.19331708550846349 }, "geometry": { "type": "LineString", "coordinates": [ [ 127.02048418, 37.57195823 ], [ 126.998848497667794, 37.585290326711565 ] ] } },
{ "type": "Feature", "properties": { "hub_name": "진흥로 공영주차장(시)", "target_h3": "8930e1da1abffff", "target_dong": "대조동", "terrain_zone": "Green", "distance_m": 1252.8, "flight_time_min": 2.09, "hub_elev": 30.782199859619141, "target_elev": 40.1629638671875, "elev_diff": 9.3807640075683594, "urgency": 0.34784772869943847 }, "geometry": { "type": "LineString", "coordinates": [ [ 126.9202208, 37.6013754 ], [ 126.930082473193764, 37.609496001639428 ] ] } },
{ "type": "Feature", "properties": { "hub_name": "진흥로 공영주차장(시)", "target_h3": "8930e1da1bbffff", "target_dong": "대조동", "terrain_zone": "Yellow", "distance_m": 1272.6, "flight_time_min": 2.12, "hub_elev": 30.782199859619141, "target_elev": 36.631671905517578, "elev_diff": 5.8494720458984375, "urgency": 0.31196807410097849 }, "geometry": { "type": "LineString", "coordinates": [ [ 126.9202208, 37.6013754 ], [ 126.927604459695189, 37.611227584586047 ] ] } },
{ "type": "Feature", "properties": { "hub_name": "진흥로 공영주차장(시)", "target_h3": "8930e1da18bffff", "target_dong": "대조동", "terrain_zone": "Green", "distance_m": 868.5, "flight_time_min": 1.45, "hub_elev": 30.782199859619141, "target_elev": 36.858020782470703, "elev_diff": 6.0758209228515625, "urgency": 0.30551092021461967 }, "geometry": { "type": "LineString", "coordinates": [ [ 126.9202208, 37.6013754 ], [ 126.922188725592164, 37.609044952535186 ] ] } },
{ "type": "Feature", "properties": { "hub_name": "진흥로 공영주차장(시)", "target_h3": "8930e1da197ffff", "target_dong": "대조동", "terrain_zone": "Green", "distance_m": 1492.7, "flight_time_min": 2.49, "hub_elev": 30.782199859619141, "target_elev": 40.833900451660156, "elev_diff": 10.051700592041016, "urgency": 0.29958809775962897 }, "geometry": { "type": "LineString", "coordinates": [ [ 126.9202208, 37.6013754 ], [ 126.922648383088244, 37.614690387819429 ] ] } },
{ "type": "Feature", "properties": { "hub_name": "진흥로 공영주차장(시)", "target_h3": "8930e1da52fffff", "target_dong": "대조동", "terrain_zone": "Green", "distance_m": 1669.4, "flight_time_min": 2.78, "hub_elev": 30.782199859619141, "target_elev": 38.034015655517578, "elev_diff": 7.2518157958984375, "urgency": 0.2989852223545576 }, "geometry": { "type": "LineString", "coordinates": [ [ 126.9202208, 37.6013754 ], [ 126.920170319998078, 37.616421608101128 ] ] } },
{ "type": "Feature", "properties": { "hub_name": "여의서로 공영주차장(시)", "target_h3": "8930e1d953bffff", "target_dong": "여의동", "terrain_zone": "Green", "distance_m": 1088.3, "flight_time_min": 1.81, "hub_elev": 19.205789566040039, "target_elev": 23.176116943359375, "elev_diff": 3.9703273773193359, "urgency": 0.54284243510253172 }, "geometry": { "type": "LineString", "coordinates": [ [ 126.91747889, 37.533081 ], [ 126.925890710572659, 37.5259160163383 ] ] } },
{ "type": "Feature", "properties": { "hub_name": "여의서로 공영주차장(시)", "target_h3": "8930e1d9517ffff", "target_dong": "여의동", "terrain_zone": "Green", "distance_m": 511.9, "flight_time_min": 0.85, "hub_elev": 19.205789566040039, "target_elev": 22.93756103515625, "elev_diff": 3.7317714691162109, "urgency": 0.52876879416555655 }, "geometry": { "type": "LineString", "coordinates": [ [ 126.91747889, 37.533081 ], [ 126.920941093146752, 37.529381589610153 ] ] } },
{ "type": "Feature", "properties": { "hub_name": "여의서로 공영주차장(시)", "target_h3": "8930e1d919bffff", "target_dong": "여의동", "terrain_zone": "Green", "distance_m": 1890.5, "flight_time_min": 3.15, "hub_elev": 19.205789566040039, "target_elev": 23.958063125610352, "elev_diff": 4.7522735595703125, "urgency": 0.52704519630953206 }, "geometry": { "type": "LineString", "coordinates": [ [ 126.91747889, 37.533081 ], [ 126.930610359207066, 37.519628108638535 ] ] } },
{ "type": "Feature", "properties": { "hub_name": "여의서로 공영주차장(시)", "target_h3": "8930e1d9567ffff", "target_dong": "여의동", "terrain_zone": "Green", "distance_m": 1605.4, "flight_time_min": 2.68, "hub_elev": 19.205789566040039, "target_elev": 23.779256820678711, "elev_diff": 4.5734672546386719, "urgency": 0.52332243135942436 }, "geometry": { "type": "LineString", "coordinates": [ [ 126.91747889, 37.533081 ], [ 126.928135701796776, 37.521361236043091 ] ] } },
{ "type": "Feature", "properties": { "hub_name": "여의서로 공영주차장(시)", "target_h3": "8930e1d9577ffff", "target_dong": "여의동", "terrain_zone": "Green", "distance_m": 1323.0, "flight_time_min": 2.21, "hub_elev": 19.205789566040039, "target_elev": 23.938125610351562, "elev_diff": 4.7323360443115234, "urgency": 0.52298786071771097 }, "geometry": { "type": "LineString", "coordinates": [ [ 126.91747889, 37.533081 ], [ 126.925661027889632, 37.523094242859024 ] ] } },
{ "type": "Feature", "properties": { "hub_name": "난지중앙로노상공영주차장(시)", "target_h3": "8930e1db5a7ffff", "target_dong": "상암동", "terrain_zone": "Yellow", "distance_m": 1580.4, "flight_time_min": 2.63, "hub_elev": 38.163875579833984, "target_elev": 20.568792343139648, "elev_diff": -17.595083236694336, "urgency": 0.26093845056150222 }, "geometry": { "type": "LineString", "coordinates": [ [ 126.8802191, 37.5688532 ], [ 126.893524546004087, 37.578379251814575 ] ] } },
{ "type": "Feature", "properties": { "hub_name": "난지중앙로노상공영주차장(시)", "target_h3": "8930e1da2dbffff", "target_dong": "상암동", "terrain_zone": "Green", "distance_m": 1640.2, "flight_time_min": 2.73, "hub_elev": 38.163875579833984, "target_elev": 23.628223419189453, "elev_diff": -14.535652160644531, "urgency": 0.22375063351788366 }, "geometry": { "type": "LineString", "coordinates": [ [ 126.8802191, 37.5688532 ], [ 126.896000661633792, 37.576648367525337 ] ] } },
{ "type": "Feature", "properties": { "hub_name": "난지중앙로노상공영주차장(시)", "target_h3": "8930e1db187ffff", "target_dong": "성산2동", "terrain_zone": "Yellow", "distance_m": 2037.5, "flight_time_min": 3.4, "hub_elev": 38.163875579833984, "target_elev": 20.229598999023438, "elev_diff": -17.934276580810547, "urgency": 0.22266495063707212 }, "geometry": { "type": "LineString", "coordinates": [ [ 126.8802191, 37.5688532 ], [ 126.90297135718717, 37.565811494329424 ] ] } },
{ "type": "Feature", "properties": { "hub_name": "난지중앙로노상공영주차장(시)", "target_h3": "8930e1da2cbffff", "target_dong": "상암동", "terrain_zone": "Green", "distance_m": 1747.1, "flight_time_min": 2.91, "hub_elev": 38.163875579833984, "target_elev": 20.392000198364258, "elev_diff": -17.771875381469727, "urgency": 0.22181444386329524 }, "geometry": { "type": "LineString", "coordinates": [ [ 126.8802191, 37.5688532 ], [ 126.898476760868178, 37.574917362505431 ] ] } },
{ "type": "Feature", "properties": { "hub_name": "난지중앙로노상공영주차장(시)", "target_h3": "8930e1da2c3ffff", "target_dong": "상암동", "terrain_zone": "Yellow", "distance_m": 1907.1, "flight_time_min": 3.18, "hub_elev": 38.163875579833984, "target_elev": 19.751071929931641, "elev_diff": -18.412803649902344, "urgency": 0.21710939356923742 }, "geometry": { "type": "LineString", "coordinates": [ [ 126.8802191, 37.5688532 ], [ 126.898705347672376, 37.577739089483153 ] ] } },
{ "type": "Feature", "properties": { "hub_name": "세종로 공영주차장(시)", "target_h3": "8930e1d80b3ffff", "target_dong": "신촌동", "terrain_zone": "Yellow", "distance_m": 3235.5, "flight_time_min": 5.39, "hub_elev": 46.853424072265625, "target_elev": 40.869884490966797, "elev_diff": -5.9835395812988281, "urgency": 0.34636849825863636 }, "geometry": { "type": "LineString", "coordinates": [ [ 126.97588429, 37.57340269 ], [ 126.941951000788109, 37.562406770826072 ] ] } },
{ "type": "Feature", "properties": { "hub_name": "세종로 공영주차장(시)", "target_h3": "8930e1d8087ffff", "target_dong": "신촌동", "terrain_zone": "Green", "distance_m": 3502.6, "flight_time_min": 5.84, "hub_elev": 46.853424072265625, "target_elev": 40.316169738769531, "elev_diff": -6.5372543334960938, "urgency": 0.33932920432049807 }, "geometry": { "type": "LineString", "coordinates": [ [ 126.97588429, 37.57340269 ], [ 126.939244067343367, 37.561317040477327 ] ] } },
{ "type": "Feature", "properties": { "hub_name": "세종로 공영주차장(시)", "target_h3": "8930e1d80abffff", "target_dong": "신촌동", "terrain_zone": "Green", "distance_m": 3287.6, "flight_time_min": 5.48, "hub_elev": 46.853424072265625, "target_elev": 43.360633850097656, "elev_diff": -3.4927902221679688, "urgency": 0.33414329059125453 }, "geometry": { "type": "LineString", "coordinates": [ [ 126.97588429, 37.57340269 ], [ 126.944196790941987, 37.557851199163416 ] ] } },
{ "type": "Feature", "properties": { "hub_name": "세종로 공영주차장(시)", "target_h3": "8930e1d8097ffff", "target_dong": "신촌동", "terrain_zone": "Yellow", "distance_m": 3640.4, "flight_time_min": 6.07, "hub_elev": 46.853424072265625, "target_elev": 37.728195190429688, "elev_diff": -9.1252288818359375, "urgency": 0.30768303547001552 }, "geometry": { "type": "LineString", "coordinates": [ [ 126.97588429, 37.57340269 ], [ 126.936767680697358, 37.563049780032564 ] ] } },
{ "type": "Feature", "properties": { "hub_name": "세종로 공영주차장(시)", "target_h3": "8930e1d80a7ffff", "target_dong": "신촌동", "terrain_zone": "Green", "distance_m": 2848.5, "flight_time_min": 4.75, "hub_elev": 46.853424072265625, "target_elev": 54.176067352294922, "elev_diff": 7.3226432800292969, "urgency": 0.30017103387195271 }, "geometry": { "type": "LineString", "coordinates": [ [ 126.97588429, 37.57340269 ], [ 126.947134716156356, 37.5617634748534 ] ] } },
{ "type": "Feature", "properties": { "hub_name": "도봉로 15길 공영주차장(시)", "target_h3": "8930e1c33b3ffff", "target_dong": "종암동", "terrain_zone": "Green", "distance_m": 1929.2, "flight_time_min": 3.22, "hub_elev": 49.502765655517578, "target_elev": 37.459949493408203, "elev_diff": -12.042816162109375, "urgency": 0.22008551225258047 }, "geometry": { "type": "LineString", "coordinates": [ [ 127.02868891, 37.61668076 ], [ 127.03683524847024, 37.600545162530437 ] ] } },
{ "type": "Feature", "properties": { "hub_name": "도봉로 15길 공영주차장(시)", "target_h3": "8930e1c3383ffff", "target_dong": "종암동", "terrain_zone": "Green", "distance_m": 2046.1, "flight_time_min": 3.41, "hub_elev": 49.502765655517578, "target_elev": 41.538906097412109, "elev_diff": -7.9638595581054688, "urgency": 0.2030494841187945 }, "geometry": { "type": "LineString", "coordinates": [ [ 127.02868891, 37.61668076 ], [ 127.031405869595304, 37.598365944558097 ] ] } },
{ "type": "Feature", "properties": { "hub_name": "도봉로 15길 공영주차장(시)", "target_h3": "8930e1c3087ffff", "target_dong": "길음1동", "terrain_zone": "Yellow", "distance_m": 1193.9, "flight_time_min": 1.99, "hub_elev": 49.502765655517578, "target_elev": 79.097938537597656, "elev_diff": 29.595172882080078, "urgency": 0.19033842243757326 }, "geometry": { "type": "LineString", "coordinates": [ [ 127.02868891, 37.61668076 ], [ 127.016762454548626, 37.611602157551729 ] ] } },
{ "type": "Feature", "properties": { "hub_name": "도봉로 15길 공영주차장(시)", "target_h3": "8930e1c33b7ffff", "target_dong": "종암동", "terrain_zone": "Green", "distance_m": 1925.0, "flight_time_min": 3.21, "hub_elev": 49.502765655517578, "target_elev": 39.971603393554688, "elev_diff": -9.5311622619628906, "urgency": 0.190324553411376 }, "geometry": { "type": "LineString", "coordinates": [ [ 127.02868891, 37.61668076 ], [ 127.039550275549843, 37.601634765879993 ] ] } },
{ "type": "Feature", "properties": { "hub_name": "도봉로 15길 공영주차장(시)", "target_h3": "8930e1c3397ffff", "target_dong": "종암동", "terrain_zone": "Green", "distance_m": 1738.2, "flight_time_min": 2.9, "hub_elev": 49.502765655517578, "target_elev": 44.808616638183594, "elev_diff": -4.6941490173339844, "urgency": 0.18951876233556983 }, "geometry": { "type": "LineString", "coordinates": [ [ 127.02868891, 37.61668076 ], [ 127.031640784171771, 37.601191147264288 ] ] } },
{ "type": "Feature", "properties": { "hub_name": "명일파출소 공영주차장(시)", "target_h3": "8930e1cf5abffff", "target_dong": "길동", "terrain_zone": "Green", "distance_m": 1548.4, "flight_time_min": 2.58, "hub_elev": 35.852664947509766, "target_elev": 25.569112777709961, "elev_diff": -10.283552169799805, "urgency": 0.28961645441105499 }, "geometry": { "type": "LineString", "coordinates": [ [ 127.15591212, 37.55361065 ], [ 127.144888452880664, 37.542759613283444 ] ] } },
{ "type": "Feature", "properties": { "hub_name": "명일파출소 공영주차장(시)", "target_h3": "8930e1cf53bffff", "target_dong": "길동", "terrain_zone": "Green", "distance_m": 1878.4, "flight_time_min": 3.13, "hub_elev": 35.852664947509766, "target_elev": 25.609638214111328, "elev_diff": -10.243026733398438, "urgency": 0.28248972741431672 }, "geometry": { "type": "LineString", "coordinates": [ [ 127.15591212, 37.55361065 ], [ 127.147127971070503, 37.538191577612942 ] ] } },
{ "type": "Feature", "properties": { "hub_name": "명일파출소 공영주차장(시)", "target_h3": "8930e1cf523ffff", "target_dong": "길동", "terrain_zone": "Green", "distance_m": 1677.9, "flight_time_min": 2.8, "hub_elev": 35.852664947509766, "target_elev": 33.3988037109375, "elev_diff": -2.4538612365722656, "urgency": 0.27934797281707779 }, "geometry": { "type": "LineString", "coordinates": [ [ 127.15591212, 37.55361065 ], [ 127.149847761063299, 37.539277970648413 ] ] } },
{ "type": "Feature", "properties": { "hub_name": "명일파출소 공영주차장(시)", "target_h3": "8930e1ce153ffff", "target_dong": "강일동", "terrain_zone": "Green", "distance_m": 2452.6, "flight_time_min": 4.09, "hub_elev": 35.852664947509766, "target_elev": 25.687112808227539, "elev_diff": -10.165552139282227, "urgency": 0.27447251925998151 }, "geometry": { "type": "LineString", "coordinates": [ [ 127.15591212, 37.55361065 ], [ 127.176026712612483, 37.568852502587418 ] ] } },
{ "type": "Feature", "properties": { "hub_name": "명일파출소 공영주차장(시)", "target_h3": "8930e1cf533ffff", "target_dong": "길동", "terrain_zone": "Green", "distance_m": 1587.8, "flight_time_min": 2.65, "hub_elev": 35.852664947509766, "target_elev": 29.300090789794922, "elev_diff": -6.5525741577148438, "urgency": 0.27355111353743422 }, "geometry": { "type": "LineString", "coordinates": [ [ 127.15591212, 37.55361065 ], [ 127.147368115666893, 37.541018852431449 ] ] } },
{ "type": "Feature", "properties": { "hub_name": "창동역(서) 공영주차장(시)", "target_h3": "8930e1c204bffff", "target_dong": "창2동", "terrain_zone": "Green", "distance_m": 1366.4, "flight_time_min": 2.28, "hub_elev": 31.820453643798828, "target_elev": 38.763134002685547, "elev_diff": 6.9426803588867188, "urgency": 0.19041712077264158 }, "geometry": { "type": "LineString", "coordinates": [ [ 127.04567683, 37.65237042 ], [ 127.037648355260501, 37.641838804254689 ] ] } },
{ "type": "Feature", "properties": { "hub_name": "창동역(서) 공영주차장(시)", "target_h3": "8930e1c205bffff", "target_dong": "창2동", "terrain_zone": "Green", "distance_m": 1346.1, "flight_time_min": 2.24, "hub_elev": 31.820453643798828, "target_elev": 37.262783050537109, "elev_diff": 5.4423294067382812, "urgency": 0.18323302925081547 }, "geometry": { "type": "LineString", "coordinates": [ [ 127.04567683, 37.65237042 ], [ 127.035167034687362, 37.64357380488115 ] ] } },
{ "type": "Feature", "properties": { "hub_name": "창동역(서) 공영주차장(시)", "target_h3": "8930e1c2297ffff", "target_dong": "창2동", "terrain_zone": "Green", "distance_m": 1600.4, "flight_time_min": 2.67, "hub_elev": 31.820453643798828, "target_elev": 35.124637603759766, "elev_diff": 3.3041839599609375, "urgency": 0.17680540214633925 }, "geometry": { "type": "LineString", "coordinates": [ [ 127.04567683, 37.65237042 ], [ 127.034931803528096, 37.640748025505474 ] ] } },
{ "type": "Feature", "properties": { "hub_name": "창동역(서) 공영주차장(시)", "target_h3": "8930e1c2043ffff", "target_dong": "창2동", "terrain_zone": "Green", "distance_m": 1097.1, "flight_time_min": 1.83, "hub_elev": 31.820453643798828, "target_elev": 40.180942535400391, "elev_diff": 8.3604888916015625, "urgency": 0.17156532620284248 }, "geometry": { "type": "LineString", "coordinates": [ [ 127.04567683, 37.65237042 ], [ 127.037883718176474, 37.644664661454335 ] ] } },
{ "type": "Feature", "properties": { "hub_name": "창동역(서) 공영주차장(시)", "target_h3": "8930e1c204fffff", "target_dong": "창2동", "terrain_zone": "Green", "distance_m": 1147.5, "flight_time_min": 1.91, "hub_elev": 31.820453643798828, "target_elev": 40.675315856933594, "elev_diff": 8.8548622131347656, "urgency": 0.16220465914888685 }, "geometry": { "type": "LineString", "coordinates": [ [ 127.04567683, 37.65237042 ], [ 127.040365132376834, 37.6429295791743 ] ] } },
{ "type": "Feature", "properties": { "hub_name": "천왕역 공영주차장(시)", "target_h3": "8930e0add83ffff", "target_dong": "오류2동", "terrain_zone": "Green", "distance_m": 520.0, "flight_time_min": 0.87, "hub_elev": 29.582681655883789, "target_elev": 33.241485595703125, "elev_diff": 3.6588039398193359, "urgency": 0.20923631121911945 }, "geometry": { "type": "LineString", "coordinates": [ [ 126.83918316, 37.48728845 ], [ 126.838785437211328, 37.482612431456353 ] ] } },
{ "type": "Feature", "properties": { "hub_name": "천왕역 공영주차장(시)", "target_h3": "8930e0add03ffff", "target_dong": "오류2동", "terrain_zone": "Green", "distance_m": 1274.2, "flight_time_min": 2.12, "hub_elev": 29.582681655883789, "target_elev": 18.561399459838867, "elev_diff": -11.021282196044922, "urgency": 0.1900874746546288 }, "geometry": { "type": "LineString", "coordinates": [ [ 126.83918316, 37.48728845 ], [ 126.84350266542792, 37.476332104816777 ] ] } },
{ "type": "Feature", "properties": { "hub_name": "천왕역 공영주차장(시)", "target_h3": "8930e0addbbffff", "target_dong": "오류2동", "terrain_zone": "Yellow", "distance_m": 725.3, "flight_time_min": 1.21, "hub_elev": 29.582681655883789, "target_elev": 13.924201965332031, "elev_diff": -15.658479690551758, "urgency": 0.18814609073864214 }, "geometry": { "type": "LineString", "coordinates": [ [ 126.83918316, 37.48728845 ], [ 126.843954027829767, 37.481970607002062 ] ] } },
{ "type": "Feature", "properties": { "hub_name": "천왕역 공영주차장(시)", "target_h3": "8930e0add8fffff", "target_dong": "오류2동", "terrain_zone": "Green", "distance_m": 734.0, "flight_time_min": 1.22, "hub_elev": 29.582681655883789, "target_elev": 25.277532577514648, "elev_diff": -4.3051490783691406, "urgency": 0.18758951147147332 }, "geometry": { "type": "LineString", "coordinates": [ [ 126.83918316, 37.48728845 ], [ 126.841256894937118, 37.480881944091415 ] ] } },
{ "type": "Feature", "properties": { "hub_name": "천왕역 공영주차장(시)", "target_h3": "8930e0add87ffff", "target_dong": "오류2동", "terrain_zone": "Yellow", "distance_m": 446.9, "flight_time_min": 0.74, "hub_elev": 29.582681655883789, "target_elev": 25.193416595458984, "elev_diff": -4.3892650604248047, "urgency": 0.18587474537381665 }, "geometry": { "type": "LineString", "coordinates": [ [ 126.83918316, 37.48728845 ], [ 126.841482476415933, 37.483701175429843 ] ] } },
{ "type": "Feature", "properties": { "hub_name": "면목유수지 공영주차장(시)", "target_h3": "8930e1c1c1bffff", "target_dong": "면목4동", "terrain_zone": "Yellow", "distance_m": 765.7, "flight_time_min": 1.28, "hub_elev": 15.940404891967773, "target_elev": 49.155231475830078, "elev_diff": 33.214826583862305, "urgency": 0.27671408083337229 }, "geometry": { "type": "LineString", "coordinates": [ [ 127.081451, 37.579494 ], [ 127.087139013395358, 37.574284835041873 ] ] } },
{ "type": "Feature", "properties": { "hub_name": "면목유수지 공영주차장(시)", "target_h3": "8930e1c0307ffff", "target_dong": "망우본동", "terrain_zone": "Green", "distance_m": 2174.7, "flight_time_min": 3.62, "hub_elev": 15.940404891967773, "target_elev": 29.560585021972656, "elev_diff": 13.620180130004883, "urgency": 0.22200850502323871 }, "geometry": { "type": "LineString", "coordinates": [ [ 127.081451, 37.579494 ], [ 127.09423826894772, 37.596246954112189 ] ] } },
{ "type": "Feature", "properties": { "hub_name": "면목유수지 공영주차장(시)", "target_h3": "8930e1c0ecbffff", "target_dong": "망우본동", "terrain_zone": "Green", "distance_m": 2890.0, "flight_time_min": 4.82, "hub_elev": 15.940404891967773, "target_elev": 27.942817687988281, "elev_diff": 12.002412796020508, "urgency": 0.19215291661002837 }, "geometry": { "type": "LineString", "coordinates": [ [ 127.081451, 37.579494 ], [ 127.10239493525836, 37.59951316003648 ] ] } },
{ "type": "Feature", "properties": { "hub_name": "면목유수지 공영주차장(시)", "target_h3": "8930e1c0337ffff", "target_dong": "망우본동", "terrain_zone": "Green", "distance_m": 2645.7, "flight_time_min": 4.41, "hub_elev": 15.940404891967773, "target_elev": 29.351030349731445, "elev_diff": 13.410625457763672, "urgency": 0.18969244913980124 }, "geometry": { "type": "LineString", "coordinates": [ [ 127.081451, 37.579494 ], [ 127.099675821214319, 37.598424428755067 ] ] } },
{ "type": "Feature", "properties": { "hub_name": "면목유수지 공영주차장(시)", "target_h3": "8930e1c0ecfffff", "target_dong": "망우본동", "terrain_zone": "Green", "distance_m": 3138.3, "flight_time_min": 5.23, "hub_elev": 15.940404891967773, "target_elev": 35.014286041259766, "elev_diff": 19.073881149291992, "urgency": 0.18845593973481956 }, "geometry": { "type": "LineString", "coordinates": [ [ 127.081451, 37.579494 ], [ 127.10511427459717, 37.600601887273299 ] ] } },
{ "type": "Feature", "properties": { "hub_name": "사당노외 공영주차장(시)", "target_h3": "8930e1cb547ffff", "target_dong": "서초3동", "terrain_zone": "Green", "distance_m": 2241.6, "flight_time_min": 3.74, "hub_elev": 30.836347579956055, "target_elev": 50.747089385986328, "elev_diff": 19.910741806030273, "urgency": 0.30983520276324866 }, "geometry": { "type": "LineString", "coordinates": [ [ 126.98377372, 37.47543791 ], [ 127.008483285648524, 37.479957075343073 ] ] } },
{ "type": "Feature", "properties": { "hub_name": "사당노외 공영주차장(시)", "target_h3": "8930e1cb50bffff", "target_dong": "서초3동", "terrain_zone": "Green", "distance_m": 2351.0, "flight_time_min": 3.92, "hub_elev": 30.836347579956055, "target_elev": 39.632339477539062, "elev_diff": 8.7959918975830078, "urgency": 0.30916007467794637 }, "geometry": { "type": "LineString", "coordinates": [ [ 126.98377372, 37.47543791 ], [ 127.008716704084208, 37.482780335470451 ] ] } },
{ "type": "Feature", "properties": { "hub_name": "사당노외 공영주차장(시)", "target_h3": "8930e1cb557ffff", "target_dong": "서초3동", "terrain_zone": "Green", "distance_m": 2084.9, "flight_time_min": 3.47, "hub_elev": 30.836347579956055, "target_elev": 43.919830322265625, "elev_diff": 13.08348274230957, "urgency": 0.30870168045231877 }, "geometry": { "type": "LineString", "coordinates": [ [ 126.98377372, 37.47543791 ], [ 127.006008594039557, 37.481693744771839 ] ] } },
{ "type": "Feature", "properties": { "hub_name": "사당노외 공영주차장(시)", "target_h3": "8930e1cb543ffff", "target_dong": "서초3동", "terrain_zone": "Green", "distance_m": 1982.3, "flight_time_min": 3.3, "hub_elev": 30.836347579956055, "target_elev": 56.669765472412109, "elev_diff": 25.833417892456055, "urgency": 0.30710000449580616 }, "geometry": { "type": "LineString", "coordinates": [ [ 126.98377372, 37.47543791 ], [ 127.005775306550206, 37.478870562740923 ] ] } },
{ "type": "Feature", "properties": { "hub_name": "사당노외 공영주차장(시)", "target_h3": "8930e1cb573ffff", "target_dong": "서초3동", "terrain_zone": "Green", "distance_m": 2502.7, "flight_time_min": 4.17, "hub_elev": 30.836347579956055, "target_elev": 45.778331756591797, "elev_diff": 14.941984176635742, "urgency": 0.30653370813083652 }, "geometry": { "type": "LineString", "coordinates": [ [ 126.98377372, 37.47543791 ], [ 127.011191488940611, 37.481043584490351 ] ] } }
]
}
