{"type": "FeatureCollection", "features": [{"type": "Feature", "properties": {"name": "김포공항 비행제한구역", "type": "restricted", "radius_km": 9.3}, "geometry": {"type": "Polygon", "coordinates": [[[126.7908, 37.642384], [126.801159, 37.64198], [126.811419, 37.640774], [126.82148, 37.638776], [126.831246, 37.636006], [126.840622, 37.632491], [126.849518, 37.628264], [126.857849, 37.623366], [126.865534, 37.617844], [126.8725, 37.611752], [126.878678, 37.605148], [126.88401, 37.598095], [126.888445, 37.590663], [126.891939, 37.582921], [126.894459, 37.574945], [126.895981, 37.566812], [126.89649, 37.5586], [126.895981, 37.550388], [126.894459, 37.542255], [126.891939, 37.534279], [126.888445, 37.526537], [126.88401, 37.519105], [126.878678, 37.512052], [126.8725, 37.505448], [126.865534, 37.499356], [126.857849, 37.493834], [126.849518, 37.488936], [126.840622, 37.484709], [126.831246, 37.481194], [126.82148, 37.478424], [126.811419, 37.476426], [126.801159, 37.47522], [126.7908, 37.474816], [126.780441, 37.47522], [126.770181, 37.476426], [126.76012, 37.478424], [126.750354, 37.481194], [126.740978, 37.484709], [126.732082, 37.488936], [126.723751, 37.493834], [126.716066, 37.499356], [126.7091, 37.505448], [126.702922, 37.512052], [126.69759, 37.519105], [126.693155, 37.526537], [126.689661, 37.534279], [126.687141, 37.542255], [126.685619, 37.550388], [126.68511, 37.5586], [126.685619, 37.566812], [126.687141, 37.574945], [126.689661, 37.582921], [126.693155, 37.590663], [126.69759, 37.598095], [126.702922, 37.605148], [126.7091, 37.611752], [126.716066, 37.617844], [126.723751, 37.623366], [126.732082, 37.628264], [126.740978, 37.632491], [126.750354, 37.636006], [126.76012, 37.638776], [126.770181, 37.640774], [126.780441, 37.64198], [126.7908, 37.642384]]]}}, {"type": "Feature", "properties": {"name": "R-75 서울공군기지 비행제한구역", "type": "restricted", "radius_km": 9.3}, "geometry": {"type": "Polygon", "coordinates": [[[127.114, 37.528684], [127.124344, 37.52828], [127.134588, 37.527074], [127.144634, 37.525076], [127.154384, 37.522306], [127.163746, 37.518791], [127.172629, 37.514564], [127.180947, 37.509666], [127.188621, 37.504144], [127.195575, 37.498052], [127.201744, 37.491448], [127.207069, 37.484395], [127.211496, 37.476963], [127.214985, 37.469221], [127.217502, 37.461245], [127.219021, 37.453112], [127.219529, 37.4449], [127.219021, 37.436688], [127.217502, 37.428555], [127.214985, 37.420579], [127.211496, 37.412837], [127.207069, 37.405405], [127.201744, 37.398352], [127.195575, 37.391748], [127.188621, 37.385656], [127.180947, 37.380134], [127.172629, 37.375236], [127.163746, 37.371009], [127.154384, 37.367494], [127.144634, 37.364724], [127.134588, 37.362726], [127.124344, 37.36152], [127.114, 37.361116], [127.103656, 37.36152], [127.093412, 37.362726], [127.083366, 37.364724], [127.073616, 37.367494], [127.064254, 37.371009], [127.055371, 37.375236], [127.047053, 37.380134], [127.039379, 37.385656], [127.032425, 37.391748], [127.026256, 37.398352], [127.020931, 37.405405], [127.016504, 37.412837], [127.013015, 37.420579], [127.010498, 37.428555], [127.008979, 37.436688], [127.008471, 37.4449], [127.008979, 37.453112], [127.010498, 37.461245], [127.013015, 37.469221], [127.016504, 37.476963], [127.020931, 37.484395], [127.026256, 37.491448], [127.032425, 37.498052], [127.039379, 37.504144], [127.047053, 37.509666], [127.055371, 37.514564], [127.064254, 37.518791], [127.073616, 37.522306], [127.083366, 37.525076], [127.093412, 37.527074], [127.103656, 37.52828], [127.114, 37.528684]]]}}, {"type": "Feature", "properties": {"name": "용산 비행제한구역", "type": "restricted", "radius_km": 3.0}, "geometry": {"type": "Polygon", "coordinates": [[[126.9676, 37.556927], [126.97094, 37.556797], [126.974249, 37.556408], [126.977493, 37.555763], [126.980642, 37.55487], [126.983665, 37.553736], [126.986534, 37.552372], [126.98922, 37.550792], [126.991699, 37.549011], [126.993945, 37.547046], [126.995937, 37.544915], [126.997656, 37.54264], [126.999086, 37.540243], [127.000213, 37.537746], [127.001026, 37.535173], [127.001516, 37.532549], [127.00168, 37.5299], [127.001516, 37.527251], [127.001026, 37.524627], [127.000213, 37.522054], [126.999086, 37.519557], [126.997656, 37.51716], [126.995937, 37.514885], [126.993945, 37.512754], [126.991699, 37.510789], [126.98922, 37.509008], [126.986534, 37.507428], [126.983665, 37.506064], [126.980642, 37.50493], [126.977493, 37.504037], [126.974249, 37.503392], [126.97094, 37.503003], [126.9676, 37.502873], [126.96426, 37.503003], [126.960951, 37.503392], [126.957707, 37.504037], [126.954558, 37.50493], [126.951535, 37.506064], [126.948666, 37.507428], [126.94598, 37.509008], [126.943501, 37.510789], [126.941255, 37.512754], [126.939263, 37.514885], [126.937544, 37.51716], [126.936114, 37.519557], [126.934987, 37.522054], [126.934174, 37.524627], [126.933684, 37.527251], [126.93352, 37.5299], [126.933684, 37.532549], [126.934174, 37.535173], [126.934987, 37.537746], [126.936114, 37.540243], [126.937544, 37.54264], [126.939263, 37.544915], [126.941255, 37.547046], [126.943501, 37.549011], [126.94598, 37.550792], [126.948666, 37.552372], [126.951535, 37.553736], [126.954558, 37.55487], [126.957707, 37.555763], [126.960951, 37.556408], [126.96426, 37.556797], [126.9676, 37.556927]]]}}]}