{"type": "FeatureCollection", "features": [{"type": "Feature", "properties": {"name": "P-73A/B 청와대 비행금지구역", "type": "prohibited", "radius_km": 3.7}, "geometry": {"type": "Polygon", "coordinates": [[[126.9748, 37.619933], [126.978923, 37.619773], [126.983006, 37.619293], [126.987011, 37.618498], [126.990897, 37.617396], [126.994629, 37.615997], [126.99817, 37.614316], [127.001485, 37.612367], [127.004544, 37.61017], [127.007316, 37.607746], [127.009775, 37.605119], [127.011898, 37.602313], [127.013663, 37.599356], [127.015053, 37.596276], [127.016056, 37.593103], [127.016662, 37.589867], [127.016865, 37.5866], [127.016662, 37.583333], [127.016056, 37.580097], [127.015053, 37.576924], [127.013663, 37.573844], [127.011898, 37.570887], [127.009775, 37.568081], [127.007316, 37.565454], [127.004544, 37.56303], [127.001485, 37.560833], [126.99817, 37.558884], [126.994629, 37.557203], [126.990897, 37.555804], [126.987011, 37.554702], [126.983006, 37.553907], [126.978923, 37.553427], [126.9748, 37.553267], [126.970677, 37.553427], [126.966594, 37.553907], [126.962589, 37.554702], [126.958703, 37.555804], [126.954971, 37.557203], [126.95143, 37.558884], [126.948115, 37.560833], [126.945056, 37.56303], [126.942284, 37.565454], [126.939825, 37.568081], [126.937702, 37.570887], [126.935937, 37.573844], [126.934547, 37.576924], [126.933544, 37.580097], [126.932938, 37.583333], [126.932735, 37.5866], [126.932938, 37.589867], [126.933544, 37.593103], [126.934547, 37.596276], [126.935937, 37.599356], [126.937702, 37.602313], [126.939825, 37.605119], [126.942284, 37.607746], [126.945056, 37.61017], [126.948115, 37.612367], [126.95143, 37.614316], [126.954971, 37.615997], [126.958703, 37.617396], [126.962589, 37.618498], [126.966594, 37.619293], [126.970677, 37.619773], [126.9748, 37.619933]]]}}]}