{
"type": "FeatureCollection",
"name": "drone_routes",
"crs": { "type": "name", "properties": { "name": "urn:ogc:def:crs:OGC:1.3:CRS84" } },
"features": [
{ "type": "Feature", "properties": { "hub_name": "청계2(북1) 공영주차장(시)", "target_h3": "8930e1d8d97ffff", "target_dong": "종로1·2·3·4가동", "terrain_zone": "Green", "distance_m": 1915.6, "flight_time_min": 1.92, "hub_elev": 32.526237487792969, "target_elev": 58.173576354980469, "elev_diff": 25.6473388671875, "urgency": 0.75906380065723222, "robot_time_min": 32.18208, "total_delivery_min": 13.574624 }, "geometry": { "type": "LineString", "coordinates": [ [ 126.994708, 37.568689 ], [ 126.993658470892882, 37.585935113627691 ] ] } },
{ "type": "Feature", "properties": { "hub_name": "청계2(북1) 공영주차장(시)", "target_h3": "8930e1d8dc3ffff", "target_dong": "종로1·2·3·4가동", "terrain_zone": "Yellow", "distance_m": 939.1, "flight_time_min": 0.94, "hub_elev": 32.526237487792969, "target_elev": 37.698688507080078, "elev_diff": 5.1724510192871094, "urgency": 0.75906380065723222, "robot_time_min": 39.4422, "total_delivery_min": 0.94 }, "geometry": { "type": "LineString", "coordinates": [ [ 126.994708, 37.568689 ], [ 126.990248369413848, 37.576373384893799 ] ] } },
{ "type": "Feature", "properties": { "hub_name": "청계2(북1) 공영주차장(시)", "target_h3": "8930e1d8d13ffff", "target_dong": "종로1·2·3·4가동", "terrain_zone": "Yellow", "distance_m": 1097.6, "flight_time_min": 1.1, "hub_elev": 32.526237487792969, "target_elev": 37.158718109130859, "elev_diff": 4.6324806213378906, "urgency": 0.75906380065723222, "robot_time_min": 46.0992, "total_delivery_min": 1.1 }, "geometry": { "type": "LineString", "coordinates": [ [ 126.994708, 37.568689 ], [ 126.995670474278, 37.578552400415575 ] ] } },
{ "type": "Feature", "properties": { "hub_name": "청계2(북1) 공영주차장(시)", "target_h3": "8930e1d8d5bffff", "target_dong": "종로1·2·3·4가동", "terrain_zone": "Green", "distance_m": 218.7, "flight_time_min": 0.22, "hub_elev": 32.526237487792969, "target_elev": 35.432254791259766, "elev_diff": 2.9060173034667969, "urgency": 0.75906380065723222, "robot_time_min": 3.67416, "total_delivery_min": 3.322248 }, "geometry": { "type": "LineString", "coordinates": [ [ 126.994708, 37.568689 ], [ 126.992260336103044, 37.568991022950669 ] ] } },
{ "type": "Feature", "properties": { "hub_name": "청계2(북1) 공영주차장(시)", "target_h3": "8930e1d8dcfffff", "target_dong": "종로1·2·3·4가동", "terrain_zone": "Green", "distance_m": 682.9, "flight_time_min": 0.68, "hub_elev": 32.526237487792969, "target_elev": 41.102649688720703, "elev_diff": 8.5764122009277344, "urgency": 0.75906380065723222, "robot_time_min": 11.47272, "total_delivery_min": 6.121816 }, "geometry": { "type": "LineString", "coordinates": [ [ 126.994708, 37.568689 ], [ 126.992726297431744, 37.574638898611319 ] ] } },
{ "type": "Feature", "properties": { "hub_name": "양남사거리 앞 노상주차장(구)", "target_h3": "8930e1db323ffff", "target_dong": "여의동", "terrain_zone": "Green", "distance_m": 861.5, "flight_time_min": 0.86, "hub_elev": 18.449785232543945, "target_elev": 25.594625473022461, "elev_diff": 7.1448402404785156, "urgency": 0.87606648288834932, "robot_time_min": 14.4732, "total_delivery_min": 7.20196 }, "geometry": { "type": "LineString", "coordinates": [ [ 126.905414342, 37.532924059 ], [ 126.911270681568666, 37.539132860791838 ] ] } },
{ "type": "Feature", "properties": { "hub_name": "양남사거리 앞 노상주차장(구)", "target_h3": "8930e1db377ffff", "target_dong": "여의동", "terrain_zone": "Green", "distance_m": 362.9, "flight_time_min": 0.36, "hub_elev": 18.449785232543945, "target_elev": 18.140508651733398, "elev_diff": -0.30927658081054688, "urgency": 0.87606648288834932, "robot_time_min": 6.09672, "total_delivery_min": 4.189016 }, "geometry": { "type": "LineString", "coordinates": [ [ 126.905414342, 37.532924059 ], [ 126.90833782755621, 37.535221909382074 ] ] } },
{ "type": "Feature", "properties": { "hub_name": "양남사거리 앞 노상주차장(구)", "target_h3": "8930e1db367ffff", "target_dong": "여의동", "terrain_zone": "Green", "distance_m": 481.1, "flight_time_min": 0.48, "hub_elev": 18.449785232543945, "target_elev": 13.615387916564941, "elev_diff": -4.8343973159790039, "urgency": 0.87606648288834932, "robot_time_min": 8.08248, "total_delivery_min": 4.904744 }, "geometry": { "type": "LineString", "coordinates": [ [ 126.905414342, 37.532924059 ], [ 126.91081261668775, 37.533489746758711 ] ] } },
{ "type": "Feature", "properties": { "hub_name": "양남사거리 앞 노상주차장(구)", "target_h3": "8930e1db33bffff", "target_dong": "여의동", "terrain_zone": "Green", "distance_m": 632.6, "flight_time_min": 0.63, "hub_elev": 18.449785232543945, "target_elev": 23.988637924194336, "elev_diff": 5.5388526916503906, "urgency": 0.87606648288834932, "robot_time_min": 10.62768, "total_delivery_min": 5.818304 }, "geometry": { "type": "LineString", "coordinates": [ [ 126.905414342, 37.532924059 ], [ 126.908566739646417, 37.538043407650498 ] ] } },
{ "type": "Feature", "properties": { "hub_name": "양남사거리 앞 노상주차장(구)", "target_h3": "8930e1db32bffff", "target_dong": "여의동", "terrain_zone": "Green", "distance_m": 623.2, "flight_time_min": 0.62, "hub_elev": 18.449785232543945, "target_elev": 19.6005859375, "elev_diff": 1.1508007049560547, "urgency": 0.87606648288834932, "robot_time_min": 10.46976, "total_delivery_min": 5.760928 }, "geometry": { "type": "LineString", "coordinates": [ [ 126.905414342, 37.532924059 ], [ 126.911041638869349, 37.53631128437209 ] ] } },
{ "type": "Feature", "properties": { "hub_name": "서소문올리브타워옆 공영주차장(구)", "target_h3": "8930e1d8c1bffff", "target_dong": "명동", "terrain_zone": "Green", "distance_m": 446.3, "flight_time_min": 0.45, "hub_elev": 44.040676116943359, "target_elev": 45.29681396484375, "elev_diff": 1.2561378479003906, "urgency": 0.46366570364999493, "robot_time_min": 7.49784, "total_delivery_min": 4.699352 }, "geometry": { "type": "LineString", "coordinates": [ [ 126.976179534, 37.564085862 ], [ 126.976464815900599, 37.568102256829626 ] ] } },
{ "type": "Feature", "properties": { "hub_name": "서소문올리브타워옆 공영주차장(구)", "target_h3": "8930e1d8ea7ffff", "target_dong": "명동", "terrain_zone": "Green", "distance_m": 992.5, "flight_time_min": 0.99, "hub_elev": 44.040676116943359, "target_elev": 55.887012481689453, "elev_diff": 11.846336364746094, "urgency": 0.46366570364999493, "robot_time_min": 16.674, "total_delivery_min": 7.9922 }, "geometry": { "type": "LineString", "coordinates": [ [ 126.976179534, 37.564085862 ], [ 126.983431766304108, 37.557252364413493 ] ] } },
{ "type": "Feature", "properties": { "hub_name": "서소문올리브타워옆 공영주차장(구)", "target_h3": "8930e1d8c0bffff", "target_dong": "명동", "terrain_zone": "Green", "distance_m": 351.6, "flight_time_min": 0.35, "hub_elev": 44.040676116943359, "target_elev": 43.570560455322266, "elev_diff": -0.47011566162109375, "urgency": 0.46366570364999493, "robot_time_min": 5.90688, "total_delivery_min": 4.122064 }, "geometry": { "type": "LineString", "coordinates": [ [ 126.976179534, 37.564085862 ], [ 126.9789421657795, 37.56636813866416 ] ] } },
{ "type": "Feature", "properties": { "hub_name": "서소문올리브타워옆 공영주차장(구)", "target_h3": "8930e1d8c6bffff", "target_dong": "명동", "terrain_zone": "Green", "distance_m": 796.8, "flight_time_min": 0.8, "hub_elev": 44.040676116943359, "target_elev": 47.972988128662109, "elev_diff": 3.93231201171875, "urgency": 0.46366570364999493, "robot_time_min": 13.38624, "total_delivery_min": 6.815872 }, "geometry": { "type": "LineString", "coordinates": [ [ 126.976179534, 37.564085862 ], [ 126.983664280405861, 37.560075932812808 ] ] } },
{ "type": "Feature", "properties": { "hub_name": "서소문올리브타워옆 공영주차장(구)", "target_h3": "8930e1d857bffff", "target_dong": "신촌동", "terrain_zone": "Yellow", "distance_m": 2774.5, "flight_time_min": 2.77, "hub_elev": 44.040676116943359, "target_elev": 61.137763977050781, "elev_diff": 17.097087860107422, "urgency": 0.42577159911076579, "robot_time_min": 116.529, "total_delivery_min": 2.77 }, "geometry": { "type": "LineString", "coordinates": [ [ 126.976179534, 37.564085862 ], [ 126.944888851857712, 37.566319200807818 ] ] } },
{ "type": "Feature", "properties": { "hub_name": "여의도공원 공영주차장(시)", "target_h3": "8930e1d95cfffff", "target_dong": "여의동", "terrain_zone": "Green", "distance_m": 205.4, "flight_time_min": 0.21, "hub_elev": 18.195772171020508, "target_elev": 16.335494995117188, "elev_diff": -1.8602771759033203, "urgency": 0.87606648288834932, "robot_time_min": 3.45072, "total_delivery_min": 3.245216 }, "geometry": { "type": "LineString", "coordinates": [ [ 126.916668, 37.522883 ], [ 126.915303722526929, 37.524381943669191 ] ] } },
{ "type": "Feature", "properties": { "hub_name": "여의도공원 공영주차장(시)", "target_h3": "8930e1d95c3ffff", "target_dong": "여의동", "terrain_zone": "Yellow", "distance_m": 493.6, "flight_time_min": 0.49, "hub_elev": 18.195772171020508, "target_elev": 10.873092651367188, "elev_diff": -7.3226795196533203, "urgency": 0.87606648288834932, "robot_time_min": 20.7312, "total_delivery_min": 0.49 }, "geometry": { "type": "LineString", "coordinates": [ [ 126.916668, 37.522883 ], [ 126.912829186415678, 37.526114426128565 ] ] } },
{ "type": "Feature", "properties": { "hub_name": "여의도공원 공영주차장(시)", "target_h3": "8930e1d954fffff", "target_dong": "여의동", "terrain_zone": "Yellow", "distance_m": 608.4, "flight_time_min": 0.61, "hub_elev": 18.195772171020508, "target_elev": 14.094833374023438, "elev_diff": -4.1009387969970703, "urgency": 0.87606648288834932, "robot_time_min": 25.5528, "total_delivery_min": 0.61 }, "geometry": { "type": "LineString", "coordinates": [ [ 126.916668, 37.522883 ], [ 126.920023344528857, 37.518095038711159 ] ] } },
{ "type": "Feature", "properties": { "hub_name": "여의도공원 공영주차장(시)", "target_h3": "8930e1d9557ffff", "target_dong": "여의동", "terrain_zone": "Green", "distance_m": 101.5, "flight_time_min": 0.1, "hub_elev": 18.195772171020508, "target_elev": 20.604610443115234, "elev_diff": 2.4088382720947266, "urgency": 0.87606648288834932, "robot_time_min": 1.7052, "total_delivery_min": 2.61156 }, "geometry": { "type": "LineString", "coordinates": [ [ 126.916668, 37.522883 ], [ 126.917778242191361, 37.52264934062751 ] ] } },
{ "type": "Feature", "properties": { "hub_name": "여의도공원 공영주차장(시)", "target_h3": "8930e1d9547ffff", "target_dong": "여의동", "terrain_zone": "Green", "distance_m": 384.6, "flight_time_min": 0.38, "hub_elev": 18.195772171020508, "target_elev": 20.280546188354492, "elev_diff": 2.0847740173339844, "urgency": 0.87606648288834932, "robot_time_min": 6.46128, "total_delivery_min": 4.318384 }, "geometry": { "type": "LineString", "coordinates": [ [ 126.916668, 37.522883 ], [ 126.920252745399807, 37.520916617006186 ] ] } },
{ "type": "Feature", "properties": { "hub_name": "논현초교 공영주차장(구)", "target_h3": "8930e1ca06bffff", "target_dong": "역삼1동", "terrain_zone": "Green", "distance_m": 1772.8, "flight_time_min": 1.77, "hub_elev": 34.630912780761719, "target_elev": 43.39691162109375, "elev_diff": 8.7659988403320312, "urgency": 1.0, "robot_time_min": 29.78304, "total_delivery_min": 12.704912 }, "geometry": { "type": "LineString", "coordinates": [ [ 127.027049092, 37.518832983 ], [ 127.034038365774521, 37.503855731279558 ] ] } },
{ "type": "Feature", "properties": { "hub_name": "논현초교 공영주차장(구)", "target_h3": "8930e1ca3d3ffff", "target_dong": "역삼1동", "terrain_zone": "Yellow", "distance_m": 2034.4, "flight_time_min": 2.03, "hub_elev": 34.630912780761719, "target_elev": 43.893032073974609, "elev_diff": 9.2621192932128906, "urgency": 1.0, "robot_time_min": 85.4448, "total_delivery_min": 2.03 }, "geometry": { "type": "LineString", "coordinates": [ [ 127.027049092, 37.518832983 ], [ 127.036514430218915, 37.50211840203464 ] ] } },
{ "type": "Feature", "properties": { "hub_name": "논현초교 공영주차장(구)", "target_h3": "8930e1ca04fffff", "target_dong": "역삼1동", "terrain_zone": "Green", "distance_m": 1597.5, "flight_time_min": 1.6, "hub_elev": 34.630912780761719, "target_elev": 39.584362030029297, "elev_diff": 4.9534492492675781, "urgency": 1.0, "robot_time_min": 26.838, "total_delivery_min": 11.6514 }, "geometry": { "type": "LineString", "coordinates": [ [ 127.027049092, 37.518832983 ], [ 127.02885172451073, 37.504505987010504 ] ] } },
{ "type": "Feature", "properties": { "hub_name": "논현초교 공영주차장(구)", "target_h3": "8930e1ca04bffff", "target_dong": "역삼1동", "terrain_zone": "Green", "distance_m": 1712.0, "flight_time_min": 1.71, "hub_elev": 34.630912780761719, "target_elev": 30.517816543579102, "elev_diff": -4.1130962371826172, "urgency": 1.0, "robot_time_min": 28.7616, "total_delivery_min": 12.33848 }, "geometry": { "type": "LineString", "coordinates": [ [ 127.027049092, 37.518832983 ], [ 127.02614138902797, 37.503419030581199 ] ] } },
{ "type": "Feature", "properties": { "hub_name": "논현초교 공영주차장(구)", "target_h3": "8930e1ca2bbffff", "target_dong": "역삼1동", "terrain_zone": "Yellow", "distance_m": 2219.3, "flight_time_min": 2.22, "hub_elev": 34.630912780761719, "target_elev": 26.668876647949219, "elev_diff": -7.9620361328125, "urgency": 1.0, "robot_time_min": 93.2106, "total_delivery_min": 2.22 }, "geometry": { "type": "LineString", "coordinates": [ [ 127.027049092, 37.518832983 ], [ 127.028382864257239, 37.498858022455579 ] ] } },
{ "type": "Feature", "properties": { "hub_name": "동호대교(남) 공영주차장(시)", "target_h3": "8930e1ca503ffff", "target_dong": "압구정동", "terrain_zone": "Green", "distance_m": 609.2, "flight_time_min": 0.61, "hub_elev": 24.659318923950195, "target_elev": 22.704816818237305, "elev_diff": -1.9545021057128906, "urgency": 0.3122570236969347, "robot_time_min": 10.23456, "total_delivery_min": 5.680368 }, "geometry": { "type": "LineString", "coordinates": [ [ 127.02470782, 37.53089304 ], [ 127.031197286947673, 37.532748146806824 ] ] } },
{ "type": "Feature", "properties": { "hub_name": "동호대교(남) 공영주차장(시)", "target_h3": "8930e1ca577ffff", "target_dong": "압구정동", "terrain_zone": "Green", "distance_m": 1026.9, "flight_time_min": 1.03, "hub_elev": 24.659318923950195, "target_elev": 23.318283081054688, "elev_diff": -1.3410358428955078, "urgency": 0.3122570236969347, "robot_time_min": 17.25192, "total_delivery_min": 8.205576 }, "geometry": { "type": "LineString", "coordinates": [ [ 127.02470782, 37.53089304 ], [ 127.036151450224878, 37.529274553857718 ] ] } },
{ "type": "Feature", "properties": { "hub_name": "동호대교(남) 공영주차장(시)", "target_h3": "8930e1ca5cfffff", "target_dong": "압구정동", "terrain_zone": "Green", "distance_m": 100.7, "flight_time_min": 0.1, "hub_elev": 24.659318923950195, "target_elev": 23.94915771484375, "elev_diff": -0.71016120910644531, "urgency": 0.3122570236969347, "robot_time_min": 1.69176, "total_delivery_min": 2.607528 }, "geometry": { "type": "LineString", "coordinates": [ [ 127.02470782, 37.53089304 ], [ 127.025774216252145, 37.530572670055015 ] ] } },
{ "type": "Feature", "properties": { "hub_name": "동호대교(남) 공영주차장(시)", "target_h3": "8930e1ca567ffff", "target_dong": "압구정동", "terrain_zone": "Green", "distance_m": 1285.1, "flight_time_min": 1.29, "hub_elev": 24.659318923950195, "target_elev": 24.515172958374023, "elev_diff": -0.14414596557617188, "urgency": 0.3122570236969347, "robot_time_min": 21.58968, "total_delivery_min": 9.766904 }, "geometry": { "type": "LineString", "coordinates": [ [ 127.02470782, 37.53089304 ], [ 127.038628506465344, 37.527537576253707 ] ] } },
{ "type": "Feature", "properties": { "hub_name": "동호대교(남) 공영주차장(시)", "target_h3": "8930e1ca53bffff", "target_dong": "압구정동", "terrain_zone": "Green", "distance_m": 1040.5, "flight_time_min": 1.04, "hub_elev": 24.659318923950195, "target_elev": 21.933126449584961, "elev_diff": -2.7261924743652344, "urgency": 0.3122570236969347, "robot_time_min": 17.4804, "total_delivery_min": 8.28412 }, "geometry": { "type": "LineString", "coordinates": [ [ 127.02470782, 37.53089304 ], [ 127.036386342646551, 37.532099062011639 ] ] } },
{ "type": "Feature", "properties": { "hub_name": "독산동 금천교 공영주차장(시)", "target_h3": "8930e0acb4bffff", "target_dong": "가산동", "terrain_zone": "Green", "distance_m": 2023.8, "flight_time_min": 2.02, "hub_elev": 19.038209915161133, "target_elev": 16.917867660522461, "elev_diff": -2.1203422546386719, "urgency": 0.50692153213043101, "robot_time_min": 33.99984, "total_delivery_min": 14.219952 }, "geometry": { "type": "LineString", "coordinates": [ [ 126.89000673, 37.46654105 ], [ 126.877900383708081, 37.482021913485369 ] ] } },
{ "type": "Feature", "properties": { "hub_name": "독산동 금천교 공영주차장(시)", "target_h3": "8930e036553ffff", "target_dong": "가산동", "terrain_zone": "Green", "distance_m": 915.4, "flight_time_min": 0.92, "hub_elev": 19.038209915161133, "target_elev": 22.20930290222168, "elev_diff": 3.1710929870605469, "urgency": 0.50692153213043101, "robot_time_min": 15.37872, "total_delivery_min": 7.533616 }, "geometry": { "type": "LineString", "coordinates": [ [ 126.89000673, 37.46654105 ], [ 126.892961319657317, 37.474448837432043 ] ] } },
{ "type": "Feature", "properties": { "hub_name": "독산동 금천교 공영주차장(시)", "target_h3": "8930e036497ffff", "target_dong": "가산동", "terrain_zone": "Green", "distance_m": 2064.9, "flight_time_min": 2.06, "hub_elev": 19.038209915161133, "target_elev": 13.953499794006348, "elev_diff": -5.0847101211547852, "urgency": 0.50692153213043101, "robot_time_min": 34.69032, "total_delivery_min": 14.467096 }, "geometry": { "type": "LineString", "coordinates": [ [ 126.89000673, 37.46654105 ], [ 126.875200992713346, 37.480933678691642 ] ] } },
{ "type": "Feature", "properties": { "hub_name": "독산동 금천교 공영주차장(시)", "target_h3": "8930e0364b3ffff", "target_dong": "가산동", "terrain_zone": "Green", "distance_m": 1747.2, "flight_time_min": 1.75, "hub_elev": 19.038209915161133, "target_elev": 18.962850570678711, "elev_diff": -0.075359344482421875, "urgency": 0.50692153213043101, "robot_time_min": 29.35296, "total_delivery_min": 12.555888 }, "geometry": { "type": "LineString", "coordinates": [ [ 126.89000673, 37.46654105 ], [ 126.880372586965095, 37.480289973864203 ] ] } },
{ "type": "Feature", "properties": { "hub_name": "독산동 금천교 공영주차장(시)", "target_h3": "8930e036423ffff", "target_dong": "가산동", "terrain_zone": "Green", "distance_m": 671.7, "flight_time_min": 0.67, "hub_elev": 19.038209915161133, "target_elev": 17.067983627319336, "elev_diff": -1.9702262878417969, "urgency": 0.50692153213043101, "robot_time_min": 11.28456, "total_delivery_min": 6.055368 }, "geometry": { "type": "LineString", "coordinates": [ [ 126.89000673, 37.46654105 ], [ 126.887561378228, 37.472273182614359 ] ] } },
{ "type": "Feature", "properties": { "hub_name": "천왕역 공영주차장(시)", "target_h3": "8930e0addd7ffff", "target_dong": "오류2동", "terrain_zone": "Green", "distance_m": 996.6, "flight_time_min": 1.0, "hub_elev": 29.582681655883789, "target_elev": 38.688098907470703, "elev_diff": 9.1054172515869141, "urgency": 0.17574805593133319, "robot_time_min": 16.74288, "total_delivery_min": 8.022864 }, "geometry": { "type": "LineString", "coordinates": [ [ 126.83918316, 37.48728845 ], [ 126.835863278385986, 37.478704605548629 ] ] } },
{ "type": "Feature", "properties": { "hub_name": "천왕역 공영주차장(시)", "target_h3": "8930e0ac32fffff", "target_dong": "오류2동", "terrain_zone": "Yellow", "distance_m": 234.2, "flight_time_min": 0.23, "hub_elev": 29.582681655883789, "target_elev": 33.843185424804688, "elev_diff": 4.2605037689208984, "urgency": 0.17574805593133319, "robot_time_min": 9.8364, "total_delivery_min": 0.23 }, "geometry": { "type": "LineString", "coordinates": [ [ 126.83918316, 37.48728845 ], [ 126.836539303417084, 37.487161946706195 ] ] } },
{ "type": "Feature", "properties": { "hub_name": "천왕역 공영주차장(시)", "target_h3": "8930e0ace5bffff", "target_dong": "오류2동", "terrain_zone": "Green", "distance_m": 106.9, "flight_time_min": 0.11, "hub_elev": 29.582681655883789, "target_elev": 26.998455047607422, "elev_diff": -2.5842266082763672, "urgency": 0.17574805593133319, "robot_time_min": 1.79592, "total_delivery_min": 2.648776 }, "geometry": { "type": "LineString", "coordinates": [ [ 126.83918316, 37.48728845 ], [ 126.83923637891526, 37.488250850057959 ] ] } },
{ "type": "Feature", "properties": { "hub_name": "천왕역 공영주차장(시)", "target_h3": "8930e0ac303ffff", "target_dong": "오류2동", "terrain_zone": "Green", "distance_m": 1154.7, "flight_time_min": 1.15, "hub_elev": 29.582681655883789, "target_elev": 36.45245361328125, "elev_diff": 6.8697719573974609, "urgency": 0.17574805593133319, "robot_time_min": 19.39896, "total_delivery_min": 8.969688 }, "geometry": { "type": "LineString", "coordinates": [ [ 126.83918316, 37.48728845 ], [ 126.82620298277358, 37.488444102061301 ] ] } },
{ "type": "Feature", "properties": { "hub_name": "천왕역 공영주차장(시)", "target_h3": "8930e0ac377ffff", "target_dong": "오류2동", "terrain_zone": "Green", "distance_m": 755.2, "flight_time_min": 0.76, "hub_elev": 29.582681655883789, "target_elev": 43.160198211669922, "elev_diff": 13.577516555786133, "urgency": 0.17574805593133319, "robot_time_min": 12.68736, "total_delivery_min": 6.566208 }, "geometry": { "type": "LineString", "coordinates": [ [ 126.83918316, 37.48728845 ], [ 126.831145823519748, 37.484984131834793 ] ] } },
{ "type": "Feature", "properties": { "hub_name": "렉싱턴호텔뒤 노상주차장(구)", "target_h3": "8930e1d91bbffff", "target_dong": "여의동", "terrain_zone": "Yellow", "distance_m": 453.4, "flight_time_min": 0.45, "hub_elev": 22.520593643188477, "target_elev": 16.666213989257812, "elev_diff": -5.8543796539306641, "urgency": 0.87606648288834932, "robot_time_min": 19.0428, "total_delivery_min": 0.45 }, "geometry": { "type": "LineString", "coordinates": [ [ 126.9348579, 37.52295425 ], [ 126.938494697228748, 37.520071976869843 ] ] } },
{ "type": "Feature", "properties": { "hub_name": "렉싱턴호텔뒤 노상주차장(구)", "target_h3": "8930e1d826bffff", "target_dong": "여의동", "terrain_zone": "Green", "distance_m": 852.8, "flight_time_min": 0.85, "hub_elev": 22.520593643188477, "target_elev": 29.071697235107422, "elev_diff": 6.5511035919189453, "urgency": 0.87606648288834932, "robot_time_min": 14.32704, "total_delivery_min": 7.148112 }, "geometry": { "type": "LineString", "coordinates": [ [ 126.9348579, 37.52295425 ], [ 126.944135848919061, 37.525071288544687 ] ] } },
{ "type": "Feature", "properties": { "hub_name": "렉싱턴호텔뒤 노상주차장(구)", "target_h3": "8930e1d918fffff", "target_dong": "여의동", "terrain_zone": "Green", "distance_m": 448.2, "flight_time_min": 0.45, "hub_elev": 22.520593643188477, "target_elev": 24.077646255493164, "elev_diff": 1.5570526123046875, "urgency": 0.87606648288834932, "robot_time_min": 7.52976, "total_delivery_min": 4.708928 }, "geometry": { "type": "LineString", "coordinates": [ [ 126.9348579, 37.52295425 ], [ 126.935789725638926, 37.518983418113486 ] ] } },
{ "type": "Feature", "properties": { "hub_name": "렉싱턴호텔뒤 노상주차장(구)", "target_h3": "8930e1d8213ffff", "target_dong": "여의동", "terrain_zone": "Green", "distance_m": 1452.5, "flight_time_min": 1.45, "hub_elev": 22.520593643188477, "target_elev": 28.814346313476562, "elev_diff": 6.2937526702880859, "urgency": 0.87606648288834932, "robot_time_min": 24.402, "total_delivery_min": 10.7706 }, "geometry": { "type": "LineString", "coordinates": [ [ 126.9348579, 37.52295425 ], [ 126.937170896455314, 37.53591581761026 ] ] } },
{ "type": "Feature", "properties": { "hub_name": "렉싱턴호텔뒤 노상주차장(구)", "target_h3": "8930e1d91d7ffff", "target_dong": "여의동", "terrain_zone": "Yellow", "distance_m": 788.5, "flight_time_min": 0.79, "hub_elev": 22.520593643188477, "target_elev": 16.562690734863281, "elev_diff": -5.9579029083251953, "urgency": 0.87606648288834932, "robot_time_min": 33.117, "total_delivery_min": 0.79 }, "geometry": { "type": "LineString", "coordinates": [ [ 126.9348579, 37.52295425 ], [ 126.930380455139868, 37.516806291010219 ] ] } },
{ "type": "Feature", "properties": { "hub_name": "난지중앙로노상공영주차장(시)", "target_h3": "8930e1db5dbffff", "target_dong": "상암동", "terrain_zone": "Green", "distance_m": 258.3, "flight_time_min": 0.26, "hub_elev": 36.673942565917969, "target_elev": 32.676979064941406, "elev_diff": -3.9969635009765625, "urgency": 0.29836337231651155, "robot_time_min": 4.33944, "total_delivery_min": 3.561832 }, "geometry": { "type": "LineString", "coordinates": [ [ 126.8799187, 37.5684717 ], [ 126.877074122601272, 37.569013222790105 ] ] } },
{ "type": "Feature", "properties": { "hub_name": "난지중앙로노상공영주차장(시)", "target_h3": "8930e1db0a3ffff", "target_dong": "상암동", "terrain_zone": "Green", "distance_m": 1465.2, "flight_time_min": 1.47, "hub_elev": 36.673942565917969, "target_elev": 22.850856781005859, "elev_diff": -13.823085784912109, "urgency": 0.29836337231651155, "robot_time_min": 24.61536, "total_delivery_min": 10.854608 }, "geometry": { "type": "LineString", "coordinates": [ [ 126.8799187, 37.5684717 ], [ 126.88922307911055, 37.557538533875366 ] ] } },
{ "type": "Feature", "properties": { "hub_name": "난지중앙로노상공영주차장(시)", "target_h3": "8930e1da2dbffff", "target_dong": "상암동", "terrain_zone": "Green", "distance_m": 1685.2, "flight_time_min": 1.69, "hub_elev": 36.673942565917969, "target_elev": 23.628223419189453, "elev_diff": -13.045719146728516, "urgency": 0.29836337231651155, "robot_time_min": 28.31136, "total_delivery_min": 12.183408 }, "geometry": { "type": "LineString", "coordinates": [ [ 126.8799187, 37.5684717 ], [ 126.89600063978115, 37.576648363049614 ] ] } },
{ "type": "Feature", "properties": { "hub_name": "난지중앙로노상공영주차장(시)", "target_h3": "8930e1db5afffff", "target_dong": "상암동", "terrain_zone": "Yellow", "distance_m": 1419.0, "flight_time_min": 1.42, "hub_elev": 36.673942565917969, "target_elev": 31.268810272216797, "elev_diff": -5.4051322937011719, "urgency": 0.29836337231651155, "robot_time_min": 59.598, "total_delivery_min": 1.42 }, "geometry": { "type": "LineString", "coordinates": [ [ 126.8799187, 37.5684717 ], [ 126.893296178242863, 37.575557637973347 ] ] } },
{ "type": "Feature", "properties": { "hub_name": "난지중앙로노상공영주차장(시)", "target_h3": "8930e1db427ffff", "target_dong": "상암동", "terrain_zone": "Yellow", "distance_m": 448.0, "flight_time_min": 0.45, "hub_elev": 36.673942565917969, "target_elev": 14.403252601623535, "elev_diff": -22.270689964294434, "urgency": 0.29836337231651155, "robot_time_min": 18.816, "total_delivery_min": 0.45 }, "geometry": { "type": "LineString", "coordinates": [ [ 126.8799187, 37.5684717 ], [ 126.87932191309082, 37.564461644802329 ] ] } },
{ "type": "Feature", "properties": { "hub_name": "언북초교 공영주차장(구)", "target_h3": "8930e1ca387ffff", "target_dong": "역삼1동", "terrain_zone": "Green", "distance_m": 1764.9, "flight_time_min": 1.76, "hub_elev": 38.185150146484375, "target_elev": 30.674049377441406, "elev_diff": -7.5111007690429688, "urgency": 1.0, "robot_time_min": 29.65032, "total_delivery_min": 12.655096 }, "geometry": { "type": "LineString", "coordinates": [ [ 127.052536986, 37.522895993 ], [ 127.044883222906478, 37.508203180045349 ] ] } },
{ "type": "Feature", "properties": { "hub_name": "언북초교 공영주차장(구)", "target_h3": "8930e1cae97ffff", "target_dong": "삼성1동", "terrain_zone": "Green", "distance_m": 982.0, "flight_time_min": 0.98, "hub_elev": 38.185150146484375, "target_elev": 30.872045516967773, "elev_diff": -7.3131046295166016, "urgency": 0.45323553031852981, "robot_time_min": 16.4976, "total_delivery_min": 7.92928 }, "geometry": { "type": "LineString", "coordinates": [ [ 127.052536986, 37.522895993 ], [ 127.061393259802259, 37.517549181087468 ] ] } },
{ "type": "Feature", "properties": { "hub_name": "언북초교 공영주차장(구)", "target_h3": "8930e1cac43ffff", "target_dong": "삼성1동", "terrain_zone": "Green", "distance_m": 1055.3, "flight_time_min": 1.06, "hub_elev": 38.185150146484375, "target_elev": 26.720556259155273, "elev_diff": -11.464593887329102, "urgency": 0.45323553031852981, "robot_time_min": 17.72904, "total_delivery_min": 8.378712 }, "geometry": { "type": "LineString", "coordinates": [ [ 127.052536986, 37.522895993 ], [ 127.064342682548926, 37.52146114463978 ] ] } },
{ "type": "Feature", "properties": { "hub_name": "언북초교 공영주차장(구)", "target_h3": "8930e1ca163ffff", "target_dong": "삼성1동", "terrain_zone": "Green", "distance_m": 957.1, "flight_time_min": 0.96, "hub_elev": 38.185150146484375, "target_elev": 36.030265808105469, "elev_diff": -2.1548843383789062, "urgency": 0.45323553031852981, "robot_time_min": 16.07928, "total_delivery_min": 7.783784 }, "geometry": { "type": "LineString", "coordinates": [ [ 127.052536986, 37.522895993 ], [ 127.053254844781222, 37.514288432163539 ] ] } },
{ "type": "Feature", "properties": { "hub_name": "언북초교 공영주차장(구)", "target_h3": "8930e1cac47ffff", "target_dong": "삼성1동", "terrain_zone": "Green", "distance_m": 1283.6, "flight_time_min": 1.28, "hub_elev": 38.185150146484375, "target_elev": 27.142110824584961, "elev_diff": -11.043039321899414, "urgency": 0.45323553031852981, "robot_time_min": 21.56448, "total_delivery_min": 9.749344 }, "geometry": { "type": "LineString", "coordinates": [ [ 127.052536986, 37.522895993 ], [ 127.067056292824915, 37.522548127688715 ] ] } },
{ "type": "Feature", "properties": { "hub_name": "여의서로 공영주차장(시)", "target_h3": "8930e1d95b3ffff", "target_dong": "여의동", "terrain_zone": "Green", "distance_m": 408.1, "flight_time_min": 0.41, "hub_elev": 19.205789566040039, "target_elev": 23.049150466918945, "elev_diff": 3.8433609008789062, "urgency": 0.87606648288834932, "robot_time_min": 6.85608, "total_delivery_min": 4.466824 }, "geometry": { "type": "LineString", "coordinates": [ [ 126.91747889, 37.533081 ], [ 126.921400058034138, 37.535025091424252 ] ] } },
{ "type": "Feature", "properties": { "hub_name": "여의서로 공영주차장(시)", "target_h3": "8930e1d9513ffff", "target_dong": "여의동", "terrain_zone": "Yellow", "distance_m": 535.5, "flight_time_min": 0.54, "hub_elev": 19.205789566040039, "target_elev": 19.687217712402344, "elev_diff": 0.48142814636230469, "urgency": 0.87606648288834932, "robot_time_min": 22.491, "total_delivery_min": 0.54 }, "geometry": { "type": "LineString", "coordinates": [ [ 126.91747889, 37.533081 ], [ 126.918236885445779, 37.528292535258643 ] ] } },
{ "type": "Feature", "properties": { "hub_name": "여의서로 공영주차장(시)", "target_h3": "8930e1d9587ffff", "target_dong": "여의동", "terrain_zone": "Yellow", "distance_m": 143.4, "flight_time_min": 0.14, "hub_elev": 19.205789566040039, "target_elev": 16.890613555908203, "elev_diff": -2.3151760101318359, "urgency": 0.87606648288834932, "robot_time_min": 6.0228, "total_delivery_min": 0.14 }, "geometry": { "type": "LineString", "coordinates": [ [ 126.91747889, 37.533081 ], [ 126.918695610876568, 37.533935885271724 ] ] } },
{ "type": "Feature", "properties": { "hub_name": "여의서로 공영주차장(시)", "target_h3": "8930e1d95a3ffff", "target_dong": "여의동", "terrain_zone": "Yellow", "distance_m": 565.6, "flight_time_min": 0.57, "hub_elev": 19.205789566040039, "target_elev": 12.79827880859375, "elev_diff": -6.4075107574462891, "urgency": 0.87606648288834932, "robot_time_min": 23.7552, "total_delivery_min": 0.57 }, "geometry": { "type": "LineString", "coordinates": [ [ 126.91747889, 37.533081 ], [ 126.923875095176669, 37.533292443709271 ] ] } },
{ "type": "Feature", "properties": { "hub_name": "여의서로 공영주차장(시)", "target_h3": "8930e1d8653ffff", "target_dong": "여의동", "terrain_zone": "Green", "distance_m": 915.9, "flight_time_min": 0.92, "hub_elev": 19.205789566040039, "target_elev": 25.532127380371094, "elev_diff": 6.3263378143310547, "urgency": 0.87606648288834932, "robot_time_min": 15.38712, "total_delivery_min": 7.536136 }, "geometry": { "type": "LineString", "coordinates": [ [ 126.91747889, 37.533081 ], [ 126.91667923830542, 37.541311757682124 ] ] } },
{ "type": "Feature", "properties": { "hub_name": "동국제강 공영주차장(시)", "target_h3": "8930e1d8cafffff", "target_dong": "종로1·2·3·4가동", "terrain_zone": "Yellow", "distance_m": 770.6, "flight_time_min": 0.77, "hub_elev": 42.682834625244141, "target_elev": 35.192527770996094, "elev_diff": -7.4903068542480469, "urgency": 0.75906380065723222, "robot_time_min": 32.3652, "total_delivery_min": 0.77 }, "geometry": { "type": "LineString", "coordinates": [ [ 126.98343453, 37.56733736 ], [ 126.984827163715082, 37.574194355277577 ] ] } },
{ "type": "Feature", "properties": { "hub_name": "동국제강 공영주차장(시)", "target_h3": "8930e1d8c37ffff", "target_dong": "종로1·2·3·4가동", "terrain_zone": "Green", "distance_m": 663.2, "flight_time_min": 0.66, "hub_elev": 42.682834625244141, "target_elev": 41.229068756103516, "elev_diff": -1.453765869140625, "urgency": 0.75906380065723222, "robot_time_min": 11.14176, "total_delivery_min": 6.002528 }, "geometry": { "type": "LineString", "coordinates": [ [ 126.98343453, 37.56733736 ], [ 126.987304904607853, 37.572460032001388 ] ] } },
{ "type": "Feature", "properties": { "hub_name": "동국제강 공영주차장(시)", "target_h3": "8930e1d8ddbffff", "target_dong": "종로1·2·3·4가동", "terrain_zone": "Yellow", "distance_m": 953.2, "flight_time_min": 0.95, "hub_elev": 42.682834625244141, "target_elev": 38.333595275878906, "elev_diff": -4.3492393493652344, "urgency": 0.75906380065723222, "robot_time_min": 40.0344, "total_delivery_min": 0.95 }, "geometry": { "type": "LineString", "coordinates": [ [ 126.98343453, 37.56733736 ], [ 126.987537654176705, 37.575283871840782 ] ] } },
{ "type": "Feature", "properties": { "hub_name": "동국제강 공영주차장(시)", "target_h3": "8930e1d8c03ffff", "target_dong": "종로1·2·3·4가동", "terrain_zone": "Yellow", "distance_m": 428.8, "flight_time_min": 0.43, "hub_elev": 42.682834625244141, "target_elev": 40.158817291259766, "elev_diff": -2.524017333984375, "urgency": 0.75906380065723222, "robot_time_min": 18.0096, "total_delivery_min": 0.43 }, "geometry": { "type": "LineString", "coordinates": [ [ 126.98343453, 37.56733736 ], [ 126.979174500999406, 37.56919170583312 ] ] } },
{ "type": "Feature", "properties": { "hub_name": "동국제강 공영주차장(시)", "target_h3": "8930e1d8c33ffff", "target_dong": "종로1·2·3·4가동", "terrain_zone": "Green", "distance_m": 459.1, "flight_time_min": 0.46, "hub_elev": 42.682834625244141, "target_elev": 30.882303237915039, "elev_diff": -11.800531387329102, "urgency": 0.75906380065723222, "robot_time_min": 7.71288, "total_delivery_min": 4.773864 }, "geometry": { "type": "LineString", "coordinates": [ [ 126.98343453, 37.56733736 ], [ 126.984594545337202, 37.571370593432377 ] ] } },
{ "type": "Feature", "properties": { "hub_name": "용산전자상가3 공영주차장(구)", "target_h3": "8930e1d9cd7ffff", "target_dong": "여의동", "terrain_zone": "Green", "distance_m": 1228.1, "flight_time_min": 1.23, "hub_elev": 19.02183723449707, "target_elev": 29.686830520629883, "elev_diff": 10.664993286132812, "urgency": 0.87606648288834932, "robot_time_min": 20.63208, "total_delivery_min": 9.419624 }, "geometry": { "type": "LineString", "coordinates": [ [ 126.963070209, 37.526022108 ], [ 126.94931682622591, 37.524426179616789 ] ] } },
{ "type": "Feature", "properties": { "hub_name": "용산전자상가3 공영주차장(구)", "target_h3": "8930e1d9c9bffff", "target_dong": "여의동", "terrain_zone": "Green", "distance_m": 1202.6, "flight_time_min": 1.2, "hub_elev": 19.02183723449707, "target_elev": 29.01774787902832, "elev_diff": 9.99591064453125, "urgency": 0.87606648288834932, "robot_time_min": 20.20368, "total_delivery_min": 9.261104 }, "geometry": { "type": "LineString", "coordinates": [ [ 126.963070209, 37.526022108 ], [ 126.949547623521539, 37.527248539671902 ] ] } },
{ "type": "Feature", "properties": { "hub_name": "용산전자상가3 공영주차장(구)", "target_h3": "8930e1d9dcfffff", "target_dong": "한강로동", "terrain_zone": "Green", "distance_m": 677.1, "flight_time_min": 0.68, "hub_elev": 19.02183723449707, "target_elev": 29.266279220581055, "elev_diff": 10.244441986083984, "urgency": 0.31333088935182973, "robot_time_min": 11.37528, "total_delivery_min": 6.092584 }, "geometry": { "type": "LineString", "coordinates": [ [ 126.963070209, 37.526022108 ], [ 126.970508225963414, 37.527488574354997 ] ] } },
{ "type": "Feature", "properties": { "hub_name": "용산전자상가3 공영주차장(구)", "target_h3": "8930e1d9cbbffff", "target_dong": "한강로동", "terrain_zone": "Green", "distance_m": 531.2, "flight_time_min": 0.53, "hub_elev": 19.02183723449707, "target_elev": 23.71467399597168, "elev_diff": 4.6928367614746094, "urgency": 0.31333088935182973, "robot_time_min": 8.92416, "total_delivery_min": 5.207248 }, "geometry": { "type": "LineString", "coordinates": [ [ 126.963070209, 37.526022108 ], [ 126.957435778186564, 37.527691797412089 ] ] } },
{ "type": "Feature", "properties": { "hub_name": "용산전자상가3 공영주차장(구)", "target_h3": "8930e1d9c37ffff", "target_dong": "한강로동", "terrain_zone": "Green", "distance_m": 195.4, "flight_time_min": 0.2, "hub_elev": 19.02183723449707, "target_elev": 24.122524261474609, "elev_diff": 5.1006870269775391, "urgency": 0.31333088935182973, "robot_time_min": 3.28272, "total_delivery_min": 3.184816 }, "geometry": { "type": "LineString", "coordinates": [ [ 126.963070209, 37.526022108 ], [ 126.965093646816456, 37.525311844715795 ] ] } },
{ "type": "Feature", "properties": { "hub_name": "용산전자상가1 공영주차장(구)", "target_h3": "8930e1d9d87ffff", "target_dong": "한강로동", "terrain_zone": "Green", "distance_m": 317.9, "flight_time_min": 0.32, "hub_elev": 33.514350891113281, "target_elev": 29.636281967163086, "elev_diff": -3.8780689239501953, "urgency": 0.31333088935182973, "robot_time_min": 5.34072, "total_delivery_min": 3.922216 }, "geometry": { "type": "LineString", "coordinates": [ [ 126.97519485, 37.534368831 ], [ 126.973911715449958, 37.537046006190536 ] ] } },
{ "type": "Feature", "properties": { "hub_name": "용산전자상가1 공영주차장(구)", "target_h3": "8930e1d9d13ffff", "target_dong": "한강로동", "terrain_zone": "Green", "distance_m": 363.8, "flight_time_min": 0.36, "hub_elev": 33.514350891113281, "target_elev": 33.873401641845703, "elev_diff": 0.35905075073242188, "urgency": 0.31333088935182973, "robot_time_min": 6.11184, "total_delivery_min": 4.193552 }, "geometry": { "type": "LineString", "coordinates": [ [ 126.97519485, 37.534368831 ], [ 126.973447785779456, 37.531399919312513 ] ] } },
{ "type": "Feature", "properties": { "hub_name": "용산전자상가1 공영주차장(구)", "target_h3": "8930e1d9d03ffff", "target_dong": "한강로동", "terrain_zone": "Green", "distance_m": 525.8, "flight_time_min": 0.53, "hub_elev": 33.514350891113281, "target_elev": 36.074100494384766, "elev_diff": 2.5597496032714844, "urgency": 0.31333088935182973, "robot_time_min": 8.83344, "total_delivery_min": 5.180032 }, "geometry": { "type": "LineString", "coordinates": [ [ 126.97519485, 37.534368831 ], [ 126.975923702702417, 37.529665290539384 ] ] } },
{ "type": "Feature", "properties": { "hub_name": "용산전자상가1 공영주차장(구)", "target_h3": "8930e1d836fffff", "target_dong": "한강로동", "terrain_zone": "Yellow", "distance_m": 833.6, "flight_time_min": 0.83, "hub_elev": 33.514350891113281, "target_elev": 21.40684700012207, "elev_diff": -12.107503890991211, "urgency": 0.31333088935182973, "robot_time_min": 35.0112, "total_delivery_min": 0.83 }, "geometry": { "type": "LineString", "coordinates": [ [ 126.97519485, 37.534368831 ], [ 126.965788331782008, 37.533780214074369 ] ] } },
{ "type": "Feature", "properties": { "hub_name": "용산전자상가1 공영주차장(구)", "target_h3": "8930e1d9d0fffff", "target_dong": "한강로동", "terrain_zone": "Green", "distance_m": 768.4, "flight_time_min": 0.77, "hub_elev": 33.514350891113281, "target_elev": 36.266448974609375, "elev_diff": 2.7520980834960938, "urgency": 0.31333088935182973, "robot_time_min": 12.90912, "total_delivery_min": 6.642736 }, "geometry": { "type": "LineString", "coordinates": [ [ 126.97519485, 37.534368831 ], [ 126.978399602932399, 37.527930541089148 ] ] } },
{ "type": "Feature", "properties": { "hub_name": "삼환아파트 앞 노상주차장(구)", "target_h3": "8930e1d9403ffff", "target_dong": "영등포동", "terrain_zone": "Green", "distance_m": 1180.4, "flight_time_min": 1.18, "hub_elev": 17.674312591552734, "target_elev": 18.699161529541016, "elev_diff": 1.0248489379882812, "urgency": 0.33906800423839262, "robot_time_min": 19.83072, "total_delivery_min": 9.129216 }, "geometry": { "type": "LineString", "coordinates": [ [ 126.88878138, 37.516516125 ], [ 126.901787930175672, 37.518937022891642 ] ] } },
{ "type": "Feature", "properties": { "hub_name": "삼환아파트 앞 노상주차장(구)", "target_h3": "8930e0ac94fffff", "target_dong": "구로5동", "terrain_zone": "Green", "distance_m": 1623.9, "flight_time_min": 1.62, "hub_elev": 17.674312591552734, "target_elev": 18.184309005737305, "elev_diff": 0.50999641418457031, "urgency": 0.22441557038521853, "robot_time_min": 27.28152, "total_delivery_min": 11.804456 }, "geometry": { "type": "LineString", "coordinates": [ [ 126.88878138, 37.516516125 ], [ 126.882192449285924, 37.502852438527363 ] ] } },
{ "type": "Feature", "properties": { "hub_name": "삼환아파트 앞 노상주차장(구)", "target_h3": "8930e0ac97bffff", "target_dong": "구로5동", "terrain_zone": "Green", "distance_m": 1436.8, "flight_time_min": 1.44, "hub_elev": 17.674312591552734, "target_elev": 19.187967300415039, "elev_diff": 1.5136547088623047, "urgency": 0.22441557038521853, "robot_time_min": 24.13824, "total_delivery_min": 10.681472 }, "geometry": { "type": "LineString", "coordinates": [ [ 126.88878138, 37.516516125 ], [ 126.884893199866525, 37.503941215265911 ] ] } },
{ "type": "Feature", "properties": { "hub_name": "삼환아파트 앞 노상주차장(구)", "target_h3": "8930e1d969bffff", "target_dong": "구로5동", "terrain_zone": "Green", "distance_m": 1391.1, "flight_time_min": 1.39, "hub_elev": 17.674312591552734, "target_elev": 18.581232070922852, "elev_diff": 0.90691947937011719, "urgency": 0.22441557038521853, "robot_time_min": 23.37048, "total_delivery_min": 10.401144 }, "geometry": { "type": "LineString", "coordinates": [ [ 126.88878138, 37.516516125 ], [ 126.892768720042312, 37.504386770195985 ] ] } },
{ "type": "Feature", "properties": { "hub_name": "삼환아파트 앞 노상주차장(구)", "target_h3": "8930e0ac96bffff", "target_dong": "구로5동", "terrain_zone": "Green", "distance_m": 1592.2, "flight_time_min": 1.59, "hub_elev": 17.674312591552734, "target_elev": 18.286869049072266, "elev_diff": 0.61255645751953125, "urgency": 0.22441557038521853, "robot_time_min": 26.74896, "total_delivery_min": 11.614688 }, "geometry": { "type": "LineString", "coordinates": [ [ 126.88878138, 37.516516125 ], [ 126.887366359699854, 37.502209388018791 ] ] } },
{ "type": "Feature", "properties": { "hub_name": "구파발역 공영주차장(시)", "target_h3": "8930e1da52fffff", "target_dong": "대조동", "terrain_zone": "Green", "distance_m": 2419.5, "flight_time_min": 2.42, "hub_elev": 35.065631866455078, "target_elev": 38.034015655517578, "elev_diff": 2.9683837890625, "urgency": 0.22321385212782502, "robot_time_min": 40.6476, "total_delivery_min": 16.61428 }, "geometry": { "type": "LineString", "coordinates": [ [ 126.918987, 37.638209 ], [ 126.920170298116773, 37.616421603643971 ] ] } },
{ "type": "Feature", "properties": { "hub_name": "구파발역 공영주차장(시)", "target_h3": "8930e1da1abffff", "target_dong": "대조동", "terrain_zone": "Green", "distance_m": 3332.7, "flight_time_min": 3.33, "hub_elev": 35.065631866455078, "target_elev": 40.1629638671875, "elev_diff": 5.0973320007324219, "urgency": 0.22321385212782502, "robot_time_min": 55.98936, "total_delivery_min": 22.126808 }, "geometry": { "type": "LineString", "coordinates": [ [ 126.918987, 37.638209 ], [ 126.930082451313652, 37.609495997181192 ] ] } },
{ "type": "Feature", "properties": { "hub_name": "구파발역 공영주차장(시)", "target_h3": "8930e1da19bffff", "target_dong": "대조동", "terrain_zone": "Green", "distance_m": 3044.3, "flight_time_min": 3.04, "hub_elev": 35.065631866455078, "target_elev": 36.29364013671875, "elev_diff": 1.2280082702636719, "urgency": 0.22321385212782502, "robot_time_min": 51.14424, "total_delivery_min": 20.383272 }, "geometry": { "type": "LineString", "coordinates": [ [ 126.918987, 37.638209 ], [ 126.919710861352257, 37.610776247504425 ] ] } },
{ "type": "Feature", "properties": { "hub_name": "구파발역 공영주차장(시)", "target_h3": "8930e1da18bffff", "target_dong": "대조동", "terrain_zone": "Green", "distance_m": 3248.0, "flight_time_min": 3.25, "hub_elev": 35.065631866455078, "target_elev": 36.858020782470703, "elev_diff": 1.792388916015625, "urgency": 0.22321385212782502, "robot_time_min": 54.5664, "total_delivery_min": 21.61992 }, "geometry": { "type": "LineString", "coordinates": [ [ 126.918987, 37.638209 ], [ 126.922188703714411, 37.609044948075564 ] ] } },
{ "type": "Feature", "properties": { "hub_name": "구파발역 공영주차장(시)", "target_h3": "8930e1da18fffff", "target_dong": "대조동", "terrain_zone": "Green", "distance_m": 3158.0, "flight_time_min": 3.16, "hub_elev": 35.065631866455078, "target_elev": 36.792697906494141, "elev_diff": 1.7270660400390625, "urgency": 0.22321385212782502, "robot_time_min": 53.0544, "total_delivery_min": 21.07632 }, "geometry": { "type": "LineString", "coordinates": [ [ 126.918987, 37.638209 ], [ 126.92489645835596, 37.610136265748473 ] ] } },
{ "type": "Feature", "properties": { "hub_name": "방화로 공영주차장(시)", "target_h3": "8930e0aeaa7ffff", "target_dong": "화곡1동", "terrain_zone": "Green", "distance_m": 2802.1, "flight_time_min": 2.8, "hub_elev": 13.460981369018555, "target_elev": 24.01679801940918, "elev_diff": 10.555816650390625, "urgency": 0.24237372982047029, "robot_time_min": 47.07528, "total_delivery_min": 18.922584 }, "geometry": { "type": "LineString", "coordinates": [ [ 126.81618064, 37.55594457 ], [ 126.835201104137198, 37.535732721637153 ] ] } },
{ "type": "Feature", "properties": { "hub_name": "방화로 공영주차장(시)", "target_h3": "8930e0aebcbffff", "target_dong": "화곡1동", "terrain_zone": "Green", "distance_m": 3373.4, "flight_time_min": 3.37, "hub_elev": 13.460981369018555, "target_elev": 24.268970489501953, "elev_diff": 10.807989120483398, "urgency": 0.24237372982047029, "robot_time_min": 56.67312, "total_delivery_min": 22.371936 }, "geometry": { "type": "LineString", "coordinates": [ [ 126.81618064, 37.55594457 ], [ 126.840147836832429, 37.532273687691337 ] ] } },
{ "type": "Feature", "properties": { "hub_name": "방화로 공영주차장(시)", "target_h3": "8930e0aebd7ffff", "target_dong": "화곡1동", "terrain_zone": "Green", "distance_m": 2942.0, "flight_time_min": 2.94, "hub_elev": 13.460981369018555, "target_elev": 26.418354034423828, "elev_diff": 12.957372665405273, "urgency": 0.24237372982047029, "robot_time_min": 49.4256, "total_delivery_min": 19.76768 }, "geometry": { "type": "LineString", "coordinates": [ [ 126.81618064, 37.55594457 ], [ 126.840599266997842, 37.537913354906593 ] ] } },
{ "type": "Feature", "properties": { "hub_name": "방화로 공영주차장(시)", "target_h3": "8930e0aeb57ffff", "target_dong": "화곡1동", "terrain_zone": "Green", "distance_m": 3728.5, "flight_time_min": 3.73, "hub_elev": 13.460981369018555, "target_elev": 26.91139030456543, "elev_diff": 13.450408935546875, "urgency": 0.24237372982047029, "robot_time_min": 62.6388, "total_delivery_min": 24.52164 }, "geometry": { "type": "LineString", "coordinates": [ [ 126.81618064, 37.55594457 ], [ 126.845320429878043, 37.531634064794495 ] ] } },
{ "type": "Feature", "properties": { "hub_name": "방화로 공영주차장(시)", "target_h3": "8930e0ae86fffff", "target_dong": "화곡1동", "terrain_zone": "Green", "distance_m": 2651.3, "flight_time_min": 2.65, "hub_elev": 13.460981369018555, "target_elev": 23.965373992919922, "elev_diff": 10.504392623901367, "urgency": 0.24237372982047029, "robot_time_min": 44.54184, "total_delivery_min": 18.012552 }, "geometry": { "type": "LineString", "coordinates": [ [ 126.81618064, 37.55594457 ], [ 126.838125688733712, 37.539642853213763 ] ] } },
{ "type": "Feature", "properties": { "hub_name": "경호빌딩앞 노상주차장(구)", "target_h3": "8930e1d956bffff", "target_dong": "여의동", "terrain_zone": "Yellow", "distance_m": 682.2, "flight_time_min": 0.68, "hub_elev": 24.315984725952148, "target_elev": 12.372475624084473, "elev_diff": -11.943509101867676, "urgency": 0.87606648288834932, "robot_time_min": 28.6524, "total_delivery_min": 0.68 }, "geometry": { "type": "LineString", "coordinates": [ [ 126.925472995, 37.523595731 ], [ 126.925201702412679, 37.517450808034823 ] ] } },
{ "type": "Feature", "properties": { "hub_name": "경호빌딩앞 노상주차장(구)", "target_h3": "8930e1d9503ffff", "target_dong": "여의동", "terrain_zone": "Green", "distance_m": 534.0, "flight_time_min": 0.53, "hub_elev": 24.315984725952148, "target_elev": 20.386724472045898, "elev_diff": -3.92926025390625, "urgency": 0.87606648288834932, "robot_time_min": 8.9712, "total_delivery_min": 5.22136 }, "geometry": { "type": "LineString", "coordinates": [ [ 126.925472995, 37.523595731 ], [ 126.920711608789361, 37.526559890223901 ] ] } },
{ "type": "Feature", "properties": { "hub_name": "경호빌딩앞 노상주차장(구)", "target_h3": "8930e1d9577ffff", "target_dong": "여의동", "terrain_zone": "Green", "distance_m": 58.1, "flight_time_min": 0.06, "hub_elev": 24.315984725952148, "target_elev": 23.938125610351562, "elev_diff": -0.37785911560058594, "urgency": 0.87606648288834932, "robot_time_min": 0.97608, "total_delivery_min": 2.352824 }, "geometry": { "type": "LineString", "coordinates": [ [ 126.925472995, 37.523595731 ], [ 126.925661006058561, 37.52309423836774 ] ] } },
{ "type": "Feature", "properties": { "hub_name": "경호빌딩앞 노상주차장(구)", "target_h3": "8930e1d9523ffff", "target_dong": "여의동", "terrain_zone": "Green", "distance_m": 468.2, "flight_time_min": 0.47, "hub_elev": 24.315984725952148, "target_elev": 24.475498199462891, "elev_diff": 0.15951347351074219, "urgency": 0.87606648288834932, "robot_time_min": 7.86576, "total_delivery_min": 4.829728 }, "geometry": { "type": "LineString", "coordinates": [ [ 126.925472995, 37.523595731 ], [ 126.928595286064791, 37.527004895934333 ] ] } },
{ "type": "Feature", "properties": { "hub_name": "경호빌딩앞 노상주차장(구)", "target_h3": "8930e1d9567ffff", "target_dong": "여의동", "terrain_zone": "Green", "distance_m": 341.8, "flight_time_min": 0.34, "hub_elev": 24.315984725952148, "target_elev": 23.779256820678711, "elev_diff": -0.5367279052734375, "urgency": 0.87606648288834932, "robot_time_min": 5.74224, "total_delivery_min": 4.062672 }, "geometry": { "type": "LineString", "coordinates": [ [ 126.925472995, 37.523595731 ], [ 126.928135679966005, 37.521361231551566 ] ] } },
{ "type": "Feature", "properties": { "hub_name": "세종로 공영주차장(시)", "target_h3": "8930e1d8cbbffff", "target_dong": "종로1·2·3·4가동", "terrain_zone": "Green", "distance_m": 367.9, "flight_time_min": 0.37, "hub_elev": 46.853424072265625, "target_elev": 43.868122100830078, "elev_diff": -2.9853019714355469, "urgency": 0.75906380065723222, "robot_time_min": 6.18072, "total_delivery_min": 4.224216 }, "geometry": { "type": "LineString", "coordinates": [ [ 126.97588429, 37.57340269 ], [ 126.9796392339492, 37.574838956173387 ] ] } },
{ "type": "Feature", "properties": { "hub_name": "세종로 공영주차장(시)", "target_h3": "8930e1d8cabffff", "target_dong": "종로1·2·3·4가동", "terrain_zone": "Green", "distance_m": 551.4, "flight_time_min": 0.55, "hub_elev": 46.853424072265625, "target_elev": 34.502471923828125, "elev_diff": -12.3509521484375, "urgency": 0.75906380065723222, "robot_time_min": 9.26352, "total_delivery_min": 5.329056 }, "geometry": { "type": "LineString", "coordinates": [ [ 126.97588429, 37.57340269 ], [ 126.982116898013132, 37.573104835217478 ] ] } },
{ "type": "Feature", "properties": { "hub_name": "세종로 공영주차장(시)", "target_h3": "8930e1d8c17ffff", "target_dong": "종로1·2·3·4가동", "terrain_zone": "Green", "distance_m": 347.1, "flight_time_min": 0.35, "hub_elev": 46.853424072265625, "target_elev": 44.365440368652344, "elev_diff": -2.4879837036132812, "urgency": 0.75906380065723222, "robot_time_min": 5.83128, "total_delivery_min": 4.099384 }, "geometry": { "type": "LineString", "coordinates": [ [ 126.97588429, 37.57340269 ], [ 126.979406857055039, 37.57201531167388 ] ] } },
{ "type": "Feature", "properties": { "hub_name": "세종로 공영주차장(시)", "target_h3": "8930e1dab2bffff", "target_dong": "종로1·2·3·4가동", "terrain_zone": "Green", "distance_m": 1836.3, "flight_time_min": 1.84, "hub_elev": 46.853424072265625, "target_elev": 71.359146118164062, "elev_diff": 24.505722045898438, "urgency": 0.75906380065723222, "robot_time_min": 30.84984, "total_delivery_min": 13.094952 }, "geometry": { "type": "LineString", "coordinates": [ [ 126.97588429, 37.57340269 ], [ 126.988468861241756, 37.586579617523981 ] ] } },
{ "type": "Feature", "properties": { "hub_name": "세종로 공영주차장(시)", "target_h3": "8930e1d8507ffff", "target_dong": "신촌동", "terrain_zone": "Yellow", "distance_m": 2680.3, "flight_time_min": 2.68, "hub_elev": 46.853424072265625, "target_elev": 104.51050567626953, "elev_diff": 57.657081604003906, "urgency": 0.42577159911076579, "robot_time_min": 112.5726, "total_delivery_min": 2.68 }, "geometry": { "type": "LineString", "coordinates": [ [ 126.97588429, 37.57340269 ], [ 126.945581120785761, 37.574787555013202 ] ] } }
]
}
