{
"type": "FeatureCollection",
"name": "final_hubs",
"crs": { "type": "name", "properties": { "name": "urn:ogc:def:crs:OGC:1.3:CRS84" } },
"features": [
{ "type": "Feature", "properties": { "name": "청계2(북1) 공영주차장(시)", "facility": "주차장", "address": "종로구 관수동 91-4", "lat": 37.568689, "lon": 126.994708, "capacity": 1.0, "idle_score": 0.0, "terrain_zone": "Green", "avg_slope": 0.89448267221450806, "delivery_mode": "드론+로봇 Full 배송", "new_covered": 13, "total_covered": 13, "coverage_pct": 0.0063168124392614187 }, "geometry": { "type": "Point", "coordinates": [ 126.994708, 37.568689 ] } },
{ "type": "Feature", "properties": { "name": "양남사거리 앞 노상주차장(구)", "facility": "주차장", "address": "영등포구 당산동2가 30-0", "lat": 37.532924059000003, "lon": 126.905414342, "capacity": 1.0, "idle_score": 0.0, "terrain_zone": "Green", "avg_slope": 1.1665390729904175, "delivery_mode": "드론+로봇 Full 배송", "new_covered": 13, "total_covered": 26, "coverage_pct": 0.012633624878522837 }, "geometry": { "type": "Point", "coordinates": [ 126.905414342, 37.532924059 ] } },
{ "type": "Feature", "properties": { "name": "서소문올리브타워옆 공영주차장(구)", "facility": "주차장", "address": "중구 서소문동 137-0", "lat": 37.564085862, "lon": 126.976179534, "capacity": 16.0, "idle_score": 0.01048951048951049, "terrain_zone": "Yellow", "avg_slope": 5.1946196556091309, "delivery_mode": "드론 스테이션 → 인간 수령", "new_covered": 13, "total_covered": 39, "coverage_pct": 0.018950437317784258 }, "geometry": { "type": "Point", "coordinates": [ 126.976179534, 37.564085862 ] } },
{ "type": "Feature", "properties": { "name": "여의도공원 공영주차장(시)", "facility": "주차장", "address": "영등포구 여의도동 2-11", "lat": 37.522883, "lon": 126.916668, "capacity": 1.0, "idle_score": 0.0, "terrain_zone": "Green", "avg_slope": 0.61415445804595947, "delivery_mode": "드론+로봇 Full 배송", "new_covered": 12, "total_covered": 51, "coverage_pct": 0.02478134110787172 }, "geometry": { "type": "Point", "coordinates": [ 126.916668, 37.522883 ] } },
{ "type": "Feature", "properties": { "name": "논현초교 공영주차장(구)", "facility": "주차장", "address": "강남구 논현동 168-0", "lat": 37.518832983000003, "lon": 127.027049092, "capacity": 186.0, "idle_score": 0.12937062937062938, "terrain_zone": "Yellow", "avg_slope": 5.6070961952209473, "delivery_mode": "드론 스테이션 → 인간 수령", "new_covered": 12, "total_covered": 63, "coverage_pct": 0.030612244897959183 }, "geometry": { "type": "Point", "coordinates": [ 127.027049092, 37.518832983 ] } },
{ "type": "Feature", "properties": { "name": "동호대교(남) 공영주차장(시)", "facility": "주차장", "address": "강남구 압구정동 435-0", "lat": 37.53089304, "lon": 127.02470782, "capacity": 1.0, "idle_score": 0.0, "terrain_zone": "Green", "avg_slope": 3.2235791683197021, "delivery_mode": "드론+로봇 Full 배송", "new_covered": 12, "total_covered": 75, "coverage_pct": 0.036443148688046649 }, "geometry": { "type": "Point", "coordinates": [ 127.02470782, 37.53089304 ] } },
{ "type": "Feature", "properties": { "name": "독산동 금천교 공영주차장(시)", "facility": "주차장", "address": "금천구 독산동 1081-4", "lat": 37.46654105, "lon": 126.89000673, "capacity": 1.0, "idle_score": 0.0, "terrain_zone": "Yellow", "avg_slope": 5.7768425941467285, "delivery_mode": "드론 스테이션 → 인간 수령", "new_covered": 12, "total_covered": 87, "coverage_pct": 0.042274052478134108 }, "geometry": { "type": "Point", "coordinates": [ 126.89000673, 37.46654105 ] } },
{ "type": "Feature", "properties": { "name": "천왕역 공영주차장(시)", "facility": "주차장", "address": "구로구 천왕동 280-11", "lat": 37.48728845, "lon": 126.83918316, "capacity": 327.0, "idle_score": 0.22797202797202798, "terrain_zone": "Green", "avg_slope": 1.65472412109375, "delivery_mode": "드론+로봇 Full 배송", "new_covered": 12, "total_covered": 99, "coverage_pct": 0.048104956268221574 }, "geometry": { "type": "Point", "coordinates": [ 126.83918316, 37.48728845 ] } },
{ "type": "Feature", "properties": { "name": "렉싱턴호텔뒤 노상주차장(구)", "facility": "주차장", "address": "영등포구 여의도동 13-0", "lat": 37.52295425, "lon": 126.9348579, "capacity": 1.0, "idle_score": 0.0, "terrain_zone": "Green", "avg_slope": 0.54036068916320801, "delivery_mode": "드론+로봇 Full 배송", "new_covered": 11, "total_covered": 110, "coverage_pct": 0.053449951409135082 }, "geometry": { "type": "Point", "coordinates": [ 126.9348579, 37.52295425 ] } },
{ "type": "Feature", "properties": { "name": "난지중앙로노상공영주차장(시)", "facility": "주차장", "address": "마포구 상암동 481-94 ", "lat": 37.5684717, "lon": 126.8799187, "capacity": 1.0, "idle_score": 0.0, "terrain_zone": "Yellow", "avg_slope": 5.2144622802734375, "delivery_mode": "드론 스테이션 → 인간 수령", "new_covered": 11, "total_covered": 121, "coverage_pct": 0.058794946550048591 }, "geometry": { "type": "Point", "coordinates": [ 126.8799187, 37.5684717 ] } },
{ "type": "Feature", "properties": { "name": "언북초교 공영주차장(구)", "facility": "주차장", "address": "강남구 청담동 27-0", "lat": 37.522895993, "lon": 127.05253698600001, "capacity": 220.0, "idle_score": 0.15314685314685317, "terrain_zone": "Green", "avg_slope": 3.3480656147003174, "delivery_mode": "드론+로봇 Full 배송", "new_covered": 11, "total_covered": 132, "coverage_pct": 0.064139941690962099 }, "geometry": { "type": "Point", "coordinates": [ 127.052536986, 37.522895993 ] } },
{ "type": "Feature", "properties": { "name": "여의서로 공영주차장(시)", "facility": "주차장", "address": "영등포구 여의도동 8-1", "lat": 37.533081, "lon": 126.91747889, "capacity": 1.0, "idle_score": 0.0, "terrain_zone": "Green", "avg_slope": 3.2065944671630859, "delivery_mode": "드론+로봇 Full 배송", "new_covered": 10, "total_covered": 142, "coverage_pct": 0.068999028182701649 }, "geometry": { "type": "Point", "coordinates": [ 126.91747889, 37.533081 ] } },
{ "type": "Feature", "properties": { "name": "동국제강 공영주차장(시)", "facility": "주차장", "address": "중구 삼각동 111-1", "lat": 37.56733736, "lon": 126.98343453, "capacity": 13.0, "idle_score": 0.0083916083916083916, "terrain_zone": "Green", "avg_slope": 3.544701099395752, "delivery_mode": "드론+로봇 Full 배송", "new_covered": 10, "total_covered": 152, "coverage_pct": 0.0738581146744412 }, "geometry": { "type": "Point", "coordinates": [ 126.98343453, 37.56733736 ] } },
{ "type": "Feature", "properties": { "name": "용산전자상가3 공영주차장(구)", "facility": "주차장", "address": "용산구 한강로3가 19-2", "lat": 37.526022108, "lon": 126.96307020899999, "capacity": 167.0, "idle_score": 0.11608391608391608, "terrain_zone": "Green", "avg_slope": 2.8024029731750488, "delivery_mode": "드론+로봇 Full 배송", "new_covered": 10, "total_covered": 162, "coverage_pct": 0.078717201166180764 }, "geometry": { "type": "Point", "coordinates": [ 126.963070209, 37.526022108 ] } },
{ "type": "Feature", "properties": { "name": "용산전자상가1 공영주차장(구)", "facility": "주차장", "address": "용산구 용산동3가 12-0", "lat": 37.534368831000002, "lon": 126.97519485, "capacity": 202.0, "idle_score": 0.14055944055944058, "terrain_zone": "Green", "avg_slope": 0.76515865325927734, "delivery_mode": "드론+로봇 Full 배송", "new_covered": 10, "total_covered": 172, "coverage_pct": 0.083576287657920315 }, "geometry": { "type": "Point", "coordinates": [ 126.97519485, 37.534368831 ] } },
{ "type": "Feature", "properties": { "name": "삼환아파트 앞 노상주차장(구)", "facility": "주차장", "address": "영등포구 문래동4가 41-0", "lat": 37.516516125000003, "lon": 126.88878138, "capacity": 1.0, "idle_score": 0.0, "terrain_zone": "Green", "avg_slope": 0.10083570331335068, "delivery_mode": "드론+로봇 Full 배송", "new_covered": 10, "total_covered": 182, "coverage_pct": 0.088435374149659865 }, "geometry": { "type": "Point", "coordinates": [ 126.88878138, 37.516516125 ] } },
{ "type": "Feature", "properties": { "name": "구파발역 공영주차장(시)", "facility": "주차장", "address": "은평구 진관동 70-1", "lat": 37.638209, "lon": 126.918987, "capacity": 399.0, "idle_score": 0.27832167832167831, "terrain_zone": "Yellow", "avg_slope": 6.9876241683959961, "delivery_mode": "드론 스테이션 → 인간 수령", "new_covered": 10, "total_covered": 192, "coverage_pct": 0.093294460641399415 }, "geometry": { "type": "Point", "coordinates": [ 126.918987, 37.638209 ] } },
{ "type": "Feature", "properties": { "name": "방화로 공영주차장(시)", "facility": "주차장", "address": "강서구 공항동 796-0", "lat": 37.55594457, "lon": 126.81618064, "capacity": 1.0, "idle_score": 0.0, "terrain_zone": "Green", "avg_slope": 0.17852680385112762, "delivery_mode": "드론+로봇 Full 배송", "new_covered": 10, "total_covered": 202, "coverage_pct": 0.098153547133138966 }, "geometry": { "type": "Point", "coordinates": [ 126.81618064, 37.55594457 ] } },
{ "type": "Feature", "properties": { "name": "경호빌딩앞 노상주차장(구)", "facility": "주차장", "address": "영등포구 여의도동 25-0", "lat": 37.523595731, "lon": 126.92547299500001, "capacity": 1.0, "idle_score": 0.0, "terrain_zone": "Green", "avg_slope": 1.5714790821075439, "delivery_mode": "드론+로봇 Full 배송", "new_covered": 9, "total_covered": 211, "coverage_pct": 0.10252672497570457 }, "geometry": { "type": "Point", "coordinates": [ 126.925472995, 37.523595731 ] } },
{ "type": "Feature", "properties": { "name": "세종로 공영주차장(시)", "facility": "주차장", "address": "종로구 세종로 80-1", "lat": 37.57340269, "lon": 126.97588429, "capacity": 1260.0, "idle_score": 0.88041958041958046, "terrain_zone": "Green", "avg_slope": 3.0105040073394775, "delivery_mode": "드론+로봇 Full 배송", "new_covered": 9, "total_covered": 220, "coverage_pct": 0.10689990281827016 }, "geometry": { "type": "Point", "coordinates": [ 126.97588429, 37.57340269 ] } }
]
}
