{
"type": "FeatureCollection",
"name": "service_areas",
"crs": { "type": "name", "properties": { "name": "urn:ogc:def:crs:OGC:1.3:CRS84" } },
"features": [
{ "type": "Feature", "properties": { "name": "청계2(북1) 공영주차장(시)", "facility": "주차장", "delivery_mode": "드론+로봇 Full 배송" }, "geometry": { "type": "Polygon", "coordinates": [ [ [ 127.000369716929285, 37.568713097150834 ], [ 127.000345404943516, 37.568271256826918 ], [ 127.000266802529765, 37.567833440839678 ], [ 127.000134667599028, 37.56740386549707 ], [ 126.999950273540904, 37.566986667675778 ], [ 126.999715396927101, 37.566585864987424 ], [ 126.999432300373172, 37.566205317095509 ], [ 126.999103710724128, 37.565848688555874 ], [ 126.998732792775485, 37.565519413537537 ], [ 126.998323118783006, 37.565220662763601 ], [ 126.997878634055709, 37.564955312989852 ], [ 126.997403618963247, 37.564725919314576 ], [ 126.996902647723573, 37.564534690585525 ], [ 126.996380544367682, 37.564383468140555 ], [ 126.995842336304335, 37.56427370808607 ], [ 126.995293205931446, 37.564206467283377 ], [ 126.994738440759207, 37.564182393177802 ], [ 126.994183382523417, 37.564201717568089 ], [ 126.993633375778572, 37.56426425437585 ], [ 126.993093716463662, 37.564369401436601 ], [ 126.992569600934914, 37.56451614629519 ], [ 126.992066075955151, 37.564703075949708 ], [ 126.991587990119626, 37.564928390450724 ], [ 126.991139947185587, 37.565189920224704 ], [ 126.990726261753451, 37.565485146955652 ], [ 126.990350917726531, 37.565811227824049 ], [ 126.990017529948048, 37.566165022870372 ], [ 126.98972930938551, 37.566543125220107 ], [ 126.98948903219717, 37.566941893879765 ], [ 126.989299012979401, 37.567357488788666 ], [ 126.989161082453066, 37.567785907789229 ], [ 126.989076569804411, 37.568223025160457 ], [ 126.989046289852155, 37.568664631343658 ], [ 126.98907053516497, 37.569106473478065 ], [ 126.989149073207372, 37.569544296356469 ], [ 126.989281148542133, 37.56997388340605 ], [ 126.989465490069875, 37.570391097300245 ], [ 126.989700323237557, 37.570791919809771 ], [ 126.989983387099329, 37.571172490509397 ], [ 126.990311956066435, 37.571529143966814 ], [ 126.990682866138229, 37.571858445055405 ], [ 126.991092545361596, 37.57215722205023 ], [ 126.991537048226505, 37.57242259718781 ], [ 126.992012093666318, 37.572652014395175 ], [ 126.992513106296812, 37.572843263920234 ], [ 126.993035260496384, 37.572994503625935 ], [ 126.993573526902409, 37.573104276742583 ], [ 126.994122720874813, 37.573171525906901 ], [ 126.994677552459407, 37.573195603352204 ], [ 126.995232677368108, 37.573176277151418 ], [ 126.995782748484288, 37.573113733452523 ], [ 126.996322467395203, 37.573008574684792 ], [ 126.996846635454347, 37.572861813753313 ], [ 126.997350203880217, 37.572674864277602 ], [ 126.997828322407898, 37.572449526968867 ], [ 126.998276386023861, 37.572187972277106 ], [ 126.99869007933286, 37.571892719475919 ], [ 126.999065418128907, 37.57156661238664 ], [ 126.999398787769735, 37.571212791976478 ], [ 126.999686977984936, 37.570834666094662 ], [ 126.99992721378247, 37.570435876638989 ], [ 127.000117182156544, 37.570020264469356 ], [ 127.000255054340215, 37.569591832406623 ], [ 127.000339503389341, 37.569154706673757 ], [ 127.000369716929285, 37.568713097150834 ] ] ] } },
{ "type": "Feature", "properties": { "name": "양남사거리 앞 노상주차장(구)", "facility": "주차장", "delivery_mode": "드론+로봇 Full 배송" }, "geometry": { "type": "Polygon", "coordinates": [ [ [ 126.911073269932544, 37.532952415583317 ], [ 126.911049494217153, 37.532510558623912 ], [ 126.910971449750249, 37.532072685140903 ], [ 126.910839889068768, 37.531643011997993 ], [ 126.910656080032041, 37.531225677015748 ], [ 126.91042179357845, 37.530824699128466 ], [ 126.910139286641439, 37.530443939688624 ], [ 126.909811280389874, 37.530087065290743 ], [ 126.909440934003456, 37.529757512472635 ], [ 126.909031814236712, 37.52945845463347 ], [ 126.908587861064646, 37.529192771486613 ], [ 126.908113349741441, 37.5289630213408 ], [ 126.907612849637317, 37.528771416476324 ], [ 126.907091180249608, 37.528619801852656 ], [ 126.906553364811259, 37.52850963735186 ], [ 126.906004581942085, 37.528441983728825 ], [ 126.905450115808307, 37.528417492402866 ], [ 126.904895305267914, 37.528436399188877 ], [ 126.904345492491359, 37.528498522028237 ], [ 126.90380597155027, 37.528603262741221 ], [ 126.903281937468336, 37.528749612784004 ], [ 126.90277843622313, 37.528936162955205 ], [ 126.902300316179961, 37.529161116958335 ], [ 126.901852181423251, 37.5294223086903 ], [ 126.901438347435175, 37.529717223089555 ], [ 126.901062799546452, 37.530043020343804 ], [ 126.900729154560182, 37.530396563224564 ], [ 126.900440625917113, 37.530774447285879 ], [ 126.900199992738735, 37.531173033636939 ], [ 126.900009573046134, 37.531588483973643 ], [ 126.899871201413447, 37.532016797531895 ], [ 126.899786211271888, 37.532453849607656 ], [ 126.899755422036009, 37.532895431272742 ], [ 126.899779131177155, 37.533337289904424 ], [ 126.899857111322021, 37.533775170138583 ], [ 126.899988612405465, 37.534204854852078 ], [ 126.900172368858534, 37.534622205779733 ], [ 126.900406611763586, 37.535023203374401 ], [ 126.900689085860719, 37.53540398552633 ], [ 126.901017071243118, 37.535760884768152 ], [ 126.901387409533044, 37.53609046360733 ], [ 126.901796534287101, 37.536389547644696 ], [ 126.902240505338639, 37.536655256160131 ], [ 126.902715046746408, 37.536885029869993 ], [ 126.903215587984008, 37.537076655588393 ], [ 126.903737307973401, 37.537228287554534 ], [ 126.904275181537031, 37.537338465219833 ], [ 126.904824027821334, 37.537406127323514 ], [ 126.905378560223141, 37.537430622120361 ], [ 126.905933437337794, 37.537411713662067 ], [ 126.906483314436429, 37.537349584071556 ], [ 126.907022894975512, 37.537244831787987 ], [ 126.907546981641147, 37.537098465799801 ], [ 126.908050526434863, 37.536911895921207 ], [ 126.908528679317939, 37.536686919205984 ], [ 126.908976834943786, 37.536425702630076 ], [ 126.909390677028384, 37.53613076220978 ], [ 126.909766219929764, 37.535804938757309 ], [ 126.910099847036577, 37.535451370507985 ], [ 126.910388345595109, 37.535073462882629 ], [ 126.91062893763997, 37.534674855677608 ], [ 126.910819306730886, 37.534259387998453 ], [ 126.910957620238307, 37.533831061275698 ], [ 126.911042546964708, 37.533394000719284 ], [ 126.911073269932544, 37.532952415583317 ] ] ] } },
{ "type": "Feature", "properties": { "name": "서소문올리브타워옆 공영주차장(구)", "facility": "주차장", "delivery_mode": "드론 스테이션 → 인간 수령" }, "geometry": { "type": "Polygon", "coordinates": [ [ [ 126.981840886187143, 37.564110845138451 ], [ 126.981816684869059, 37.563669001475191 ], [ 126.981738195566109, 37.563231173648362 ], [ 126.981606175100055, 37.562801578080403 ], [ 126.981421895758118, 37.562384351843143 ], [ 126.981187133007637, 37.561983512822209 ], [ 126.980904148367912, 37.561602921031337 ], [ 126.980575667606672, 37.561246241449382 ], [ 126.980204854471395, 37.56091690873712 ], [ 126.979795280209132, 37.560618094173343 ], [ 126.979350889169112, 37.560352675128264 ], [ 126.978875960819479, 37.560123207367198 ], [ 126.978375068543571, 37.559931900451247 ], [ 126.977853035612569, 37.5597805964711 ], [ 126.97731488875759, 37.559670752318048 ], [ 126.976765809787693, 37.559603425663013 ], [ 126.97621108571839, 37.559579264777781 ], [ 126.975656057889978, 37.55959850229641 ], [ 126.975106070564223, 37.559660952976749 ], [ 126.974566419493129, 37.559766015483333 ], [ 126.974042300953442, 37.559912678174932 ], [ 126.973538761736677, 37.560099528840624 ], [ 126.973060650574851, 37.560324768291323 ], [ 126.972612571468545, 37.560586227676048 ], [ 126.972198839365987, 37.560881389356503 ], [ 126.971823438619253, 37.56120741113952 ], [ 126.971489984617108, 37.561561153634592 ], [ 126.971201688964058, 37.561939210473348 ], [ 126.97096132854081, 37.562337941100715 ], [ 126.970771218744716, 37.562753505822492 ], [ 126.970633191168261, 37.563181902772079 ], [ 126.970548575931801, 37.563619006441208 ], [ 126.970518188841623, 37.564060607403462 ], [ 126.970542323497924, 37.564502452848778 ], [ 126.970620748430747, 37.564940287538434 ], [ 126.970752709292071, 37.565369894786329 ], [ 126.970936936085181, 37.565787137071723 ], [ 126.971171655362241, 37.566187995892292 ], [ 126.971454607274566, 37.566568610473396 ], [ 126.971783067312103, 37.566925314960386 ], [ 126.972153872523833, 37.567254673735398 ], [ 126.972563451967176, 37.567553514518025 ], [ 126.973007861093748, 37.56781895893053 ], [ 126.973482819740411, 37.56804845023273 ], [ 126.973983753359533, 37.568239777958809 ], [ 126.974505837091101, 37.568391099218424 ], [ 126.975044042251753, 37.568500956456191 ], [ 126.975593184791805, 37.568568291498352 ], [ 126.976147975252786, 37.568592455750839 ], [ 126.97670306974301, 37.568573216450169 ], [ 126.977253121438864, 37.568510758906996 ], [ 126.977792832114687, 37.568405684720481 ], [ 126.978317003203202, 37.56825900598075 ], [ 126.978820585893388, 37.568072135515443 ], [ 126.979298729782641, 37.567846873274497 ], [ 126.979746829612623, 37.567585388984725 ], [ 126.980160569638727, 37.567290201241541 ], [ 126.980535965204425, 37.566964153239645 ], [ 126.980869401119975, 37.566610385377153 ], [ 126.98115766647598, 37.566232304997271 ], [ 126.981397985556029, 37.565833553559756 ], [ 126.981588044551572, 37.565417971558539 ], [ 126.981726013822353, 37.564989561524222 ], [ 126.98181056548863, 37.564552449467946 ], [ 126.981840886187143, 37.564110845138451 ] ] ] } },
{ "type": "Feature", "properties": { "name": "여의도공원 공영주차장(시)", "facility": "주차장", "delivery_mode": "드론+로봇 Full 배송" }, "geometry": { "type": "Polygon", "coordinates": [ [ [ 126.92232618083176, 37.522910811052668 ], [ 126.922302341114047, 37.522468955081372 ], [ 126.922224240457879, 37.522031087830037 ], [ 126.922092631940785, 37.521601426102144 ], [ 126.921908783882103, 37.521184107608157 ], [ 126.921674467595452, 37.520783151123524 ], [ 126.921391940300936, 37.520402417794521 ], [ 126.921063923362809, 37.520045573964182 ], [ 126.920693576063201, 37.519716055876039 ], [ 126.920284465164926, 37.519417036594881 ], [ 126.919840530557209, 37.519151395462885 ], [ 126.919366047315137, 37.518921690384374 ], [ 126.918865584538381, 37.518730133205878 ], [ 126.918343961364712, 37.518578568427827 ], [ 126.917806200582106, 37.51846845545257 ], [ 126.917257480284277, 37.518400854539024 ], [ 126.916703084035092, 37.518376416599182 ], [ 126.916148350019967, 37.518395376934052 ], [ 126.915598619672906, 37.518457552969544 ], [ 126.915059186272259, 37.518562346013816 ], [ 126.914535243999211, 37.518708747019254 ], [ 126.914031837947903, 37.518895346293746 ], [ 126.91355381556744, 37.519120347067954 ], [ 126.91310578000234, 37.519381582788398 ], [ 126.91269204578002, 37.519676537969822 ], [ 126.91231659727093, 37.52000237240707 ], [ 126.91198305032141, 37.520355948513405 ], [ 126.91169461742841, 37.520733861522672 ], [ 126.911454076791429, 37.521132472265094 ], [ 126.911263745540367, 37.521547942201359 ], [ 126.911125457397489, 37.521976270378367 ], [ 126.911040544989817, 37.522413331950993 ], [ 126.911009826982934, 37.52285491789933 ], [ 126.911033600161772, 37.523296775559125 ], [ 126.911111636535821, 37.523734649575395 ], [ 126.91124318549781, 37.524164322884701 ], [ 126.911426981017144, 37.524581657331503 ], [ 126.911661253799224, 37.524982633527294 ], [ 126.91194374829584, 37.525363389568319 ], [ 126.912271744403114, 37.525720258238721 ], [ 126.91264208363944, 37.526049802340403 ], [ 126.913051199551845, 37.526348847808848 ], [ 126.913495152058474, 37.526614514295545 ], [ 126.913969665396323, 37.526844242921804 ], [ 126.914470169309226, 37.527035820936177 ], [ 126.914991843078496, 37.527187403037495 ], [ 126.915529661971874, 37.527297529157714 ], [ 126.916078445662436, 37.52736513853273 ], [ 126.916632908150206, 37.527389579925419 ], [ 126.917187708704191, 37.527370617902058 ], [ 126.917737503333413, 37.527308435101617 ], [ 126.918276996289151, 37.527203630475931 ], [ 126.918800991101534, 37.527057213517686 ], [ 126.919304440657399, 37.526870594532035 ], [ 126.919782495835776, 37.526645571045783 ], [ 126.920230552231729, 37.526384310485291 ], [ 126.920644294517345, 37.526089329290329 ], [ 126.921019738012291, 37.525763468665801 ], [ 126.921353267062926, 37.52540986720475 ], [ 126.921641669860122, 37.525031930647735 ], [ 126.921882169360984, 37.52463329906945 ], [ 126.922072450016415, 37.524217811809912 ], [ 126.922210680048522, 37.523789470487955 ], [ 126.922295529063447, 37.523352400453838 ], [ 126.92232618083176, 37.522910811052668 ] ] ] } },
{ "type": "Feature", "properties": { "name": "논현초교 공영주차장(구)", "facility": "주차장", "delivery_mode": "드론 스테이션 → 인간 수령" }, "geometry": { "type": "Polygon", "coordinates": [ [ [ 127.032707067014826, 37.518855503932045 ], [ 127.032682577125215, 37.518413665348504 ], [ 127.03260383456157, 37.517975866261807 ], [ 127.032471598582006, 37.517546322816671 ], [ 127.032287143546569, 37.517129171582276 ], [ 127.03205224661167, 37.516728429721447 ], [ 127.03176917058606, 37.516347956311975 ], [ 127.031440642114816, 37.515991415192644 ], [ 127.031069825402398, 37.515662239691004 ], [ 127.03066029172814, 37.515363599572325 ], [ 127.030215985048699, 37.515098370527525 ], [ 127.029741184018476, 37.514869106492988 ], [ 127.029240460793943, 37.514678015068938 ], [ 127.028718637018031, 37.514526936271885 ], [ 127.028180737408036, 37.514417324825757 ], [ 127.027631941392798, 37.51435023616164 ], [ 127.027077533264276, 37.514326316260608 ], [ 127.026522851322071, 37.514345795437066 ], [ 127.025973236499141, 37.514408486122591 ], [ 127.025433980962674, 37.514513784671294 ], [ 127.024910277182983, 37.514660677169381 ], [ 127.024407167960121, 37.514847749193272 ], [ 127.023929497887877, 37.515073199422339 ], [ 127.023481866721625, 37.515334856975663 ], [ 127.023068585098201, 37.51563020230622 ], [ 127.022693633033427, 37.515956391451709 ], [ 127.022360621596803, 37.516310283409133 ], [ 127.022072758131912, 37.516688470369786 ], [ 127.021832815357996, 37.51708731052441 ], [ 127.021643104650366, 37.517502963122801 ], [ 127.021505453757683, 37.517931425450826 ], [ 127.021421189171747, 37.518368571369322 ], [ 127.021391123320299, 37.518810191043713 ], [ 127.021415546708042, 37.519252031482566 ], [ 127.021494225081995, 37.519689837494326 ], [ 127.021626401650806, 37.520119392668178 ], [ 127.021810804337534, 37.52053655998418 ], [ 127.022045657997566, 37.520937321661521 ], [ 127.022328701485137, 37.521317817860869 ], [ 127.022657209405565, 37.521674383867634 ], [ 127.023028018344192, 37.522003585397869 ], [ 127.023437557320392, 37.522302251686021 ], [ 127.023881882173782, 37.5225675060355 ], [ 127.024356713551555, 37.522796793537488 ], [ 127.024857478130954, 37.522987905689902 ], [ 127.025379352679835, 37.523139001679681 ], [ 127.025917310529763, 37.523248626122154 ], [ 127.026466170013677, 37.523315723086803 ], [ 127.027020644400622, 37.523339646273598 ], [ 127.027575392844724, 37.523320165241827 ], [ 127.02812507185736, 37.523257467631232 ], [ 127.028664386804579, 37.523152157353827 ], [ 127.029188142932938, 37.523005248774119 ], [ 127.029691295430695, 37.52281815693371 ], [ 127.030168998040978, 37.522592683914773 ], [ 127.030616649758045, 37.522331001474015 ], [ 127.03102993915526, 37.522035630114864 ], [ 127.031404885918079, 37.521709414799901 ], [ 127.031737879180767, 37.521355497537805 ], [ 127.032025712298093, 37.520977287109709 ], [ 127.032265613717115, 37.520578426226706 ], [ 127.032455273651792, 37.52016275643561 ], [ 127.032592866304554, 37.519734281111226 ], [ 127.032677067421815, 37.519297126892191 ], [ 127.032707067014826, 37.518855503932045 ] ] ] } },
{ "type": "Feature", "properties": { "name": "동호대교(남) 공영주차장(시)", "facility": "주차장", "delivery_mode": "드론+로봇 Full 배송" }, "geometry": { "type": "Polygon", "coordinates": [ [ [ 127.030366703982835, 37.530915679222616 ], [ 127.030342224716946, 37.530473841121953 ], [ 127.030263483920947, 37.530036041374892 ], [ 127.030131240836482, 37.529606496132466 ], [ 127.029946769892604, 37.52918934198118 ], [ 127.029711848399415, 37.528788596111873 ], [ 127.029428739402562, 37.528408117640836 ], [ 127.029100169865089, 37.528051570455467 ], [ 127.02872930438717, 37.527722387941616 ], [ 127.028319714717938, 37.52742373993194 ], [ 127.027875345353365, 37.527158502193139 ], [ 127.027400475551403, 37.526929228745196 ], [ 127.026899678130704, 37.526738127278769 ], [ 127.026377775448509, 37.526587037906964 ], [ 127.025839792981543, 37.526477415455403 ], [ 127.025290910956187, 37.526410315461028 ], [ 127.024736414492267, 37.526386384013911 ], [ 127.024181642739421, 37.526405851539621 ], [ 127.023631937495068, 37.52646853058188 ], [ 127.023092591796541, 37.526573817606923 ], [ 127.022568798982022, 37.526720698811964 ], [ 127.022065602708409, 37.526907759882285 ], [ 127.021587848407449, 37.527133199602773 ], [ 127.0211401366453, 37.527394847193882 ], [ 127.020726778834742, 37.527690183204662 ], [ 127.020351755725187, 37.528016363762724 ], [ 127.02001867907029, 37.528370247947919 ], [ 127.019730756841753, 37.528748428026596 ], [ 127.019490762324992, 37.529147262255933 ], [ 127.019301007393864, 37.529562909942946 ], [ 127.019163320223313, 37.529991368420973 ], [ 127.019079027654954, 37.530428511587992 ], [ 127.019048942386632, 37.530870129636071 ], [ 127.019073355110493, 37.531311969589503 ], [ 127.019152031676867, 37.531749776261456 ], [ 127.019284215312382, 37.532179333234723 ], [ 127.019468633872634, 37.532596503472028 ], [ 127.019703512060588, 37.532997269164341 ], [ 127.019986588494731, 37.533377770433596 ], [ 127.020315137463427, 37.533734342516254 ], [ 127.020685995156981, 37.534063551069707 ], [ 127.021095590125341, 37.534362225260601 ], [ 127.021539977668965, 37.534627488316083 ], [ 127.022014877831225, 37.534856785243271 ], [ 127.022515716626756, 37.535047907449204 ], [ 127.023037670108351, 37.53519901402381 ], [ 127.023575710847055, 37.535308649480342 ], [ 127.024124656377083, 37.535375757782091 ], [ 127.024679219138278, 37.535399692519718 ], [ 127.025234057433124, 37.535380223141253 ], [ 127.02578382690713, 37.535317537174123 ], [ 127.026323232054537, 37.535212238418218 ], [ 127.026847077252739, 37.535065341127137 ], [ 127.027350316831587, 37.534878260233825 ], [ 127.027828103695242, 37.534652797715111 ], [ 127.02827583602614, 37.534391125226719 ], [ 127.028689201621077, 37.534095763176346 ], [ 127.029064219431476, 37.533769556437058 ], [ 127.029397277907364, 37.533415646935197 ], [ 127.029685169775576, 37.533037443377275 ], [ 127.029925122917518, 37.532638588408417 ], [ 127.030114827049289, 37.532222923518603 ], [ 127.030252455948101, 37.531794452035619 ], [ 127.030336685011733, 37.531357300561226 ], [ 127.030366703982835, 37.530915679222616 ] ] ] } },
{ "type": "Feature", "properties": { "name": "독산동 금천교 공영주차장(시)", "facility": "주차장", "delivery_mode": "드론 스테이션 → 인간 수령" }, "geometry": { "type": "Polygon", "coordinates": [ [ [ 126.895660634577453, 37.466570101428779 ], [ 126.895636965421744, 37.466128237386648 ], [ 126.895559074860202, 37.465690350194727 ], [ 126.895427713944684, 37.465260656849289 ], [ 126.8952441486081, 37.464843295366144 ], [ 126.895010147439834, 37.464442284935714 ], [ 126.894727964624209, 37.464061487224754 ], [ 126.894400318207616, 37.463704569197297 ], [ 126.894030363903923, 37.463374967812335 ], [ 126.893621664691921, 37.463075856937714 ], [ 126.893178156497271, 37.462810116798394 ], [ 126.892704110290182, 37.462580306252782 ], [ 126.892204090963489, 37.462388638163532 ], [ 126.891682913386845, 37.462236958099467 ], [ 126.891145596059474, 37.46212672657321 ], [ 126.89059731280723, 37.462059004985285 ], [ 126.89004334298788, 37.462034445409515 ], [ 126.889489020682774, 37.462053284317832 ], [ 126.888939683363574, 37.462115340304919 ], [ 126.888400620525815, 37.462220015834269 ], [ 126.88787702278394, 37.462366302989111 ], [ 126.887373931915462, 37.462552793172868 ], [ 126.886896192335101, 37.462777690665867 ], [ 126.886448404464318, 37.463038829908257 ], [ 126.886034880444868, 37.463333696343042 ], [ 126.885659602622226, 37.463659450618891 ], [ 126.885326185197684, 37.464012955920374 ], [ 126.885037839419084, 37.464390808162648 ], [ 126.884797342644873, 37.464789368760698 ], [ 126.884607011580087, 37.465204799657918 ], [ 126.884468679942515, 37.465633100277117 ], [ 126.88438368077523, 37.466070146038717 ], [ 126.884352833576486, 37.466511728075382 ], [ 126.884376436372662, 37.466953593761041 ], [ 126.884454262811502, 37.467391487664052 ], [ 126.884585564305297, 37.467821192530231 ], [ 126.88476907720468, 37.468238569901004 ], [ 126.88500303493548, 37.468639599975447 ], [ 126.885285184982564, 37.469020420331852 ], [ 126.885612810558882, 37.469377363135941 ], [ 126.885982756751403, 37.469706990476595 ], [ 126.886391460893066, 37.470006127488482 ], [ 126.886834986868735, 37.470271892942215 ], [ 126.887309063024944, 37.47050172700655 ], [ 126.887809123317851, 37.470693415915036 ], [ 126.888330351303566, 37.470845113298793 ], [ 126.888867726545655, 37.470955357979591 ], [ 126.889416072992589, 37.471023088051368 ], [ 126.889970108858151, 37.471047651114311 ], [ 126.890524497522748, 37.471028810562451 ], [ 126.891073898964706, 37.470966747864274 ], [ 126.89161302122416, 37.470862060814206 ], [ 126.892136671403236, 37.470715757771707 ], [ 126.89263980570918, 37.470529247943958 ], [ 126.893117578058053, 37.470304327805515 ], [ 126.893565386769154, 37.470043163786492 ], [ 126.893978918899748, 37.469748271396021 ], [ 126.894354191792743, 37.469422490982893 ], [ 126.894687591436252, 37.469068960366997 ], [ 126.89497590726576, 37.468691084606007 ], [ 126.895216363073715, 37.468292503188707 ], [ 126.89540664372943, 37.467877054971801 ], [ 126.895544917452298, 37.467448741198069 ], [ 126.895629853424893, 37.46701168695261 ], [ 126.895660634577453, 37.466570101428779 ] ] ] } },
{ "type": "Feature", "properties": { "name": "천왕역 공영주차장(시)", "facility": "주차장", "delivery_mode": "드론+로봇 Full 배송" }, "geometry": { "type": "Polygon", "coordinates": [ [ [ 126.844838572385214, 37.487319947837854 ], [ 126.844815197868627, 37.486878077889479 ], [ 126.84473758457888, 37.48644016128987 ], [ 126.844606480899074, 37.486010415319519 ], [ 126.844423150286502, 37.48559297850192 ], [ 126.844189359072004, 37.485191870753688 ], [ 126.843907359420058, 37.48481095467929 ], [ 126.843579867615162, 37.484453898382966 ], [ 126.84321003788439, 37.484124140155394 ], [ 126.842801432008841, 37.483824855374735 ], [ 126.842357985017074, 37.483558925940386 ], [ 126.841883967291523, 37.483328912533224 ], [ 126.841383943451973, 37.483137029968766 ], [ 126.840862728412432, 37.48298512588044 ], [ 126.840325341033406, 37.482874662937348 ], [ 126.839776955815481, 37.482806704767562 ], [ 126.839222853098022, 37.482781905722177 ], [ 126.838668368241585, 37.482800504578208 ], [ 126.838118840282107, 37.482862322241076 ], [ 126.837579560549628, 37.482966763468497 ], [ 126.837055721745671, 37.483112822599303 ], [ 126.836552367967357, 37.483299093232198 ], [ 126.836074346159279, 37.483523781761399 ], [ 126.835626259458692, 37.483784724639214 ], [ 126.835212422883245, 37.48407940919968 ], [ 126.83483682178634, 37.484404997843164 ], [ 126.834503073480803, 37.484758355349712 ], [ 126.834214392399474, 37.485136079058421 ], [ 126.833973559128694, 37.485534531622882 ], [ 126.83378289361319, 37.485949876027838 ], [ 126.833644232791244, 37.486378112530083 ], [ 126.833558912876029, 37.486815117168618 ], [ 126.833527756455169, 37.487256681473298 ], [ 126.833551064533722, 37.48769855298994 ], [ 126.833628613598918, 37.488136476231865 ], [ 126.833759657735683, 37.488566233663306 ], [ 126.833942935774999, 37.488983686320324 ], [ 126.834176683406398, 37.489384813677617 ], [ 126.834458650140235, 37.489765752377131 ], [ 126.83478612095702, 37.49012283344517 ], [ 126.835155942436259, 37.490452617639072 ], [ 126.835564553114025, 37.490751928582846 ], [ 126.836008017777104, 37.491017883371619 ], [ 126.836482065364024, 37.491247920350197 ], [ 126.836982130107401, 37.491439823797194 ], [ 126.837503395521381, 37.491591745276693 ], [ 126.838040840809555, 37.491702221451249 ], [ 126.838589289245917, 37.491770188184319 ], [ 126.83914345806167, 37.491794990795732 ], [ 126.839698009356127, 37.491776390371427 ], [ 126.840247601540199, 37.491714566066236 ], [ 126.840786940815661, 37.491610113377732 ], [ 126.841310832192889, 37.4914640384075 ], [ 126.841814229554316, 37.491277748165558 ], [ 126.842292284280518, 37.491053037011241 ], [ 126.842740391969187, 37.490792069361703 ], [ 126.843154236796167, 37.490497358834901 ], [ 126.843529833090884, 37.490171744028309 ], [ 126.84386356372508, 37.489818361167323 ], [ 126.844152214945041, 37.489440613887204 ], [ 126.844393007311979, 37.489042140440212 ], [ 126.844583622453058, 37.488626778644083 ], [ 126.844722225365857, 37.488198528910381 ], [ 126.84480748206262, 37.487761515708549 ], [ 126.844838572385214, 37.487319947837854 ] ] ] } },
{ "type": "Feature", "properties": { "name": "렉싱턴호텔뒤 노상주차장(구)", "facility": "주차장", "delivery_mode": "드론+로봇 Full 배송" }, "geometry": { "type": "Polygon", "coordinates": [ [ [ 126.940516104142674, 37.522981189671604 ], [ 126.94049215708165, 37.522539336506057 ], [ 126.940413949894889, 37.522101480424986 ], [ 126.94028223668569, 37.521671838123879 ], [ 126.940098286781378, 37.521254547125785 ], [ 126.939863872475897, 37.520853625941001 ], [ 126.93958125193285, 37.520472935375615 ], [ 126.939253147413922, 37.520116141360617 ], [ 126.938882719044003, 37.519786679659674 ], [ 126.938473534366025, 37.519487722794487 ], [ 126.938029533979005, 37.519222149506163 ], [ 126.937554993590979, 37.518992517045767 ], [ 126.937054482851195, 37.518801036560653 ], [ 126.936532821358924, 37.518649551812914 ], [ 126.935995032270654, 37.518539521434434 ], [ 126.935446293952353, 37.518472004889041 ], [ 126.934891890141273, 37.518447652276613 ], [ 126.934337159095506, 37.518466698076793 ], [ 126.933787442220563, 37.518528958892809 ], [ 126.933248032665205, 37.518633835216697 ], [ 126.932724124381309, 37.518780317199194 ], [ 126.932220762136112, 37.518966994368647 ], [ 126.931742792957323, 37.519192069205808 ], [ 126.931294819477742, 37.519453374444112 ], [ 126.930881155627489, 37.519748393928928 ], [ 126.930505785099953, 37.520074286835879 ], [ 126.930172322991211, 37.520427915015091 ], [ 126.929883980981799, 37.520805873198825 ], [ 126.929643536396554, 37.52120452178206 ], [ 126.929453305440902, 37.521620021860798 ], [ 126.929315120871664, 37.522048372191364 ], [ 126.929230314318701, 37.522485447714942 ], [ 126.929199703428381, 37.52292703927688 ], [ 126.929223583954141, 37.523368894158473 ], [ 126.929301726871572, 37.523806757031075 ], [ 126.929433380547223, 37.52423641093818 ], [ 126.929617277941688, 37.524653717910802 ], [ 126.929851648778822, 37.525054658824665 ], [ 126.930134236565578, 37.52543537211556 ], [ 126.930462320299043, 37.525792190979132 ], [ 126.930832740653102, 37.526121678696811 ], [ 126.931241930392844, 37.526420661747089 ], [ 126.931685948724748, 37.52668626038259 ], [ 126.932160519251241, 37.526915916378151 ], [ 126.932661071164745, 37.527107417681997 ], [ 126.933182783283783, 37.52725891973197 ], [ 126.933720630506286, 37.527368963231275 ], [ 126.934269432232213, 37.527436488211826 ], [ 126.934823902287647, 37.527460844249639 ], [ 126.935378699868679, 37.527441796733413 ], [ 126.935928481012937, 37.527379529125866 ], [ 126.936467950101829, 37.527274641195952 ], [ 126.9369919108956, 37.527128143238961 ], [ 126.937495316609144, 37.526941446340416 ], [ 126.937973318544223, 37.526716348777754 ], [ 126.938421312809297, 37.526455018690882 ], [ 126.938834984675424, 37.526159973189316 ], [ 126.939210350141153, 37.525834054097288 ], [ 126.939543794304981, 37.525480400570906 ], [ 126.939832106175956, 37.525102418851986 ], [ 126.940072509587452, 37.52470374945004 ], [ 126.940262689916366, 37.524288232069054 ], [ 126.940400816351357, 37.52385986861767 ], [ 126.940485559496665, 37.523422784658912 ], [ 126.940516104142674, 37.522981189671604 ] ] ] } },
{ "type": "Feature", "properties": { "name": "난지중앙로노상공영주차장(시)", "facility": "주차장", "delivery_mode": "드론 스테이션 → 인간 수령" }, "geometry": { "type": "Polygon", "coordinates": [ [ [ 126.885580289556884, 37.568501301911802 ], [ 126.885556656022615, 37.568059443692128 ], [ 126.885478726731307, 37.567621556969947 ], [ 126.885347253112627, 37.567191858736813 ], [ 126.885163502189329, 37.566774487055184 ], [ 126.884929244342132, 37.566373461212983 ], [ 126.884646736230792, 37.565992643024465 ], [ 126.884318699037109, 37.565635699649796 ], [ 126.883948292240262, 37.565306068290774 ], [ 126.883539083177681, 37.565006923102544 ], [ 126.88309501268516, 37.564741144639143 ], [ 126.88262035714726, 37.564511292126653 ], [ 126.882119687323112, 37.564319578830556 ], [ 126.881597824344283, 37.56416785075379 ], [ 126.881059793307415, 37.564057568870332 ], [ 126.880510774907719, 37.563989795064806 ], [ 126.879956055578305, 37.563965181913261 ], [ 126.879400976614065, 37.563983966403228 ], [ 126.878850882768731, 37.564045967653378 ], [ 126.878311070818924, 37.564150588654513 ], [ 126.87778673858891, 37.564296822015471 ], [ 126.877282934925745, 37.56448325965841 ], [ 126.876804511105263, 37.564708106370581 ], [ 126.876356074135842, 37.564969197082306 ], [ 126.87594194240863, 37.565264017705218 ], [ 126.875566104120622, 37.565589729330561 ], [ 126.87523217887076, 37.565943195555015 ], [ 126.874943382798435, 37.56632101267153 ], [ 126.874702497600566, 37.566719542434669 ], [ 126.874511843725585, 37.567134947086011 ], [ 126.874373258003558, 37.567563226302219 ], [ 126.874288075928547, 37.568000255710679 ], [ 126.874257118764817, 37.568441826602189 ], [ 126.874280685602528, 37.568883686458406 ], [ 126.874358550440562, 37.569321579903885 ], [ 126.874489964326173, 37.569751289688703 ], [ 126.874673662532132, 37.570168677306476 ], [ 126.874907876703617, 37.570569722856852 ], [ 126.875190351859331, 37.570950563768228 ], [ 126.875518368083902, 37.571307532007218 ], [ 126.875888766703966, 37.571637189416471 ], [ 126.876297980696364, 37.571936360839743 ], [ 126.876742069035814, 37.572202164714845 ], [ 126.877216754651968, 37.572432040839082 ], [ 126.877717465629743, 37.572623775039617 ], [ 126.878239379256058, 37.572775520510177 ], [ 126.878777468487968, 37.572885815608309 ], [ 126.879326550393813, 37.572953597941613 ], [ 126.879881336100041, 37.57297821460628 ], [ 126.880436481760853, 37.572959428479777 ], [ 126.880986640059461, 37.572897420506337 ], [ 126.881526511742322, 37.572792787953524 ], [ 126.882050896689648, 37.572646538656421 ], [ 126.882554744028525, 37.572460081305294 ], [ 126.883033200804661, 37.572235211870257 ], [ 126.883481658743193, 37.57197409629422 ], [ 126.883895798647174, 37.571679249621084 ], [ 126.884271632005394, 37.571353511760684 ], [ 126.884605539408327, 37.571000020124536 ], [ 126.884894305402398, 37.570622179396274 ], [ 126.885135149446654, 37.570223628728698 ], [ 126.88532575267412, 37.569808206683561 ], [ 126.88546428020112, 37.569379914252664 ], [ 126.885549398769953, 37.568942876316434 ], [ 126.885580289556884, 37.568501301911802 ] ] ] } },
{ "type": "Feature", "properties": { "name": "언북초교 공영주차장(구)", "facility": "주차장", "delivery_mode": "드론+로봇 Full 배송" }, "geometry": { "type": "Polygon", "coordinates": [ [ [ 127.05819528792577, 37.522917294917768 ], [ 127.058170646596125, 37.522475460945522 ], [ 127.058091750907607, 37.522037678165148 ], [ 127.057959361592893, 37.521608162563773 ], [ 127.057774754488477, 37.521191050441921 ], [ 127.057539708214776, 37.520790358585245 ], [ 127.057256487018179, 37.52040994558957 ], [ 127.056927818941119, 37.520053474711546 ], [ 127.056556869531647, 37.519724378602028 ], [ 127.056147211346115, 37.519425826261624 ], [ 127.055702789539282, 37.519160692535834 ], [ 127.055227883873343, 37.518931530443226 ], [ 127.054727067511521, 37.51874054660243 ], [ 127.054205162992844, 37.518589579994178 ], [ 127.053667195811414, 37.518480084262386 ], [ 127.053118346046176, 37.518413113724179 ], [ 127.052563898506335, 37.518389313223523 ], [ 127.05200919187061, 37.518408911925491 ], [ 127.051459567309792, 37.518471721111148 ], [ 127.050920317084845, 37.518577135993901 ], [ 127.050396633615236, 37.518724141540133 ], [ 127.049893559505875, 37.518911322238019 ], [ 127.049415939012988, 37.519136875720719 ], [ 127.048968371415199, 37.51939863011328 ], [ 127.048555166738026, 37.51969406493626 ], [ 127.048180304257187, 37.520020335365636 ], [ 127.047847394180465, 37.520374299615575 ], [ 127.047559642876209, 37.52075254918109 ], [ 127.047319821984473, 37.521151441649764 ], [ 127.047130241707606, 37.521567135767299 ], [ 127.046992728538967, 37.521995628419354 ], [ 127.046908607644582, 37.522432793174168 ], [ 127.046878690068922, 37.522874420015313 ], [ 127.04690326488894, 37.523316255881802 ], [ 127.046982096393407, 37.523754045625523 ], [ 127.047114426316185, 37.524183572991795 ], [ 127.047298981103168, 37.524600701227939 ], [ 127.047533984144451, 37.525001412929043 ], [ 127.04781717285509, 37.525381848736671 ], [ 127.048145820441036, 37.525738344517528 ], [ 127.04851676214173, 37.526067466663761 ], [ 127.048926425697061, 37.526366045174186 ], [ 127.049370865745857, 37.526631204197592 ], [ 127.049845801824944, 37.526860389743256 ], [ 127.05034665960234, 37.527051394291249 ], [ 127.050868614947404, 37.527202378065063 ], [ 127.051406640412878, 37.52731188676114 ], [ 127.051955553679889, 37.527378865564131 ], [ 127.052510067498986, 37.527402669312458 ], [ 127.053064840644311, 37.527383068716247 ], [ 127.053614529389208, 37.527320252567229 ], [ 127.054153839006119, 37.5272148259196 ], [ 127.05467757479316, 37.527067804259076 ], [ 127.055180692134911, 37.526880603716762 ], [ 127.055658345113784, 37.526655027422102 ], [ 127.056105933202659, 37.526393248126716 ], [ 127.056519145588609, 37.526097787267013 ], [ 127.05689400269965, 37.525771490667616 ], [ 127.057226894534423, 37.52541750112006 ], [ 127.057514615425532, 37.525039228101505 ], [ 127.057754394901693, 37.52464031492562 ], [ 127.057943924352131, 37.524224603642509 ], [ 127.058081379236782, 37.523796098026196 ], [ 127.058165436629352, 37.52335892500659 ], [ 127.05819528792577, 37.522917294917768 ] ] ] } },
{ "type": "Feature", "properties": { "name": "여의서로 공영주차장(시)", "facility": "주차장", "delivery_mode": "드론+로봇 Full 배송" }, "geometry": { "type": "Polygon", "coordinates": [ [ [ 126.923137841982907, 37.533108778575098 ], [ 126.923113995018127, 37.532666923461832 ], [ 126.923035879758658, 37.532229057373513 ], [ 126.922904249423141, 37.531799397102333 ], [ 126.922720372541491, 37.531382080344663 ], [ 126.922486020705179, 37.5309811258591 ], [ 126.922203451477046, 37.530600394772556 ], [ 126.921875386625331, 37.530243553406372 ], [ 126.921504985893776, 37.52991403798017 ], [ 126.921095816559756, 37.52961502153299 ], [ 126.920651819075218, 37.529349383379547 ], [ 126.920177269120629, 37.529119681395393 ], [ 126.91967673643785, 37.528928127397087 ], [ 126.919155040837666, 37.528776565854393 ], [ 126.918617205805035, 37.528666456138389 ], [ 126.918068410148393, 37.528598858476556 ], [ 126.917513938156816, 37.528574423749561 ], [ 126.916959128744764, 37.52859338722746 ], [ 126.916409324071779, 37.528655566305922 ], [ 126.915869818131611, 37.52876036226386 ], [ 126.915345805803639, 37.528906766025663 ], [ 126.914842332856267, 37.529093367872811 ], [ 126.914364247382551, 37.5293183710113 ], [ 126.91391615313448, 37.529579608864978 ], [ 126.913502365204437, 37.529874565928218 ], [ 126.913126868480106, 37.530200401977851 ], [ 126.912793279272236, 37.530553979411778 ], [ 126.912504810484918, 37.530931893451182 ], [ 126.912264240663561, 37.531330504916468 ], [ 126.912073887219464, 37.531745975261479 ], [ 126.911935584089036, 37.532174303529231 ], [ 126.911850664044024, 37.532611364873809 ], [ 126.91181994582405, 37.533052950277501 ], [ 126.911843726216588, 37.533494807081311 ], [ 126.911921777162135, 37.533932679938459 ], [ 126.912053347913599, 37.534362351796624 ], [ 126.912237172230832, 37.534779684514135 ], [ 126.912471480542393, 37.535180658719078 ], [ 126.912754016958118, 37.535561412526718 ], [ 126.913082060970638, 37.535918278742606 ], [ 126.91345245363712, 37.536247820192116 ], [ 126.913861627990102, 37.536546862836161 ], [ 126.914305643384751, 37.53681252635328 ], [ 126.914780223452354, 37.537042251893233 ], [ 126.915280797293789, 37.537233826734202 ], [ 126.915802543516605, 37.537385405605463 ], [ 126.916340436690405, 37.537495528470039 ], [ 126.916889295772464, 37.537563134595096 ], [ 126.917443834036249, 37.537587572774783 ], [ 126.917998710020555, 37.537568607606325 ], [ 126.918548579007464, 37.537506421759026 ], [ 126.919088144531685, 37.537401614214119 ], [ 126.919612209424074, 37.537255194492467 ], [ 126.920115725896181, 37.537068572925946 ], [ 126.920593844182306, 37.53684354706634 ], [ 126.921041959269573, 37.536582284362964 ], [ 126.921455755264688, 37.536287301276431 ], [ 126.921831246970072, 37.535961439029919 ], [ 126.922164818267817, 37.535607836232323 ], [ 126.92245325694212, 37.535229898637112 ], [ 126.922693785604821, 37.534831266329149 ], [ 126.922884088426287, 37.534415778655585 ], [ 126.923022333415545, 37.533987437239276 ], [ 126.923107190035154, 37.533550367431459 ], [ 126.923137841982907, 37.533108778575098 ] ] ] } },
{ "type": "Feature", "properties": { "name": "동국제강 공영주차장(시)", "facility": "주차장", "delivery_mode": "드론+로봇 Full 배송" }, "geometry": { "type": "Polygon", "coordinates": [ [ [ 126.989096134739725, 37.567361997045303 ], [ 126.989071889721629, 37.566920154788832 ], [ 126.988993354708839, 37.566482331688306 ], [ 126.988861286963328, 37.566052744120483 ], [ 126.988676959227789, 37.565635529079991 ], [ 126.988442147435435, 37.565234704344483 ], [ 126.988159113577851, 37.564854129789957 ], [ 126.987830583896539, 37.564497470229178 ], [ 126.987459722609927, 37.564168160129988 ], [ 126.98705010142848, 37.563869370553391 ], [ 126.986605665153064, 37.563603978628876 ], [ 126.986130693687116, 37.563374539860583 ], [ 126.985629760828942, 37.563183263530462 ], [ 126.98510769024017, 37.563031991434677 ], [ 126.984569509014307, 37.562922180157557 ], [ 126.984020399291197, 37.562854887053547 ], [ 126.983465648382236, 37.562830760071435 ], [ 126.982910597886033, 37.562850031518927 ], [ 126.982360592282575, 37.562912515827279 ], [ 126.981820927499754, 37.563017611337358 ], [ 126.981296799946364, 37.563164306090215 ], [ 126.980793256500817, 37.563351187566333 ], [ 126.980315145935919, 37.563576456280053 ], [ 126.979867072246705, 37.563837943098697 ], [ 126.979453350329408, 37.564133130119821 ], [ 126.979077964438304, 37.564459174906297 ], [ 126.978744529819352, 37.564812937846121 ], [ 126.978456257890713, 37.565191012374001 ], [ 126.978215925304937, 37.565589757764485 ], [ 126.978025847191574, 37.566005334181149 ], [ 126.977887854838244, 37.566433739644665 ], [ 126.977803278026457, 37.566870848564633 ], [ 126.977772932192593, 37.567312451463948 ], [ 126.977797110539782, 37.567754295513723 ], [ 126.977875581177372, 37.568192125488544 ], [ 126.978007589317286, 37.568621724747523 ], [ 126.978191864507494, 37.569038955846693 ], [ 126.978426632834001, 37.569439800391351 ], [ 126.978709633975669, 37.569820397744159 ], [ 126.97903814294817, 37.57017708221629 ], [ 126.979408996328971, 37.570506418382543 ], [ 126.979818622711363, 37.57080523418017 ], [ 126.980263077094648, 37.571070651472027 ], [ 126.980738078879511, 37.571300113779117 ], [ 126.981239053102541, 37.571491410914923 ], [ 126.981761174512414, 37.571642700283746 ], [ 126.982299414062624, 37.571752524637404 ], [ 126.982848587371961, 37.571819826118976 ], [ 126.983403404685447, 37.571843956457712 ], [ 126.983958521852557, 37.571824683216917 ], [ 126.984508591831229, 37.571762192034249 ], [ 126.985048316219633, 37.571657084833035 ], [ 126.985572496318369, 37.571510374021472 ], [ 126.986076083229747, 37.571323472736225 ], [ 126.986554226510577, 37.571098181224194 ], [ 126.987002320908616, 37.570836669494234 ], [ 126.987416050731724, 37.570541456406055 ], [ 126.987791431421869, 37.570215385398541 ], [ 126.988124847932923, 37.569861597091368 ], [ 126.988413089542632, 37.569483499024685 ], [ 126.988653380763594, 37.569084732828486 ], [ 126.988843408055871, 37.568669139138827 ], [ 126.988981342084841, 37.568240720598759 ], [ 126.9890658553104, 37.567803603301229 ], [ 126.989096134739725, 37.567361997045303 ] ] ] } },
{ "type": "Feature", "properties": { "name": "용산전자상가3 공영주차장(구)", "facility": "주차장", "delivery_mode": "드론+로봇 Full 배송" }, "geometry": { "type": "Polygon", "coordinates": [ [ [ 126.968728671523337, 37.526047697861202 ], [ 126.968704557235228, 37.52560584934934 ], [ 126.968626181949034, 37.525168010876094 ], [ 126.968494301386784, 37.524738398966818 ], [ 126.968310186487088, 37.52432115085125 ], [ 126.968075611132392, 37.52392028462625 ], [ 126.967792835036576, 37.52353966056814 ], [ 126.967464581958467, 37.523182943967107 ], [ 126.96709401345278, 37.522853569841033 ], [ 126.966684698410916, 37.522554709868103 ], [ 126.966240578686339, 37.522289241856342 ], [ 126.965765931135238, 37.522059722043039 ], [ 126.965265326437958, 37.521868360490949 ], [ 126.964743585097651, 37.521716999817144 ], [ 126.964205731039002, 37.521607097459025 ], [ 126.963656943253056, 37.521539711648074 ], [ 126.963102505952961, 37.521515491225642 ], [ 126.962547757719122, 37.521534669398967 ], [ 126.961998040122424, 37.521597061497047 ], [ 126.961458646318818, 37.521702066748233 ], [ 126.960934770108821, 37.521848674062149 ], [ 126.96043145595128, 37.522035471760653 ], [ 126.959953550411583, 37.522260661164196 ], [ 126.959505655510455, 37.522522073903176 ], [ 126.959092084422267, 37.522817192787926 ], [ 126.958716819948094, 37.523143176036882 ], [ 126.958383476163746, 37.523496884630134 ], [ 126.958095263611256, 37.523874912525393 ], [ 126.957854958369779, 37.524273619445999 ], [ 126.957664875303678, 37.524689165925828 ], [ 126.957526845746344, 37.525117550273841 ], [ 126.957442199835427, 37.525554647103142 ], [ 126.957411753670684, 37.525996247053271 ], [ 126.957435801419422, 37.52643809732416 ], [ 126.957514112446859, 37.526875942630966 ], [ 126.957645933500402, 37.527305566185731 ], [ 126.957829995928321, 37.527722830311163 ], [ 126.958064527864565, 37.528123716295205 ], [ 126.958347271263932, 37.528504363102158 ], [ 126.958675503623979, 37.528861104567603 ], [ 126.959046064186253, 37.52919050471818 ], [ 126.959455384364588, 37.529489390875554 ], [ 126.959899522108103, 37.529754884225483 ], [ 126.960374199868184, 37.529984427556919 ], [ 126.960874845803573, 37.530175809903326 ], [ 126.961396637826311, 37.530327187848521 ], [ 126.961934550064058, 37.530437103291355 ], [ 126.962483401290015, 37.530504497497546 ], [ 126.963037904852982, 37.530528721303071 ], [ 126.963592719626192, 37.530509541370733 ], [ 126.964142501481646, 37.53044714243908 ], [ 126.964681954793974, 37.530342125542411 ], [ 126.965205883475761, 37.530195502218625 ], [ 126.965709241051684, 37.530008684761086 ], [ 126.9661871792879, 37.529783472608699 ], [ 126.966635094907062, 37.529522035005293 ], [ 126.967048673938663, 37.529226890096048 ], [ 126.967423933276379, 37.528900880662633 ], [ 126.967757259041775, 37.528547146731235 ], [ 126.968045441385314, 37.528169095317836 ], [ 126.968285705388681, 37.527770367602912 ], [ 126.968475737772351, 37.527354803851701 ], [ 126.968613709150546, 37.526926406418958 ], [ 126.968698291621479, 37.526489301194445 ], [ 126.968728671523337, 37.526047697861202 ] ] ] } },
{ "type": "Feature", "properties": { "name": "용산전자상가1 공영주차장(구)", "facility": "주차장", "delivery_mode": "드론+로봇 Full 배송" }, "geometry": { "type": "Polygon", "coordinates": [ [ [ 126.980853954139036, 37.534393844652996 ], [ 126.98082976618943, 37.533951998682483 ], [ 126.980751311774696, 37.533514168275474 ], [ 126.980619347379161, 37.5330845698793 ], [ 126.980435144748952, 37.532667340593306 ], [ 126.980200478611437, 37.532266498332717 ], [ 126.979917609554647, 37.531885903142815 ], [ 126.979589262232523, 37.53152922003553 ], [ 126.979218599107071, 37.531199883705987 ], [ 126.978809189980467, 37.530901065468271 ], [ 126.978364977611861, 37.530635642728306 ], [ 126.97789023974903, 37.530406171287424 ], [ 126.977389547941527, 37.530214860742525 ], [ 126.976867723530816, 37.530063553219485 ], [ 126.976329791240971, 37.529953705644033 ], [ 126.975780930815887, 37.529886375720203 ], [ 126.975226427167755, 37.52986221175135 ], [ 126.974671619515505, 37.529881446401284 ], [ 126.974121850001893, 37.529943894455371 ], [ 126.973582412282582, 37.530048954603352 ], [ 126.973058500580905, 37.530195615226489 ], [ 126.972555159697478, 37.530382464133488 ], [ 126.972077236455135, 37.530607702151904 ], [ 126.971629333045385, 37.530869160444183 ], [ 126.971215762724754, 37.531164321382128 ], [ 126.970840508287424, 37.531490342779342 ], [ 126.97050718371294, 37.531844085248622 ], [ 126.970218999358963, 37.532222142421446 ], [ 126.969978731033649, 37.532620873739191 ], [ 126.969788693246443, 37.533036439500691 ], [ 126.969650716895245, 37.533464837829094 ], [ 126.969566131605887, 37.533901943202672 ], [ 126.969535752894856, 37.534343546178491 ], [ 126.969559874280264, 37.534785393927066 ], [ 126.969638264418506, 37.53522323118758 ], [ 126.969770169295373, 37.535652841249266 ], [ 126.969954319452029, 37.536070086564536 ], [ 126.970188942177586, 37.536470948602123 ], [ 126.97047177855238, 37.536851566556763 ], [ 126.970800105178341, 37.537208274541648 ], [ 126.971170760388887, 37.537537636905647 ], [ 126.97158017468594, 37.537836481334203 ], [ 126.972024405111682, 37.53810192941485 ], [ 126.972499173224406, 37.538331424372466 ], [ 126.972999906312054, 37.538522755706396 ], [ 126.973521781446834, 37.538674080491845 ], [ 126.974059771955339, 37.538783941139727 ], [ 126.974608695856347, 37.53885127944362 ], [ 126.975163265798372, 37.538875446778128 ], [ 126.975718140014834, 37.538856210350126 ], [ 126.976267973804923, 37.538793755442548 ], [ 126.976807471042875, 37.538688683629026 ], [ 126.977331435218119, 37.538542006976634 ], [ 126.977834819513475, 37.538355138292623 ], [ 126.978312775437843, 37.538129877509483 ], [ 126.978760699543741, 37.537868394339604 ], [ 126.979174277779293, 37.537573207367188 ], [ 126.97954952704616, 37.537247159779135 ], [ 126.979882833563522, 37.536893391969187 ], [ 126.980170987667591, 37.536515311279629 ], [ 126.980411214712774, 37.536116559172854 ], [ 126.98060120177594, 37.535700976148938 ], [ 126.980739119908478, 37.535272564748098 ], [ 126.980823641721884, 37.534835450994471 ], [ 126.980853954139036, 37.534393844652996 ] ] ] } },
{ "type": "Feature", "properties": { "name": "삼환아파트 앞 노상주차장(구)", "facility": "주차장", "delivery_mode": "드론+로봇 Full 배송" }, "geometry": { "type": "Polygon", "coordinates": [ [ [ 126.894439051490096, 37.516545267837948 ], [ 126.894415377814241, 37.51610340720238 ], [ 126.894337446500529, 37.515665522506161 ], [ 126.894206008995639, 37.515235830721387 ], [ 126.894022331972167, 37.514818469848549 ], [ 126.893788185096994, 37.514417459071758 ], [ 126.893505823959288, 37.514036660060604 ], [ 126.893177968323911, 37.513679739791087 ], [ 126.892807775920431, 37.513350135243115 ], [ 126.892398812020986, 37.513051020314343 ], [ 126.891955015100194, 37.512785275268065 ], [ 126.891480658908236, 37.512555459009299 ], [ 126.890980311322238, 37.512363784455118 ], [ 126.890458790371753, 37.512212097236009 ], [ 126.889921117861093, 37.512101857933082 ], [ 126.889372471034704, 37.512034128021398 ], [ 126.888818132749464, 37.512009559654686 ], [ 126.888263440632997, 37.51202838938945 ], [ 126.887713735716019, 37.512090435908746 ], [ 126.887174311031984, 37.512195101767418 ], [ 126.886650360677933, 37.512341379142136 ], [ 126.886146929825387, 37.51252785953087 ], [ 126.885668866161723, 37.512752747308831 ], [ 126.885220773228241, 37.513013877010302 ], [ 126.884806966103937, 37.513308734170806 ], [ 126.884431429860328, 37.51363447952901 ], [ 126.884097781187648, 37.513987976356049 ], [ 126.883809233561379, 37.514365820649338 ], [ 126.883568566284865, 37.514764373901066 ], [ 126.88337809770664, 37.515179798125907 ], [ 126.883239662870579, 37.515608092811405 ], [ 126.883154595815654, 37.516045133435462 ], [ 126.883123716696147, 37.516486711180463 ], [ 126.88314732384822, 37.516928573461762 ], [ 126.883225190879998, 37.517366464880489 ], [ 126.883356568815188, 37.517796168206189 ], [ 126.883540193270377, 37.518213544994865 ], [ 126.883774296598872, 37.518614575450762 ], [ 126.884056624884977, 37.518995397148039 ], [ 126.884384459626304, 37.519352342238882 ], [ 126.884754643896187, 37.519681972789499 ], [ 126.885163612735113, 37.519981113903007 ], [ 126.885607427478618, 37.520246884309806 ], [ 126.886081813691604, 37.520476724130283 ], [ 126.886582202343263, 37.520668419541956 ], [ 126.887103773825913, 37.520820124112738 ], [ 126.887641504393301, 37.52093037659472 ], [ 126.888190214569931, 37.520998115006421 ], [ 126.888744619064354, 37.521022686867397 ], [ 126.889299377704575, 37.521003855486882 ], [ 126.889849146903487, 37.520941802245083 ], [ 126.890388631157208, 37.520837124845485 ], [ 126.890912634079541, 37.520690831554951 ], [ 126.891416108478765, 37.520504331487075 ], [ 126.891894204994074, 37.520279421023005 ], [ 126.892342318821619, 37.520018266500209 ], [ 126.892756134079491, 37.519723383337045 ], [ 126.893131665383621, 37.519397611794119 ], [ 126.893465296233586, 37.519044089606574 ], [ 126.893753813838828, 37.518666221751545 ], [ 126.893994440049681, 37.518267647642332 ], [ 126.894184858095741, 37.517852206065818 ], [ 126.894323234875074, 37.517423898201258 ], [ 126.894408238579786, 37.516986849077213 ], [ 126.894439051490096, 37.516545267837948 ] ] ] } },
{ "type": "Feature", "properties": { "name": "구파발역 공영주차장(시)", "facility": "주차장", "delivery_mode": "드론 스테이션 → 인간 수령" }, "geometry": { "type": "Polygon", "coordinates": [ [ [ 126.924653917434782, 37.638236771747728 ], [ 126.924630036059227, 37.637794924438666 ], [ 126.924551810013568, 37.63735706614986 ], [ 126.924419993588145, 37.636927413597981 ], [ 126.924235857109437, 37.636510104404302 ], [ 126.924001174672924, 37.636109157253728 ], [ 126.923718207028443, 37.635728433201365 ], [ 126.923389679783682, 37.635371598499518 ], [ 126.923018757136859, 37.635042089302289 ], [ 126.922609011392268, 37.634743078587228 ], [ 126.922164388552517, 37.634477445612497 ], [ 126.921689170319198, 37.634247748202306 ], [ 126.921187932867682, 37.634056198127993 ], [ 126.920665502792929, 37.633904639820351 ], [ 126.920126910649472, 37.633794532618424 ], [ 126.919577342532691, 37.633726936724841 ], [ 126.919022090166123, 37.633702503002802 ], [ 126.918466499974656, 37.633721466712579 ], [ 126.917915921632201, 37.633783645247767 ], [ 126.917375656578585, 37.633888439892935 ], [ 126.9168509069994, 37.634034841585809 ], [ 126.916346725759297, 37.634221440628707 ], [ 126.915867967769401, 37.634446440255793 ], [ 126.915419243255968, 37.634707673925966 ], [ 126.915004873379743, 37.635002626175307 ], [ 126.914628848632319, 37.635328456828439 ], [ 126.914294790410054, 37.635682028336646 ], [ 126.914005916135295, 37.636059935979588 ], [ 126.913765008260881, 37.636458540640497 ], [ 126.913574387456933, 37.636874003839885 ], [ 126.913435890238446, 37.637302324690467 ], [ 126.913350851250812, 37.637739378418424 ], [ 126.913320090383877, 37.638180956079815 ], [ 126.913343904840843, 37.638622805090336 ], [ 126.913422066239107, 37.639060670178083 ], [ 126.913553822772656, 37.639490334365114 ], [ 126.913737906416642, 37.639907659583002 ], [ 126.913972545105977, 37.640308626531073 ], [ 126.914255479772038, 37.640689373393386 ], [ 126.914583986074462, 37.641046233041088 ], [ 126.914954900619847, 37.641375768361428 ], [ 126.915364651415189, 37.641674805372894 ], [ 126.91580929226383, 37.641940463806854 ], [ 126.916284540772082, 37.642170184860646 ], [ 126.916785819601131, 37.642361755854374 ], [ 126.917308300565907, 37.642513331553282 ], [ 126.917846951156207, 37.642623451950001 ], [ 126.918396583030543, 37.642691056334861 ], [ 126.918951902015252, 37.642715493518324 ], [ 126.919507559125307, 37.642696528107081 ], [ 126.920058202115158, 37.642634342772958 ], [ 126.920598527060676, 37.642529536492653 ], [ 126.921123329474582, 37.642383118775548 ], [ 126.921627554461836, 37.642196499935153 ], [ 126.922106345430151, 37.641971477498117 ], [ 126.922555090885922, 37.641710218882075 ], [ 126.922969468863613, 37.641415240509666 ], [ 126.923345488560258, 37.641089383560107 ], [ 126.923679528773633, 37.640735786592678 ], [ 126.923968372773459, 37.640357855306135 ], [ 126.924209239270326, 37.639959229725818 ], [ 126.924399809184266, 37.639543749135164 ], [ 126.924538247955908, 37.639115415089769 ], [ 126.924623223185989, 37.638678352870542 ], [ 126.924653917434782, 37.638236771747728 ] ] ] } },
{ "type": "Feature", "properties": { "name": "방화로 공영주차장(시)", "facility": "주차장", "delivery_mode": "드론+로봇 Full 배송" }, "geometry": { "type": "Polygon", "coordinates": [ [ [ 126.82184121025864, 37.555977219317789 ], [ 126.821817956213565, 37.555535351042352 ], [ 126.821740412560516, 37.555097425013749 ], [ 126.821609327015352, 37.554667658603513 ], [ 126.821425962863984, 37.554250190531981 ], [ 126.821192086763347, 37.553849041016562 ], [ 126.820909951698226, 37.553468073063613 ], [ 126.820582275259582, 37.553110955276374 ], [ 126.820212213454425, 37.552781126537006 ], [ 126.819803330300104, 37.552481762901834 ], [ 126.819359563496164, 37.552215747028711 ], [ 126.818885186504914, 37.551985640429891 ], [ 126.818384767405419, 37.551793658817367 ], [ 126.817863124916897, 37.551641650777377 ], [ 126.817325282014522, 37.551531079979142 ], [ 126.816776417583398, 37.551463011088558 ], [ 126.816221816575123, 37.551438099522244 ], [ 126.815666819145974, 37.551456585140258 ], [ 126.81511676926489, 37.551518289938144 ], [ 126.814576963284978, 37.551622619760337 ], [ 126.814052598972452, 37.551768570018545 ], [ 126.813548725482349, 37.551954735360177 ], [ 126.813070194761465, 37.552179323193847 ], [ 126.812621614845952, 37.552440170942205 ], [ 126.812207305501431, 37.552734766856155 ], [ 126.81183125663317, 37.553060274190649 ], [ 126.811497089865625, 37.553413558509803 ], [ 126.811208023661692, 37.553791217858546 ], [ 126.810966842317313, 37.554189615511369 ], [ 126.810775869130751, 37.554604914982882 ], [ 126.810636944005239, 37.555033116963621 ], [ 126.810551405701702, 37.555470097825932 ], [ 126.810520078913811, 37.555911649329389 ], [ 126.810543266290495, 37.556353519143755 ], [ 126.810620745484698, 37.556791451799107 ], [ 126.810751771257713, 37.557221229669281 ], [ 126.810935082620531, 37.557638713593505 ], [ 126.811168914944943, 37.55803988274517 ], [ 126.811451016928444, 37.558420873363332 ], [ 126.811778672251364, 37.558778015973694 ], [ 126.812148725718146, 37.559107870740199 ], [ 126.812557613631924, 37.559407260606299 ], [ 126.813001398110217, 37.559673301906102 ], [ 126.813475805011493, 37.559903432150207 ], [ 126.8139762651073, 37.560095434717979 ], [ 126.814497958102905, 37.560247460217845 ], [ 126.815035859082229, 37.560358044309623 ], [ 126.815584786928284, 37.560426121816562 ], [ 126.816139454252436, 37.560451036990919 ], [ 126.816694518349962, 37.560432549833976 ], [ 126.817244632689892, 37.560370838409327 ], [ 126.817784498441995, 37.560266497127216 ], [ 126.818308915543028, 37.560120531016302 ], [ 126.818812832809371, 37.559934346038418 ], [ 126.81929139661186, 37.559709735539542 ], [ 126.819739997643126, 37.559448862968054 ], [ 126.820154315325993, 37.559154241026967 ], [ 126.820530359434827, 37.558828707461544 ], [ 126.820864508528004, 37.558475397715725 ], [ 126.821153544821897, 37.55809771472169 ], [ 126.821394685169963, 37.557699296113633 ], [ 126.821585607849428, 37.557283979182237 ], [ 126.821724474898005, 37.556855763907947 ], [ 126.821809949786626, 37.556418774429289 ], [ 126.82184121025864, 37.555977219317789 ] ] ] } },
{ "type": "Feature", "properties": { "name": "경호빌딩앞 노상주차장(구)", "facility": "주차장", "delivery_mode": "드론+로봇 Full 배송" }, "geometry": { "type": "Polygon", "coordinates": [ [ [ 126.931131238408355, 37.523623120670827 ], [ 126.931107346564957, 37.523181266100949 ], [ 126.931029193684168, 37.522743404295547 ], [ 126.930897533346396, 37.522313752005459 ], [ 126.930713634369937, 37.52189644685005 ], [ 126.930479268558585, 37.521495507476175 ], [ 126.930196693609133, 37.521114794865191 ], [ 126.929868631344561, 37.5207579751605 ], [ 126.929498241483145, 37.520428484373241 ], [ 126.929089091197326, 37.520129495305241 ], [ 126.928645120755277, 37.519863887007688 ], [ 126.928170605576909, 37.519634217068763 ], [ 126.927670115069077, 37.519442696996634 ], [ 126.927148468636403, 37.51929117093453 ], [ 126.92661068929057, 37.519181097912039 ], [ 126.926061955303894, 37.519113537803527 ], [ 126.925507550371918, 37.519089141128141 ], [ 126.924952812763664, 37.519108142789719 ], [ 126.924403083947638, 37.51917035981635 ], [ 126.923863657187553, 37.519275193121601 ], [ 126.923339726600815, 37.519421633270305 ], [ 126.92283633716913, 37.519608270193551 ], [ 126.922358336181787, 37.519833306759551 ], [ 126.921910326577589, 37.520094576070214 ], [ 126.921496622634223, 37.520389562316886 ], [ 126.921121208430833, 37.520715424995224 ], [ 126.920787699483725, 37.521069026246558 ], [ 126.920499307924217, 37.521446961062516 ], [ 126.920258811554049, 37.521845590063194 ], [ 126.920068527077078, 37.52226107453339 ], [ 126.919930287765368, 37.522689413379858 ], [ 126.919845425775833, 37.523126481654565 ], [ 126.91981475928867, 37.523568070272859 ], [ 126.919838584592682, 37.524009926544615 ], [ 126.919916673195388, 37.524447795128019 ], [ 126.920048273986524, 37.524877459011741 ], [ 126.920232120436125, 37.525294780130849 ], [ 126.920466442759022, 37.52569573922505 ], [ 126.920748984929588, 37.526076474555154 ], [ 126.921077026384609, 37.526433319104633 ], [ 126.92144740820541, 37.526762835907633 ], [ 126.921856563528621, 37.527061851162529 ], [ 126.922300551892448, 37.527327484811764 ], [ 126.922775097188264, 37.527557178292923 ], [ 126.923275628851826, 37.52774871919312 ], [ 126.923797325896899, 37.527900262568721 ], [ 126.924335163366834, 37.528010348724784 ], [ 126.924883960755579, 37.528077917282261 ], [ 126.925438431931155, 37.528102317397256 ], [ 126.925993236078781, 37.528083314033793 ], [ 126.926543029172905, 37.528021090229167 ], [ 126.927082515479597, 37.527916245330289 ], [ 126.927606498593207, 37.527769789217864 ], [ 126.928109931513347, 37.527583132574293 ], [ 126.928587965279547, 37.527358073289186 ], [ 126.929035995693326, 37.527096779133721 ], [ 126.929449707677307, 37.526801766871323 ], [ 126.929825116843318, 37.526475878006089 ], [ 126.930158607868606, 37.526122251403088 ], [ 126.93044696931068, 37.525744293044887 ], [ 126.930687424525132, 37.525345643216134 ], [ 126.930877658389704, 37.524930141432449 ], [ 126.931015839577313, 37.524501789452401 ], [ 126.93110063816475, 37.524064712728745 ], [ 126.931131238408355, 37.523623120670827 ] ] ] } },
{ "type": "Feature", "properties": { "name": "세종로 공영주차장(시)", "facility": "주차장", "delivery_mode": "드론+로봇 Full 배송" }, "geometry": { "type": "Polygon", "coordinates": [ [ [ 126.981546347129964, 37.573427692524284 ], [ 126.981522145185096, 37.572985849487331 ], [ 126.981443648472805, 37.57254802209453 ], [ 126.981311613886533, 37.572118426764071 ], [ 126.98112731385001, 37.571701200565464 ], [ 126.980892524030125, 37.571300361383905 ], [ 126.980609506207244, 37.57091976923455 ], [ 126.980280986468827, 37.570563089099608 ], [ 126.979910128937917, 37.570233755645056 ], [ 126.979500505289167, 37.569934940156749 ], [ 126.979056060347403, 37.569669520013619 ], [ 126.978581074099779, 37.569440050991446 ], [ 126.978080120486979, 37.569248742663397 ], [ 126.977558023370648, 37.5690974371336 ], [ 126.977019810099733, 37.568987591308222 ], [ 126.976470663122498, 37.568920262874229 ], [ 126.975915870108992, 37.568896100120469 ], [ 126.975360773063059, 37.568915335698989 ], [ 126.974810716912643, 37.568977784386327 ], [ 126.974270998072114, 37.569082844866237 ], [ 126.97374681347047, 37.56922950551705 ], [ 126.973243210535074, 37.569416354147585 ], [ 126.972765038611328, 37.569641591588464 ], [ 126.972316902284732, 37.569903049008147 ], [ 126.971903117054453, 37.570198208787382 ], [ 126.971527667784088, 37.570524228751452 ], [ 126.971194170329852, 37.570877969527494 ], [ 126.970905836714735, 37.571256024763805 ], [ 126.970665444185272, 37.571654753920875 ], [ 126.970475308448272, 37.572070317318747 ], [ 126.97033726134633, 37.572498713103684 ], [ 126.970252633188338, 37.572935815778663 ], [ 126.970222239905326, 37.573377415926913 ], [ 126.970246375157672, 37.573819260746234 ], [ 126.970324807470007, 37.574257095003922 ], [ 126.970456782423796, 37.574686702017992 ], [ 126.97064102988692, 37.575103944269927 ], [ 126.970875776212836, 37.57550480325763 ], [ 126.971158761292699, 37.575885418204791 ], [ 126.971487260297252, 37.576242123253095 ], [ 126.97185810990031, 37.576571482779144 ], [ 126.972267738731887, 37.576870324495204 ], [ 126.972712201767933, 37.577135770014394 ], [ 126.97318721832599, 37.577365262585751 ], [ 126.973688213300534, 37.577556591731152 ], [ 126.974210361240395, 37.577707914546444 ], [ 126.974748632843557, 37.577817773461192 ], [ 126.975297843420023, 37.577885110285422 ], [ 126.97585270285569, 37.57790927640783 ], [ 126.976407866594158, 37.577890039046956 ], [ 126.97695798714453, 37.577827583494738 ], [ 126.977497765617542, 37.577722511331196 ], [ 126.978022002792613, 37.577575834627055 ], [ 126.978525649221936, 37.57738896619037 ], [ 126.979003853888727, 37.577163705951698 ], [ 126.97945201094916, 37.57690222361866 ], [ 126.97986580410732, 37.576607037767921 ], [ 126.980241248194844, 37.576280991576098 ], [ 126.98057472755481, 37.575927225423996 ], [ 126.980863030859496, 37.575549146638494 ], [ 126.981103382027214, 37.575150396664085 ], [ 126.981293466940684, 37.574734815980726 ], [ 126.981431455710378, 37.574306407106413 ], [ 126.98151602026914, 37.573869296041195 ], [ 126.981546347129964, 37.573427692524284 ] ] ] } }
]
}
